EDAC,2012,01,01,00,00,METAR EDAC NIL=
EDAC,2012,01,01,01,00,METAR EDAC NIL=
EDAC,2012,01,01,02,00,METAR EDAC NIL=
EDAC,2012,01,01,03,00,METAR EDAC NIL=
EDAC,2012,01,01,04,00,METAR EDAC NIL=
EDAC,2012,01,01,05,00,METAR EDAC NIL=
EDAC,2012,01,01,06,00,METAR EDAC NIL=
EDAC,2012,01,01,07,00,METAR EDAC NIL=
EDAC,2012,01,01,08,00,METAR EDAC NIL=
EDAC,2012,01,01,09,00,METAR EDAC NIL=
EDAC,2012,01,01,10,00,METAR EDAC NIL=
EDAC,2012,01,01,11,00,METAR EDAC NIL=
EDAC,2012,01,01,12,00,METAR EDAC NIL=
EDAC,2012,01,01,13,00,METAR EDAC NIL=
EDAC,2012,01,01,14,00,METAR EDAC NIL=
EDAC,2012,01,01,15,00,METAR EDAC NIL=
EDAC,2012,01,01,16,00,METAR EDAC NIL=
EDAC,2012,01,01,17,00,METAR EDAC NIL=
EDAC,2012,01,01,18,00,METAR EDAC NIL=
EDAC,2012,01,01,19,00,METAR EDAC NIL=
EDAC,2012,01,01,20,00,METAR EDAC NIL=
EDAC,2012,01,01,21,00,METAR EDAC NIL=
EDAC,2012,01,01,22,00,METAR EDAC NIL=
EDAC,2012,01,01,23,00,METAR EDAC NIL=
EDAH,2012,01,01,00,00,METAR EDAH NIL=
EDAH,2012,01,01,01,00,METAR EDAH NIL=
EDAH,2012,01,01,02,00,METAR EDAH NIL=
EDAH,2012,01,01,03,00,METAR EDAH NIL=
EDAH,2012,01,01,04,00,METAR EDAH NIL=
EDAH,2012,01,01,05,00,METAR EDAH NIL=
EDAH,2012,01,01,06,00,METAR EDAH NIL=
EDAH,2012,01,01,07,00,METAR EDAH NIL=
EDAH,2012,01,01,08,00,METAR EDAH NIL=
EDAH,2012,01,01,09,00,METAR EDAH NIL=
EDAH,2012,01,01,10,00,METAR EDAH NIL=
EDAH,2012,01,01,11,00,METAR EDAH NIL=
EDAH,2012,01,01,12,00,METAR EDAH NIL=
EDAH,2012,01,01,13,00,METAR EDAH NIL=
EDAH,2012,01,01,14,00,METAR EDAH NIL=
EDAH,2012,01,01,15,00,METAR EDAH NIL=
EDAH,2012,01,01,16,00,METAR EDAH NIL=
EDAH,2012,01,01,17,00,METAR EDAH NIL=
EDAH,2012,01,01,18,00,METAR EDAH NIL=
EDAH,2012,01,01,19,00,METAR EDAH NIL=
EDAH,2012,01,01,20,00,METAR EDAH NIL=
EDAH,2012,01,01,21,00,METAR EDAH NIL=
EDAH,2012,01,01,22,00,METAR EDAH NIL=
EDAH,2012,01,01,23,00,METAR EDAH NIL=
EDDB,2012,01,01,00,20,METAR EDDB 010020Z 15007KT 8000 -DZ FEW016 SCT024 BKN120 01/00 Q1011 TEMPO BKN012=
EDDB,2012,01,01,00,50,METAR EDDB 010050Z 15007KT 8000 -DZ BKN007 BKN038 02/01 Q1011 NOSIG=
EDDB,2012,01,01,01,20,METAR EDDB 010120Z 16007KT 7000 BKN005 01/01 Q1011 TEMPO 4000 BR BKN004=
EDDB,2012,01,01,01,50,METAR EDDB 010150Z 16006KT 5000 -DZ BR SCT003 BKN005 02/02 Q1011 TEMPO 4000 BR BKN004=
EDDB,2012,01,01,02,20,METAR EDDB 010220Z 16006KT 3500 -DZ BR BKN002 02/02 Q1011 TEMPO 2000 BR BKN001=
EDDB,2012,01,01,02,50,METAR EDDB 010250Z 16006KT 3000 -DZ BR BKN002 02/02 Q1011 TEMPO 2000 BR BKN001=
EDDB,2012,01,01,03,20,METAR EDDB 010320Z 15006KT 2800 -DZ BR FEW001 BKN002 02/02 Q1011 NOSIG=
EDDB,2012,01,01,03,50,METAR EDDB 010350Z 17004KT 2800 -DZ BR FEW001 BKN002 02/02 Q1011 NOSIG=
EDDB,2012,01,01,04,20,METAR EDDB 010420Z 16003KT 2800 -DZ BR FEW001 BKN002 03/03 Q1010 NOSIG=
EDDB,2012,01,01,04,50,METAR EDDB 010450Z 19004KT 2800 BR BKN002 03/03 Q1011 NOSIG=
EDDB,2012,01,01,05,20,METAR EDDB 010520Z 18005KT 2800 BR BKN002 BKN008 03/03 Q1011 NOSIG=
EDDB,2012,01,01,05,50,METAR EDDB 010550Z 20005KT 3000 BR BKN004 BKN009 04/04 Q1011 TEMPO 2500 BKN005=
EDDB,2012,01,01,06,20,METAR EDDB 010620Z 19005KT 3500 BR SCT010 BKN013 04/04 Q1010 TEMPO 2500 BR BKN015=
EDDB,2012,01,01,06,50,METAR EDDB 010650Z 19006KT 3000 BR SCT017 BKN037 04/04 Q1010 TEMPO 2500 BR=
EDDB,2012,01,01,07,20,METAR EDDB 010720Z 19007KT 2800 BR FEW005 BKN028 05/05 Q1010 BECMG 3000 BR=
EDDB,2012,01,01,07,50,METAR EDDB 010750Z 20007KT 2800 BR FEW005 BKN021 05/05 Q1010 TEMPO 3000 BR BKN008=
EDDB,2012,01,01,08,20,METAR EDDB 010820Z 20007KT 3500 -RA BR FEW004 BKN005 BKN012 05/05 Q1010 TEMPO 2500 RADZ BKN004=
EDDB,2012,01,01,08,50,METAR EDDB 010850Z 21008KT 4500 BR FEW004 BKN005 06/06 Q1010 TEMPO 2500 RADZ BKN004=
EDDB,2012,01,01,09,20,METAR EDDB 010920Z 20006KT 4500 BR FEW004 BKN005 BKN023 06/06 Q1010 TEMPO 2500 RADZ BKN004=
EDDB,2012,01,01,09,50,METAR COR EDDB 010950Z 21008KT 5000 BR BKN005 BKN029 07/06 Q1010 BECMG SCT008=
EDDB,2012,01,01,10,20,METAR COR EDDB 011020Z 22009KT 6000 -RA FEW012 BKN017 07/07 Q1010 TEMPO 4000 RADZ=
EDDB,2012,01,01,10,50,METAR EDDB 011050Z 22009KT 4500 -RADZ SCT016 BKN023 08/07 Q1009 TEMPO RADZ=
EDDB,2012,01,01,11,20,METAR EDDB 011120Z 22010KT 6000 -RA FEW008 BKN019 BKN025 08/07 Q1009 RERA TEMPO 4000 RADZ BKN008=
EDDB,2012,01,01,11,50,METAR EDDB 011150Z 22010KT 4000 -RADZ SCT008 BKN019 08/08 Q1009 RERA BECMG 8000=
EDDB,2012,01,01,12,20,METAR EDDB 011220Z 22012KT 3000 RADZ SCT004 SCT006 BKN019 09/09 Q1009 BECMG 8000 NSW=
EDDB,2012,01,01,12,50,METAR EDDB 011250Z 23013KT 2400 RADZ SCT005 BKN009 09/09 Q1009 BECMG 8000 NSW SCT010=
EDDB,2012,01,01,13,20,METAR EDDB 011320Z 23010KT 4200 -RADZ FEW004 BKN006 BKN011 09/09 Q1009 RERA BECMG 8000 SCT010=
EDDB,2012,01,01,13,50,METAR EDDB 011350Z 23010KT 6000 -RADZ SCT004 BKN005 BKN012 09/09 Q1009 TEMPO BKN010=
EDDB,2012,01,01,14,20,METAR EDDB 011420Z 22009KT 8000 FEW004 BKN006 BKN018 09/09 Q1009 BECMG SCT008 BKN020=
EDDB,2012,01,01,14,50,METAR EDDB 011450Z 22008KT 8000 FEW006 BKN019 09/09 Q1009 NOSIG=
EDDB,2012,01,01,15,20,METAR EDDB 011520Z 23008KT 9999 FEW010 SCT019 BKN023 09/09 Q1009 NOSIG=
EDDB,2012,01,01,15,50,METAR EDDB 011550Z 21007KT 9999 FEW012 SCT018 BKN022 09/09 Q1009 NOSIG=
EDDB,2012,01,01,16,20,METAR EDDB 011620Z 22008KT 9000 -RADZ FEW007 BKN015 BKN026 09/09 Q1010 TEMPO BKN014=
EDDB,2012,01,01,16,50,METAR EDDB 011650Z 22009KT 9999 BKN018 BKN028 10/09 Q1010 NOSIG=
EDDB,2012,01,01,17,20,METAR EDDB 011720Z 22010KT 6000 -RADZ FEW006 BKN008 BKN023 10/09 Q1010 BECMG BKN020=
EDDB,2012,01,01,17,50,METAR EDDB 011750Z 20007KT 9999 SCT014 BKN017 10/09 Q1010 NOSIG=
EDDB,2012,01,01,18,20,METAR EDDB 011820Z 20008KT 9999 FEW014 BKN022 BKN033 10/10 Q1010 NOSIG=
EDDB,2012,01,01,18,50,METAR EDDB 011850Z 20008KT 9999 BKN024 BKN038 10/10 Q1009 NOSIG=
EDDB,2012,01,01,19,20,METAR EDDB 011920Z 20008KT 9999 BKN024 BKN036 10/09 Q1010 NOSIG=
EDDB,2012,01,01,19,50,METAR EDDB 011950Z 21010KT 9999 BKN036 11/10 Q1009 NOSIG=
EDDB,2012,01,01,20,20,METAR EDDB 012020Z 20008KT 9999 -DZRA BKN033 10/09 Q1009 NOSIG=
EDDB,2012,01,01,20,50,METAR EDDB 012050Z 20008KT 9999 SCT036 BKN070 10/09 Q1008 NOSIG=
EDDB,2012,01,01,21,20,METAR EDDB 012120Z 20010KT 9999 BKN038 10/09 Q1008 NOSIG=
EDDB,2012,01,01,21,50,METAR EDDB 012150Z 19011KT 9999 -DZRA FEW010 SCT025 BKN075 10/09 Q1008 NOSIG=
EDDB,2012,01,01,22,20,METAR EDDB 012220Z 20012KT 9999 SCT025 BKN0765 10/09 Q1007 NOSIG=
EDDB,2012,01,01,22,50,METAR EDDB 012250Z 20011KT 9999 BKN025 BKN070 11/09 Q1007 NOSIG=
EDDC,2012,01,01,00,20,METAR EDDC 010020Z 16004KT 1600 -DZ BR BKN004 BKN007 02/02 Q1011 REDZ=
EDDC,2012,01,01,00,50,METAR EDDC 010050Z 17003KT 1200 R22/P2000N -DZ BR BKN002 BKN006 02/02 Q1011=
EDDC,2012,01,01,01,20,METAR EDDC 010120Z 19005KT 1200 R22/P2000N -DZ BR BKN001 BKN006 03/03 Q1011=
EDDC,2012,01,01,01,50,METAR EDDC 010150Z 19005KT 1500 -DZ BR BKN001 BKN006 03/03 Q1011=
EDDC,2012,01,01,02,20,METAR EDDC 010220Z 19006KT 1300 R22/P2000N -DZ BR BKN001 BKN006 03/03 Q1011=
EDDC,2012,01,01,02,50,METAR EDDC 010250Z 19005KT 2300 -DZ BR BKN002 BKN008 03/03 Q1011=
EDDC,2012,01,01,03,20,METAR EDDC 010320Z 17005KT 4000 BR SCT008 BKN013 03/03 Q1011=
EDDC,2012,01,01,03,50,METAR EDDC 010350Z 19004KT 6000 BKN012 03/03 Q1011=
EDDC,2012,01,01,04,20,METAR EDDC 010420Z 17004KT 9000 BKN013 BKN050 03/03 Q1011=
EDDC,2012,01,01,04,50,METAR EDDC 010450Z 19003KT 9000 SCT014 SCT019 03/03 Q1011 TEMPO BKN014=
EDDC,2012,01,01,05,20,METAR EDDC 010520Z 18006KT 9000 FEW019 BKN050 03/03 Q1011 NOSIG=
EDDC,2012,01,01,05,50,METAR EDDC 010550Z 18009KT 9999 FEW014 BKN046 04/04 Q1011 NOSIG=
EDDC,2012,01,01,06,20,METAR EDDC 010620Z 18007KT 9999 SCT028 BKN034 04/04 Q1011 NOSIG=
EDDC,2012,01,01,06,50,METAR EDDC 010650Z 19009KT 9999 BKN028 04/04 Q1012 TEMPO 2500 DZ BKN008=
EDDC,2012,01,01,07,20,METAR EDDC 010720Z 19008KT 9999 SCT015 BKN019 04/04 Q1012 TEMPO 2500 DZ BKN008=
EDDC,2012,01,01,07,50,METAR EDDC 010750Z 18010KT 5000 -DZ BR SCT004 BKN009 04/04 Q1012 TEMPO 2500 DZ=
EDDC,2012,01,01,08,20,METAR EDDC 010820Z 20008KT 9999 SCT014 BKN022 05/05 Q1012 NOSIG=
EDDC,2012,01,01,08,50,METAR EDDC 010850Z 19008KT 9999 FEW029 BKN037 06/05 Q1012 NOSIG=
EDDC,2012,01,01,09,20,METAR EDDC 010920Z 20009KT 9999 BKN030 06/05 Q1012 NOSIG=
EDDC,2012,01,01,09,50,METAR EDDC 010950Z 19007KT 9999 BKN031 07/06 Q1012 NOSIG=
EDDC,2012,01,01,10,20,METAR EDDC 011020Z 20008KT 9999 -DZ FEW008 BKN028 07/06 Q1012 TEMPO RA BKN008=
EDDC,2012,01,01,10,50,METAR EDDC 011050Z 21008KT 9999 FEW028 BKN034 08/06 Q1012 TEMPO RA=
EDDC,2012,01,01,11,20,METAR EDDC 011120Z 22008KT 9999 -RA FEW024 BKN032 09/07 Q1011 TEMPO RA=
EDDC,2012,01,01,11,50,METAR EDDC 011150Z 21007KT 9999 -RA SCT014 BKN020 09/07 Q1011 NOSIG=
EDDC,2012,01,01,12,20,METAR EDDC 011220Z 24008KT 9999 -RA SCT014 BKN016 10/08 Q1011 TEMPO BKN014=
EDDC,2012,01,01,12,50,METAR EDDC 011250Z 23009KT 9999 FEW014 BKN023 10/08 Q1011 TEMPO RA BKN012=
EDDC,2012,01,01,13,20,METAR EDDC 011320Z 23008KT 9999 -DZRA FEW014 BKN022 10/09 Q1011 RERA NOSIG=
EDDC,2012,01,01,13,50,METAR EDDC 011350Z 24009KT 9999 -DZRA FEW016 BKN022 10/09 Q1011 NOSIG=
EDDC,2012,01,01,14,20,METAR EDDC 011420Z 24007KT 9999 -DZRA FEW010 BKN022 10/09 Q1011 NOSIG=
EDDC,2012,01,01,14,50,METAR EDDC 011450Z 23008KT 9999 BKN022 SCT036 11/09 Q1011 NOSIG=
EDDC,2012,01,01,15,20,METAR EDDC 011520Z 23007KT 9999 BKN022 SCT036 10/09 Q1011 NOSIG=
EDDC,2012,01,01,15,50,METAR EDDC 011550Z 22008KT 9999 BKN025 11/08 Q1011 NOSIG=
EDDC,2012,01,01,16,20,METAR EDDC 011620Z 23008KT 9999 BKN025 11/08 Q1011 NOSIG=
EDDC,2012,01,01,16,50,METAR EDDC 011650Z 22007KT 9999 BKN027 10/08 Q1012 NOSIG=
EDDC,2012,01,01,17,20,METAR EDDC 011720Z 24007KT 9999 BKN029 11/09 Q1012 NOSIG=
EDDC,2012,01,01,17,50,METAR EDDC 011750Z 22006KT 9999 FEW011 BKN028 11/09 Q1012 NOSIG=
EDDC,2012,01,01,18,20,METAR EDDC 011820Z 19007KT 9999 BKN030 09/07 Q1012 NOSIG=
EDDC,2012,01,01,18,50,METAR EDDC 011850Z 18008KT 9999 BKN032 09/08 Q1012 NOSIG=
EDDC,2012,01,01,19,20,METAR EDDC 011920Z 22008KT 9999 BKN031 10/08 Q1012 NOSIG=
EDDC,2012,01,01,19,50,METAR EDDC 011950Z 21006KT 9999 BKN032 09/07 Q1011 NOSIG=
EDDC,2012,01,01,20,20,METAR EDDC 012020Z 18004KT 9999 BKN039 08/07 Q1011 NOSIG=
EDDC,2012,01,01,20,50,METAR EDDC 012050Z 18007KT 9999 SCT040 09/07 Q1011 NOSIG=
EDDC,2012,01,01,21,20,METAR EDDC 012120Z 18010KT 9999 FEW023 BKN084 09/07 Q1011=
EDDC,2012,01,01,21,50,METAR EDDC 012150Z 18007KT 9999 FEW016 SCT074 BKN088 09/07 Q1010=
EDDC,2012,01,01,22,20,METAR EDDC 012220Z 18010KT CAVOK 09/07 Q1010=
EDDC,2012,01,01,22,50,METAR EDDC 012250Z 18007KT CAVOK 10/07 Q1009=
EDDE,2012,01,01,00,20,METAR EDDE 010020Z 23009KT 9999 BKN010 BKN019 05/04 Q1011=
EDDE,2012,01,01,00,50,METAR EDDE 010050Z 23010KT 9999 BKN012 BKN020 05/05 Q1011=
EDDE,2012,01,01,01,20,METAR EDDE 010120Z 22010KT 9999 BKN009 05/05 Q1011=
EDDE,2012,01,01,01,50,METAR EDDE 010150Z 21009KT 9999 SCT013 BKN028 06/05 Q1011=
EDDE,2012,01,01,02,20,METAR EDDE 010220Z 20009KT 9999 SCT013 BKN020 06/05 Q1011=
EDDE,2012,01,01,02,50,METAR EDDE 010250Z 22008KT 9999 BKN012 06/05 Q1011=
EDDE,2012,01,01,03,20,METAR EDDE 010320Z 22009KT 9999 BKN014 07/05 Q1011=
EDDE,2012,01,01,03,50,METAR EDDE 010350Z 23012KT 9999 SCT014 BKN036 07/05 Q1011=
EDDE,2012,01,01,04,20,METAR EDDE 010420Z 22011KT 9999 SCT015 BKN036 07/06 Q1011=
EDDE,2012,01,01,04,50,METAR EDDE 010450Z 22009KT 9999 FEW027 BKN032 07/06 Q1011 NOSIG=
EDDE,2012,01,01,05,20,METAR EDDE 010520Z 22008KT 9999 FEW013 BKN036 07/06 Q1011 NOSIG=
EDDE,2012,01,01,05,50,METAR EDDE 010550Z 22010KT 9999 FEW013 BKN036 07/06 Q1011 NOSIG=
EDDE,2012,01,01,06,20,METAR EDDE 010620Z 22008KT 9999 SCT017 BKN036 07/06 Q1011 TEMPO BKN012=
EDDE,2012,01,01,06,50,METAR EDDE 010650Z 20006KT 9999 FEW015 BKN020 07/06 Q1011 TEMPO BKN012=
EDDE,2012,01,01,07,20,METAR EDDE 010720Z 19007KT 9999 FEW016 SCT022 BKN028 08/06 Q1011 TEMPO 3500 RADZ BKN012=
EDDE,2012,01,01,07,50,METAR EDDE 010750Z 21009KT 9999 -RA FEW015 SCT020 BKN070 08/06 Q1011 TEMPO 3500 RADZ BKN012=
EDDE,2012,01,01,08,20,METAR EDDE 010820Z 21012KT 9999 -RA FEW015 BKN054 09/07 Q1011 NOSIG=
EDDE,2012,01,01,08,50,METAR EDDE 010850Z 22013KT 9999 -RA FEW015 SCT020 BKN120 09/07 Q1012 NOSIG=
EDDE,2012,01,01,09,20,METAR EDDE 010920Z 23014KT 9999 FEW015 SCT060 BKN120 10/08 Q1012 NOSIG=
EDDE,2012,01,01,09,50,METAR EDDE 010950Z 22012KT 9999 FEW020 SCT060 BKN120 10/08 Q1012 NOSIG=
EDDE,2012,01,01,10,20,METAR EDDE 011020Z 23013KT 9999 FEW020 SCT026 BKN120 10/08 Q1012 NOSIG=
EDDE,2012,01,01,10,50,METAR EDDE 011050Z 23014KT 9999 FEW015 SCT020 BKN120 11/09 Q1011 NOSIG=
EDDE,2012,01,01,11,20,METAR EDDE 011120Z 23012KT 9999 BKN016 BKN120 11/08 Q1011 TEMPO BKN014=
EDDE,2012,01,01,11,50,METAR EDDE 011150Z 23015KT 9999 SCT016 SCT020 BKN120 11/09 Q1011 NOSIG=
EDDE,2012,01,01,12,20,METAR EDDE 011220Z 23011KT 9999 SCT016 SCT026 BKN120 11/09 Q1011 NOSIG=
EDDE,2012,01,01,12,50,METAR EDDE 011250Z 23013KT 9999 -DZRA BKN016 BKN026 11/09 Q1011 TEMPO BKN013=
EDDE,2012,01,01,13,20,METAR EDDE 011320Z 23013KT 9999 -DZRA BKN016 BKN026 10/09 Q1011 TEMPO BKN013=
EDDE,2012,01,01,13,50,METAR EDDE 011350Z 23012KT 9999 -DZRA SCT016 SCT026 BKN100 10/10 Q1011 NOSIG=
EDDE,2012,01,01,14,20,METAR EDDE 011420Z 22011KT 9999 -DZRA FEW016 BKN026 BKN100 10/10 Q1011 NOSIG=
EDDE,2012,01,01,14,50,METAR EDDE 011450Z 22011KT 9999 FEW016 BKN300 10/09 Q1011 NOSIG=
EDDE,2012,01,01,15,20,METAR EDDE 011520Z 23011KT 9999 FEW016 SCT033 BKN300 10/09 Q1011 NOSIG=
EDDE,2012,01,01,15,50,METAR EDDE 011550Z 22012KT 9999 FEW016 SCT040 BKN300 10/08 Q1011 NOSIG=
EDDE,2012,01,01,16,20,METAR EDDE 011620Z 22014KT 9999 SCT039 SCT100 BKN300 10/09 Q1011 NOSIG=
EDDE,2012,01,01,16,50,METAR EDDE 011650Z 22011KT 9999 FEW015 BKN022 10/09 Q1011 NOSIG=
EDDE,2012,01,01,17,20,METAR EDDE 011720Z 21008KT 9999 SCT015 BKN019 10/08 Q1011 NOSIG=
EDDE,2012,01,01,17,50,METAR EDDE 011750Z 19006KT 9999 SCT016 BKN100 10/09 Q1011 NOSIG=
EDDE,2012,01,01,18,20,METAR EDDE 011820Z 20008KT 9999 FEW018 SCT100 BKN300 10/08 Q1010 NOSIG=
EDDE,2012,01,01,18,50,METAR EDDE 011850Z 21011KT 9999 FEW018 BKN300 10/08 Q1010 NOSIG=
EDDE,2012,01,01,19,20,METAR EDDE 011920Z 21015KT 9999 BKN016 BKN300 11/09 Q1010 NOSIG=
EDDE,2012,01,01,19,50,METAR EDDE 011950Z 21016KT 9999 SCT018 SCT073 11/09 Q1010 NOSIG=
EDDE,2012,01,01,20,20,METAR EDDE 012020Z 20012KT 9999 FEW018 BKN073 11/09 Q1010 NOSIG=
EDDE,2012,01,01,20,50,METAR EDDE 012050Z 20012KT 9999 FEW016 SCT066 11/09 Q1009 NOSIG=
EDDE,2012,01,01,21,20,METAR EDDE 012120Z 21013KT 9999 SCT023 BKN100 11/09 Q1009=
EDDE,2012,01,01,21,50,METAR EDDE 012150Z 21016KT 9999 BKN020 BKN100 12/09 Q1008=
EDDE,2012,01,01,22,20,METAR EDDE 012220Z 21014KT 9999 BKN023 BKN100 11/09 Q1008=
EDDE,2012,01,01,22,50,METAR EDDE 012250Z 21015KT 9999 BKN023 12/09 Q1008=
EDDF,2012,01,01,00,20,METAR EDDF 010020Z 21008KT 3200 R25L/P2000N R25C/P2000N R25R/0800V1900D BCFG FEW002 BKN023 09/09 Q1013 NOSIG=
EDDF,2012,01,01,00,50,METAR EDDF 010050Z 19006KT 3200 R25L/P2000N R25C/P2000N R25R/0800N BCFG FEW002 SCT028 BKN042 09/09 Q1013 NOSIG=
EDDF,2012,01,01,01,20,METAR EDDF 010120Z 18007KT 3200 R25L/P2000N R25C/P2000N R25R/0325N BCFG FEW002 BKN028 09/09 Q1014 NOSIG=
EDDF,2012,01,01,01,50,METAR EDDF 010150Z 18008KT 5000 BCFG FEW004 SCT021 BKN045 10/10 Q1013 NOSIG=
EDDF,2012,01,01,02,20,METAR EDDF 010220Z 20009KT 7000 BCFG FEW003 SCT017 BKN046 10/10 Q1013 NOSIG=
EDDF,2012,01,01,02,50,METAR EDDF 010250Z 20010KT 6000 R25L/P2000N R25C/P2000N R25R/0900D BCFG FEW003 BKN019 BKN046 10/10 Q1014 NOSIG=
EDDF,2012,01,01,03,20,METAR EDDF 010320Z 20007KT 5000 R25L/P2000N R25C/P2000N R25R/0800N -DZ BCFG FEW003 SCT009 BKN019 10/10 Q1014 TEMPO BKN009=
EDDF,2012,01,01,03,50,METAR EDDF 010350Z 20007KT 6000 R25L/P2000N R25C/P2000N R25R/0900VP2000U BCFG FEW003 BKN022 BKN046 10/10 Q1014 NOSIG=
EDDF,2012,01,01,04,20,METAR EDDF 010420Z 19010G20KT 7000 FEW003 SCT022 BKN042 10/10 Q1013 NOSIG=
EDDF,2012,01,01,04,50,METAR EDDF 010450Z 20010G21KT 7000 -RADZ FEW004 BKN023 10/10 Q1013 NOSIG=
EDDF,2012,01,01,05,20,METAR EDDF 010520Z 20009KT 7000 -RADZ FEW004 BKN020 10/10 Q1014 NOSIG=
EDDF,2012,01,01,05,50,METAR EDDF 010550Z 20010KT 7000 FEW002 SCT004 BKN018 10/10 Q1014 NOSIG=
EDDF,2012,01,01,06,20,METAR EDDF 010620Z 20011KT 7000 SCT004 BKN018 BKN026 10/10 Q1014 NOSIG=
EDDF,2012,01,01,06,50,METAR EDDF 010650Z 20013KT 8000 SCT004 BKN015 BKN023 11/11 Q1014 BECMG BKN004=
EDDF,2012,01,01,07,20,METAR EDDF 010720Z 20011KT 9999 FEW004 BKN022 11/11 Q1014 BECMG BKN004=
EDDF,2012,01,01,07,50,METAR EDDF 010750Z 21013KT 9999 FEW004 BKN023 11/11 Q1014 NOSIG=
EDDF,2012,01,01,08,20,METAR EDDF 010820Z 20011KT 9999 FEW004 SCT015 BKN026 11/11 Q1014 NOSIG=
EDDF,2012,01,01,08,50,METAR EDDF 010850Z 20011KT 9999 FEW004 SCT015 BKN022 11/11 Q1015 NOSIG=
EDDF,2012,01,01,09,20,METAR EDDF 010920Z 20012KT 9999 FEW004 SCT012 BKN016 11/11 Q1015 NOSIG=
EDDF,2012,01,01,09,50,METAR EDDF 010950Z 20011KT 9999 -RA FEW004 SCT007 BKN017 11/11 Q1015 NOSIG=
EDDF,2012,01,01,10,20,METAR EDDF 011020Z 20010KT 9999 SCT007 SCT017 BKN028 12/12 Q1015 NOSIG=
EDDF,2012,01,01,10,50,METAR EDDF 011050Z 21013KT 9999 FEW007 SCT017 BKN022 12/11 Q1014 NOSIG=
EDDF,2012,01,01,11,20,METAR EDDF 011120Z 20014KT 9999 FEW007 BKN023 BKN028 12/11 Q1014 NOSIG=
EDDF,2012,01,01,11,50,METAR EDDF 011150Z 19011KT 9999 FEW007 SCT016 BKN034 12/11 Q1014 NOSIG=
EDDF,2012,01,01,12,20,METAR EDDF 011220Z 19011KT 9999 FEW009 BKN017 BKN032 12/12 Q1014 NOSIG=
EDDF,2012,01,01,12,50,METAR EDDF 011250Z 19011KT 9999 FEW009 BKN022 BKN029 12/11 Q1013 NOSIG=
EDDF,2012,01,01,13,20,METAR EDDF 011320Z 19010KT 9999 FEW009 BKN021 BKN031 12/12 Q1013 NOSIG=
EDDF,2012,01,01,13,50,METAR EDDF 011350Z 18009KT 9999 FEW009 BKN022 BKN025 12/11 Q1013 NOSIG=
EDDF,2012,01,01,14,20,METAR EDDF 011420Z 20011KT 9999 FEW009 BKN021 12/11 Q1013 NOSIG=
EDDF,2012,01,01,14,50,METAR EDDF 011450Z 19010KT 9999 FEW010 BKN017 BKN020 12/11 Q1013 NOSIG=
EDDF,2012,01,01,15,20,METAR EDDF 011520Z 20010KT 9999 FEW010 BKN015 BKN019 12/11 Q1013 NOSIG=
EDDF,2012,01,01,15,50,METAR EDDF 011550Z 20010KT 9999 FEW010 BKN019 BKN022 12/11 Q1013 NOSIG=
EDDF,2012,01,01,16,20,METAR EDDF 011620Z 20010KT 9999 SCT016 BKN018 BKN021 12/11 Q1013 NOSIG=
EDDF,2012,01,01,16,50,METAR EDDF 011650Z 19012KT 9999 SCT016 BKN018 BKN021 12/11 Q1013 NOSIG=
EDDF,2012,01,01,17,20,METAR EDDF 011720Z 20011KT 9999 BKN014 BKN017 12/11 Q1013 TEMPO SCT014=
EDDF,2012,01,01,17,50,METAR EDDF 011750Z 19012KT 9999 -RA BKN015 BKN020 12/11 Q1013 NOSIG=
EDDF,2012,01,01,18,20,METAR EDDF 011820Z 20013KT 9999 -RA FEW011 SCT013 BKN014 12/11 Q1012 BECMG SCT014=
EDDF,2012,01,01,18,50,METAR EDDF 011850Z 21014KT 9999 FEW011 BKN014 12/11 Q1012 BECMG SCT014=
EDDF,2012,01,01,19,20,METAR EDDF 011920Z 21014KT 9999 SCT013 BKN016 13/11 Q1012 NOSIG=
EDDF,2012,01,01,19,50,METAR EDDF 011950Z 19012KT 9999 FEW013 BKN017 BKN022 13/11 Q1012 NOSIG=
EDDF,2012,01,01,20,20,METAR EDDF 012020Z 19011KT 9999 FEW013 BKN018 13/11 Q1012 NOSIG=
EDDF,2012,01,01,20,50,METAR EDDF 012050Z 20012KT 9999 FEW013 BKN023 12/11 Q1011 NOSIG=
EDDF,2012,01,01,21,20,METAR COR EDDF 012120Z 20013KT 9999 -RA FEW008 BKN018 BKN024 12/11 Q1011 NOSIG=
EDDF,2012,01,01,21,50,METAR EDDF 012150Z 20014KT 9999 -RA FEW016 BKN033 13/10 Q1011 NOSIG=
EDDF,2012,01,01,22,20,METAR EDDF 012220Z 20015KT 9999 FEW016 BKN023 13/10 Q1010 NOSIG=
EDDF,2012,01,01,22,50,METAR EDDF 012250Z 20014KT 9999 FEW017 BKN024 13/10 Q1010 NOSIG=
EDDG,2012,01,01,00,20,METAR EDDG 010020Z 21007KT 2500 -DZ BR FEW003 BKN006 10/10 Q1009 NOSIG=
EDDG,2012,01,01,00,50,METAR EDDG 010050Z 20006KT 3000 -DZ BR OVC006 10/10 Q1009 NOSIG=
EDDG,2012,01,01,01,20,METAR EDDG 010120Z 21007KT 4500 BR SCT006 BKN009 10/09 Q1009 NOSIG=
EDDG,2012,01,01,01,50,METAR EDDG 010150Z 22008KT 7000 BKN009 10/09 Q1009 NOSIG=
EDDG,2012,01,01,02,20,METAR EDDG 010220Z 22009KT 7000 BKN011 10/09 Q1009 NOSIG=
EDDG,2012,01,01,02,50,METAR COR EDDG 010250Z 21007KT 7000 BKN010 11/09 Q1009 TEMPO BKN008=
EDDG,2012,01,01,03,20,METAR EDDG 010320Z 21008KT 7000 BKN009 10/09 Q1009 NOSIG=
EDDG,2012,01,01,03,50,METAR EDDG 010350Z 21008KT 6000 BKN006 11/10 Q1009 NOSIG=
EDDG,2012,01,01,04,20,METAR EDDG 010420Z 20008KT 4500 BR BKN005 10/10 Q1008 TEMPO 2500 RA BKN004=
EDDG,2012,01,01,04,50,METAR EDDG 010450Z 21008KT 4000 RA BKN005 11/10 Q1008 BECMG NSW=
EDDG,2012,01,01,05,20,METAR EDDG 010520Z 21010KT 6000 -RA BKN007 11/10 Q1008 RERA NOSIG=
EDDG,2012,01,01,05,50,METAR EDDG 010550Z 21009KT 6000 BKN005 11/10 Q1008 NOSIG=
EDDG,2012,01,01,06,20,METAR EDDG 010620Z 22011KT 5000 -DZRA BR FEW003 BKN006 11/10 Q1008 NOSIG=
EDDG,2012,01,01,06,50,METAR EDDG 010650Z 21011KT 6000 FEW003 BKN006 BKN010 11/10 Q1008 NOSIG=
EDDG,2012,01,01,07,20,METAR EDDG 010720Z 22011KT 7000 -DZ FEW003 BKN007 BKN011 11/10 Q1008 NOSIG=
EDDG,2012,01,01,07,50,METAR EDDG 010750Z 22009KT 7000 -DZ BKN006 BKN011 11/10 Q1009 NOSIG=
EDDG,2012,01,01,08,20,METAR EDDG 010820Z 22010KT 6000 -DZ BKN006 BKN011 11/10 Q1009 NOSIG=
EDDG,2012,01,01,08,50,METAR EDDG 010850Z 22011KT 4800 -DZ BR BKN007 BKN012 11/10 Q1009 NOSIG=
EDDG,2012,01,01,09,20,METAR EDDG 010920Z 23011KT 3300 -DZ BR BKN006 BKN010 11/11 Q1009 TEMPO DZ=
EDDG,2012,01,01,09,50,METAR EDDG 010950Z 23011KT 7000 -RADZ FEW004 BKN006 BKN012 11/11 Q1009 RERA NOSIG=
EDDG,2012,01,01,10,20,METAR EDDG 011020Z 23009KT 9000 -RA FEW006 BKN008 BKN013 12/11 Q1009 NOSIG=
EDDG,2012,01,01,10,50,METAR EDDG 011050Z 23009KT 6000 -DZRA FEW004 BKN008 BKN013 12/11 Q1009 NOSIG=
EDDG,2012,01,01,11,20,METAR EDDG 011120Z 22008KT 8000 -DZRA FEW004 BKN007 BKN012 12/11 Q1009 NOSIG=
EDDG,2012,01,01,11,50,METAR EDDG 011150Z 21009KT 5000 -DZRA FEW004 BKN007 BKN012 12/11 Q1009 TEMPO 4000 BR=
EDDG,2012,01,01,12,20,METAR EDDG 011220Z 22008KT 7000 -DZ FEW004 BKN007 BKN013 12/11 Q1009 TEMPO 4000 BR=
EDDG,2012,01,01,12,50,METAR EDDG 011250Z 22007KT 5000 -DZ FEW005 BKN008 BKN013 12/11 Q1009 TEMPO 4000 BR=
EDDG,2012,01,01,13,20,METAR EDDG 011320Z 21008KT 4000 -DZ FEW005 BKN008 BKN013 12/11 Q1008 TEMPO RA=
EDDG,2012,01,01,13,50,METAR EDDG 011350Z 21006KT 4000 RADZ FEW003 BKN006 BKN010 12/11 Q1008 NOSIG=
EDDG,2012,01,01,14,20,METAR EDDG 011420Z 19006KT 4500 DZRA FEW003 BKN006 BKN011 12/11 Q1008 BECMG 6000 NSW=
EDDG,2012,01,01,14,50,METAR EDDG 011450Z 19008KT 6000 RADZ FEW004 BKN008 BKN013 12/11 Q1008 BECMG NSW=
EDDG,2012,01,01,15,20,METAR EDDG 011520Z 19007KT 5000 -DZRA BR FEW004 BKN006 BKN010 12/12 Q1008 RERA TEMPO 4000 BR=
EDDG,2012,01,01,15,50,METAR EDDG 011550Z 18008KT 6000 -RA FEW004 BKN006 BKN011 12/11 Q1007 TEMPO 4000 BR=
EDDG,2012,01,01,16,20,METAR EDDG 011620Z 19008KT 7000 FEW004 BKN008 BKN014 12/11 Q1007 NOSIG=
EDDG,2012,01,01,16,50,METAR EDDG 011650Z 19008KT 4000 -DZ BR FEW004 BKN006 BKN009 12/12 Q1007 TEMPO 6000=
EDDG,2012,01,01,17,20,METAR EDDG 011720Z 19009KT 7000 -RA FEW004 BKN008 BKN013 12/11 Q1006 TEMPO 4000 BR=
EDDG,2012,01,01,17,50,METAR EDDG 011750Z 19009KT 7000 -RADZ FEW004 SCT006 BKN008 12/11 Q1006 TEMPO 4000 BR=
EDDG,2012,01,01,18,20,METAR EDDG 011820Z 18010KT 5000 -RADZ SCT004 BKN008 12/12 Q1006 TEMPO 4000 BR=
EDDG,2012,01,01,18,50,METAR EDDG 011850Z 19012KT 3500 -RADZ BR FEW003 SCT005 BKN009 12/11 Q1005 BECMG RA=
EDDG,2012,01,01,19,20,METAR EDDG 011920Z 19011KT 6000 RADZ FEW003 SCT008 BKN012 12/11 Q1005 TEMPO 4000=
EDDG,2012,01,01,19,50,METAR EDDG 011950Z 18010KT 9999 RA FEW008 SCT012 BKN050 12/11 Q1004 TEMPO 4000=
EDDG,2012,01,01,20,20,METAR EDDG 012020Z 19012KT 9999 -RA FEW012 SCT018 BKN024 13/11 Q1003 RERA TEMPO 4000 RA=
EDDG,2012,01,01,20,50,METAR EDDG 012050Z 19013KT 9999 SCT018 BKN024 13/11 Q1003 TEMPO 4000 RA=
EDDG,2012,01,01,21,20,METAR EDDG 012120Z 19013KT 9999 FEW020 BKN023 13/11 Q1002 TEMPO 4000 RA=
EDDG,2012,01,01,21,50,METAR EDDG 012150Z 19014KT 9999 -RA FEW015 BKN025 13/11 Q1002 TEMPO 4000 RA=
EDDG,2012,01,01,22,20,METAR EDDG 012220Z 19014KT 9999 -RA FEW012 SCT023 BKN031 14/10 Q1001 TEMPO 4000 RA=
EDDG,2012,01,01,22,50,METAR EDDG 012250Z 20015KT 9999 -RA FEW012 SCT017 BKN022 13/11 Q1001 TEMPO 4000 RA=
EDDH,2012,01,01,00,20,METAR EDDH 010020Z 15006KT 0100 R23/0175N R15/M0125N FG VV/// 05/05 Q1008 BECMG 0500=
EDDH,2012,01,01,00,50,METAR EDDH 010050Z 15006KT 0150 R23/0300N R15/0150N FG VV/// 05/05 Q1007 BECMG 0500=
EDDH,2012,01,01,01,20,METAR EDDH 010120Z 15006KT 0200 R23/0550N R15/0375N FG VV/// 05/05 Q1007 BECMG 0500=
EDDH,2012,01,01,01,50,METAR EDDH 010150Z 15006KT 0250 R23/0600N R15/0400N FG VV/// 05/05 Q1007 BECMG 0500=
EDDH,2012,01,01,02,20,METAR EDDH 010220Z 16007KT 0400 R23/0800N R15/0550V0800U FG VV/// 06/06 Q1007 BECMG 0500=
EDDH,2012,01,01,02,50,METAR EDDH 010250Z 16007KT 0800 R23/1100V1700U R15/1000V1400U FG BKN001 06/06 Q1006 NOSIG=
EDDH,2012,01,01,03,20,METAR EDDH 010320Z 17006KT 1800 BR BKN002 06/06 Q1006 BECMG 4000=
EDDH,2012,01,01,03,50,METAR EDDH 010350Z 17006KT 2500 BR SCT002 BKN003 07/07 Q1006 BECMG 4000=
EDDH,2012,01,01,04,20,METAR EDDH 010420Z 17006KT 2800 BR BKN003 08/08 Q1006 BECMG 4000=
EDDH,2012,01,01,04,50,METAR EDDH 010450Z 20010KT 3200 BR BKN003 09/09 Q1005 NOSIG=
EDDH,2012,01,01,05,20,METAR EDDH 010520Z 20009KT 4000 BR BKN003 09/09 Q1005 TEMPO 6000=
EDDH,2012,01,01,05,50,METAR EDDH 010550Z 21011KT 4000 BR BKN003 09/09 Q1005 NOSIG=
EDDH,2012,01,01,06,20,METAR EDDH 010620Z 21012KT 3800 -RADZ BKN003 10/10 Q1005 RERA NOSIG=
EDDH,2012,01,01,06,50,METAR COR EDDH 010650Z 22011KT 4500 -RADZ BKN003 10/10 Q1005 RERA NOSIG=
EDDH,2012,01,01,07,20,METAR EDDH 010720Z 22011KT 4000 -DZRA BKN004 10/10 Q1005 RERA NOSIG=
EDDH,2012,01,01,07,50,METAR EDDH 010750Z 22012KT 3000 DZRA BKN003 10/10 Q1006 RERA NOSIG=
EDDH,2012,01,01,08,20,METAR EDDH 010820Z 23011KT 4500 -DZRA BKN003 10/10 Q1006 REDZ NOSIG=
EDDH,2012,01,01,08,50,METAR EDDH 010850Z 22012KT 4500 BR FEW003 BKN005 10/10 Q1005 TEMPO 6000 BKN006=
EDDH,2012,01,01,09,20,METAR EDDH 010920Z 23011KT 3000 DZ FEW003 BKN005 10/10 Q1006 TEMPO 6000 BKN006=
EDDH,2012,01,01,09,50,METAR EDDH 010950Z 23011KT 4500 -DZ FEW003 BKN006 11/11 Q1006 REDZ BECMG 6000=
EDDH,2012,01,01,10,20,METAR EDDH 011020Z 24011KT 3500 -DZ BR FEW003 BKN007 11/11 Q1006 BECMG 6000 BKN010=
EDDH,2012,01,01,10,50,METAR EDDH 011050Z 24012KT 4500 -DZ FEW003 BKN007 11/11 Q1006 BECMG 6000 BKN010=
EDDH,2012,01,01,11,20,METAR EDDH 011120Z 24011KT 6000 -DZ FEW003 BKN007 11/11 Q1006 BECMG BKN010=
EDDH,2012,01,01,11,50,METAR EDDH 011150Z 26009KT 9999 SCT009 BKN022 11/10 Q1006 NOSIG=
EDDH,2012,01,01,12,20,METAR EDDH 011220Z 25007KT 9999 SCT009 BKN022 BKN130 11/10 Q1006 NOSIG=
EDDH,2012,01,01,12,50,METAR EDDH 011250Z 23007KT 9999 FEW010 BKN018 OVC130 11/10 Q1006 NOSIG=
EDDH,2012,01,01,13,20,METAR EDDH 011320Z 24009KT 9999 SCT015 BKN031 BKN130 11/10 Q1006 NOSIG=
EDDH,2012,01,01,13,50,METAR EDDH 011350Z 24010KT 9999 FEW015 BKN033 11/10 Q1006 NOSIG=
EDDH,2012,01,01,14,20,METAR EDDH 011420Z 23009KT 9999 FEW015 BKN250 11/09 Q1006 NOSIG=
EDDH,2012,01,01,14,50,METAR EDDH 011450Z 23008KT 9999 FEW015 BKN250 10/09 Q1006 NOSIG=
EDDH,2012,01,01,15,20,METAR EDDH 011520Z 22006KT 9999 FEW015 BKN250 09/08 Q1006 NOSIG=
EDDH,2012,01,01,15,50,METAR EDDH 011550Z 22006KT 9999 FEW015 SCT140 BKN250 09/08 Q1006 NOSIG=
EDDH,2012,01,01,16,20,METAR EDDH 011620Z 20008KT 9999 FEW027 SCT090 BKN250 10/09 Q1006 NOSIG=
EDDH,2012,01,01,16,50,METAR EDDH 011650Z 21007KT 9999 BKN026 10/10 Q1006 NOSIG=
EDDH,2012,01,01,17,20,METAR EDDH 011720Z 20008KT 9999 BKN019 11/10 Q1005 NOSIG=
EDDH,2012,01,01,17,50,METAR EDDH 011750Z 18008KT 9999 -DZ SCT007 BKN014 11/10 Q1005 NOSIG=
EDDH,2012,01,01,18,20,METAR EDDH 011820Z 17007KT 9999 BKN009 10/10 Q1005 NOSIG=
EDDH,2012,01,01,18,50,METAR EDDH 011850Z 16008KT 7000 -DZRA BKN009 11/11 Q1004 NOSIG=
EDDH,2012,01,01,19,20,METAR EDDH 011920Z 17008KT 9999 BKN009 11/11 Q1004 NOSIG=
EDDH,2012,01,01,19,50,METAR EDDH 011950Z 17009KT 8000 -DZ BKN008 11/11 Q1003 NOSIG=
EDDH,2012,01,01,20,20,METAR EDDH 012020Z 17010KT 8000 -DZ BKN008 11/11 Q1002 NOSIG=
EDDH,2012,01,01,20,50,METAR EDDH 012050Z 17010KT 9000 -RA BKN008 BKN012 12/11 Q1001 NOSIG=
EDDH,2012,01,01,21,20,METAR EDDH 012120Z 18012KT 6000 RA BKN008 BKN012 12/12 Q1000 TEMPO 4000=
EDDH,2012,01,01,21,50,METAR EDDH 012150Z 18013KT 9999 -RA BKN008 BKN012 12/11 Q1000 RERA TEMPO 4000 RA=
EDDH,2012,01,01,22,20,METAR EDDH 012220Z 19012G24KT 9999 -RA BKN009 BKN013 12/11 Q0999 TEMPO 4000 RA=
EDDH,2012,01,01,22,50,METAR EDDH 012250Z 19011G22KT 9999 -RA BKN010 BKN015 12/11 Q0998 TEMPO 4000 RA=
EDDK,2012,01,01,00,20,METAR EDDK 010020Z 22004KT 4000 -DZ BR FEW012 BKN017 BKN025 10/08 Q1012 TEMPO 6000=
EDDK,2012,01,01,00,50,METAR EDDK 010050Z 16006KT 2500 -DZ BR FEW007 BKN017 BKN035 09/08 Q1012 TEMPO 6000=
EDDK,2012,01,01,01,20,METAR EDDK 010120Z 16005KT 3000 -DZ BR FEW010 BKN015 BKN030 10/08 Q1012 TEMPO 6000=
EDDK,2012,01,01,01,50,METAR EDDK 010150Z 16004KT 3500 BR FEW015 BKN020 09/08 Q1012 TEMPO 6000=
EDDK,2012,01,01,02,20,METAR EDDK 010220Z 15005KT 4000 BR FEW020 OVC040 09/08 Q1012 TEMPO 6000=
EDDK,2012,01,01,02,50,METAR EDDK 010250Z 15005KT 6000 FEW020 OVC030 09/08 Q1012 NOSIG=
EDDK,2012,01,01,03,20,METAR EDDK 010320Z 18007KT 9999 FEW015 BKN025 10/08 Q1012 NOSIG=
EDDK,2012,01,01,03,50,METAR EDDK 010350Z 22007KT 9999 FEW010 BKN020 10/08 Q1012 NOSIG=
EDDK,2012,01,01,04,20,METAR EDDK 010420Z 19005KT 9999 FEW010 BKN020 10/08 Q1011 TEMPO RA BKN012=
EDDK,2012,01,01,04,50,METAR EDDK 010450Z 18007KT 9999 OVC023 11/08 Q1011 TEMPO RA BKN012=
EDDK,2012,01,01,05,20,METAR EDDK 010520Z 18007KT 9999 RA BKN023 OVC030 10/08 Q1011 TEMPO BKN012=
EDDK,2012,01,01,05,50,METAR EDDK 010550Z 17007KT 9999 -RA BKN021 OVC030 10/08 Q1011 RERA TEMPO BKN012=
EDDK,2012,01,01,06,20,METAR EDDK 010620Z 16007KT 9999 -RA BKN025 10/09 Q1011 TEMPO BKN012=
EDDK,2012,01,01,06,50,METAR EDDK 010650Z 15007KT 9999 -RA BKN023 10/09 Q1012 NOSIG=
EDDK,2012,01,01,07,20,METAR EDDK 010720Z 16007KT 9999 -RA BKN025 10/09 Q1012 NOSIG=
EDDK,2012,01,01,07,50,METAR EDDK 010750Z 15006KT 9999 BKN026 10/09 Q1012 NOSIG=
EDDK,2012,01,01,08,20,METAR EDDK 010820Z 15006KT 9999 BKN024 10/09 Q1012 NOSIG=
EDDK,2012,01,01,08,50,METAR EDDK 010850Z 15006KT 9999 BKN030 BKN035 11/09 Q1012 NOSIG=
EDDK,2012,01,01,09,20,METAR EDDK 010920Z 17005KT 9999 -RA BKN028 BKN035 11/09 Q1012 TEMPO RA=
EDDK,2012,01,01,09,50,METAR EDDK 010950Z 17005KT 9999 BKN025 BKN030 11/09 Q1012 RERA TEMPO RA=
EDDK,2012,01,01,10,20,METAR EDDK 011020Z 16005KT 9999 BKN025 11/10 Q1012 TEMPO RA=
EDDK,2012,01,01,10,50,METAR EDDK 011050Z 17004KT 9999 FEW005 SCT010 BKN024 11/10 Q1012 TEMPO RA=
EDDK,2012,01,01,11,20,METAR EDDK 011120Z 20007KT 9999 SCT026 BKN048 12/10 Q1012 NOSIG=
EDDK,2012,01,01,11,50,METAR EDDK 011150Z 21006KT 9999 SCT024 BKN048 13/11 Q1011 NOSIG=
EDDK,2012,01,01,12,20,METAR EDDK 011220Z 22007KT 9999 VCSH BKN024 BKN048 13/11 Q1011 NOSIG=
EDDK,2012,01,01,12,50,METAR EDDK 011250Z 22007KT 9999 SCT026 BKN048 13/11 Q1011 NOSIG=
EDDK,2012,01,01,13,20,METAR EDDK 011320Z 23010KT 9999 VCSH BKN026 14/10 Q1011 NOSIG=
EDDK,2012,01,01,13,50,METAR EDDK 011350Z 24007KT 6000 -SHRA FEW010TCU BKN026 13/10 Q1011 TEMPO 4000 BR=
EDDK,2012,01,01,14,20,METAR EDDK 011420Z 21003KT 9999 FEW010TCU BKN026 13/10 Q1010 NOSIG=
EDDK,2012,01,01,14,50,METAR EDDK 011450Z 17005KT 9999 VCSH FEW010TCU BKN035 13/10 Q1011 NOSIG=
EDDK,2012,01,01,15,20,METAR EDDK 011520Z 18006KT 9999 VCSH FEW010TCU BKN030 12/10 Q1010 NOSIG=
EDDK,2012,01,01,15,50,METAR EDDK 011550Z 19009KT 9999 FEW010 BKN030 13/10 Q1010 NOSIG=
EDDK,2012,01,01,16,20,METAR EDDK 011620Z 16008KT 9999 SCT030 BKN045 13/09 Q1010 NOSIG=
EDDK,2012,01,01,16,50,METAR EDDK 011650Z 17009KT 9999 FEW030 BKN045 13/09 Q1010 NOSIG=
EDDK,2012,01,01,17,20,METAR EDDK 011720Z 17011KT 9999 FEW010 BKN050 13/09 Q1009 NOSIG=
EDDK,2012,01,01,17,50,METAR EDDK 011750Z 18011KT 9999 FEW010 BKN060 13/09 Q1009 NOSIG=
EDDK,2012,01,01,18,20,METAR EDDK 011820Z 18011KT CAVOK 13/09 Q1009 NOSIG=
EDDK,2012,01,01,18,50,METAR EDDK 011850Z 18013KT 9999 FEW025 BKN080 13/09 Q1008 NOSIG=
EDDK,2012,01,01,19,20,METAR EDDK 011920Z 17012KT 9999 FEW025 BKN070 13/09 Q1008 NOSIG=
EDDK,2012,01,01,19,50,METAR EDDK 011950Z 18010KT 9999 FEW025 BKN080 13/09 Q1008 NOSIG=
EDDK,2012,01,01,20,20,METAR EDDK 012020Z 19012KT 9999 SCT025 BKN080 13/09 Q1007 NOSIG=
EDDK,2012,01,01,20,50,METAR EDDK 012050Z 19012KT 9999 SCT029 BKN100 14/09 Q1007 NOSIG=
EDDK,2012,01,01,21,20,METAR EDDK 012120Z 19014KT 9999 SCT030 BKN100 14/09 Q1007 NOSIG=
EDDK,2012,01,01,21,50,METAR EDDK 012150Z 18012KT 9999 SCT030 BKN100 14/09 Q1006 NOSIG=
EDDK,2012,01,01,22,20,METAR EDDK 012220Z 18013KT 9999 SCT030 BKN100 14/09 Q1006 NOSIG=
EDDK,2012,01,01,22,50,METAR EDDK 012250Z 18015KT 9999 BKN030 BKN100 14/09 Q1006 NOSIG=
EDDL,2012,01,01,00,20,METAR EDDL 010020Z 21009KT 4500 BR SCT006 BKN010 10/09 Q1011 NOSIG=
EDDL,2012,01,01,00,50,METAR EDDL 010050Z 21009KT 6000 BKN010 BKN040 10/09 Q1011 NOSIG=
EDDL,2012,01,01,01,20,METAR EDDL 010120Z 20009KT 9999 -RA FEW005 BKN010 BKN035 11/10 Q1011 NOSIG=
EDDL,2012,01,01,01,50,METAR EDDL 010150Z 20010KT 4500 -DZRA BR SCT005 BKN008 11/10 Q1010 NOSIG=
EDDL,2012,01,01,02,20,METAR EDDL 010220Z 21009KT 4500 -DZRA BR SCT005 BKN008 11/10 Q1010 NOSIG=
EDDL,2012,01,01,02,50,METAR COR EDDL 010250Z 21010KT 6000 -DZRA BR SCT005 BKN008 11/10 Q1010 TEMPO BKN012=
EDDL,2012,01,01,03,20,METAR EDDL 010320Z 21010KT 9999 SCT008 BKN012 11/10 Q1010 NOSIG=
EDDL,2012,01,01,03,50,METAR EDDL 010350Z 21012KT 9999 -RA SCT008 BKN012 11/10 Q1010 TEMPO RA BKN008=
EDDL,2012,01,01,04,20,METAR EDDL 010420Z 20011KT 9999 -RA SCT008 BKN012 11/10 Q1010 TEMPO RA BKN008=
EDDL,2012,01,01,04,50,METAR EDDL 010450Z 21013KT 9999 -RA BKN008 BKN015 11/10 Q1010 RERA NOSIG=
EDDL,2012,01,01,05,20,METAR EDDL 010520Z 20012KT 8000 -DZ FEW005 BKN008 11/10 Q1010 NOSIG=
EDDL,2012,01,01,05,50,METAR EDDL 010550Z 21012KT 9999 FEW005 BKN007 11/10 Q1010 NOSIG=
EDDL,2012,01,01,06,20,METAR EDDL 010620Z 21014KT 9999 FEW006 BKN008 OVC011 11/10 Q1010 NOSIG=
EDDL,2012,01,01,06,50,METAR EDDL 010650Z 22011KT 9999 -DZ FEW007 BKN009 OVC013 11/10 Q1010 TEMPO BKN012=
EDDL,2012,01,01,07,20,METAR EDDL 010720Z 22011KT 9999 -RA FEW008 SCT010 OVC013 12/10 Q1010 NOSIG=
EDDL,2012,01,01,07,50,METAR EDDL 010750Z 21013KT 9999 BKN012 OVC015 12/10 Q1010 NOSIG=
EDDL,2012,01,01,08,20,METAR EDDL 010820Z 22015KT 9999 -RA FEW010 OVC012 12/11 Q1011 NOSIG=
EDDL,2012,01,01,08,50,METAR EDDL 010850Z 22013KT 9999 -RA FEW009 BKN011 OVC014 12/11 Q1011 RERA TEMPO RA BKN008=
EDDL,2012,01,01,09,20,METAR EDDL 010920Z 22013KT 9999 -RADZ FEW006 SCT009 BKN011 12/11 Q1011 RERA TEMPO 4000 RADZ BKN008=
EDDL,2012,01,01,09,50,METAR EDDL 010950Z 22011KT 4500 RADZ FEW006 BKN010 12/11 Q1011 TEMPO 6000 NSW=
EDDL,2012,01,01,10,20,METAR EDDL 011020Z 22011KT 9999 -RA FEW005 BKN008 12/11 Q1011 RERA TEMPO BKN012=
EDDL,2012,01,01,10,50,METAR EDDL 011050Z 22012KT 9999 FEW007 BKN010 OVC013 12/11 Q1011 NOSIG=
EDDL,2012,01,01,11,20,METAR EDDL 011120Z 22010KT 9000 -DZ FEW007 BKN010 OVC013 12/11 Q1011 TEMPO BKN007=
EDDL,2012,01,01,11,50,METAR COR EDDL 011150Z 21012KT 9999 FEW007 BKN011 12/11 Q1010 TEMPO BKN007=
EDDL,2012,01,01,12,20,METAR EDDL 011220Z 21010KT 9999 -DZ FEW007 BKN012 12/11 Q1010 TEMPO BKN007=
EDDL,2012,01,01,12,50,METAR EDDL 011250Z 21011KT 9999 -DZ FEW010 SCT012 BKN015 12/11 Q1010 TEMPO BKN012=
EDDL,2012,01,01,13,20,METAR EDDL 011320Z 21011KT 9999 SCT008 SCT012 BKN018 12/11 Q1009 TEMPO BKN012=
EDDL,2012,01,01,13,50,METAR EDDL 011350Z 20011KT 5000 -DZ BR FEW008 BKN012 13/11 Q1009 TEMPO 4000=
EDDL,2012,01,01,14,20,METAR EDDL 011420Z 19011KT 4500 -DZ BR FEW006 BKN010 12/11 Q1009 REDZ BECMG 6000=
EDDL,2012,01,01,14,50,METAR EDDL 011450Z 19011KT 9999 FEW006 SCT010 BKN018 12/11 Q1009 TEMPO BKN010=
EDDL,2012,01,01,15,20,METAR EDDL 011520Z 18009KT 9999 FEW006 SCT015 BKN022 12/11 Q1009 NOSIG=
EDDL,2012,01,01,15,50,METAR EDDL 011550Z 18010KT 9999 FEW010 BKN020 13/11 Q1008 NOSIG=
EDDL,2012,01,01,16,20,METAR EDDL 011620Z 18010KT 9999 FEW010 BKN027 13/11 Q1008 NOSIG=
EDDL,2012,01,01,16,50,METAR EDDL 011650Z 18011KT 9999 FEW010 BKN034 13/11 Q1008 NOSIG=
EDDL,2012,01,01,17,20,METAR EDDL 011720Z 18012KT 9999 FEW010 BKN025 13/11 Q1007 NOSIG=
EDDL,2012,01,01,17,50,METAR EDDL 011750Z 18013KT 9999 FEW010 BKN023 13/10 Q1007 NOSIG=
EDDL,2012,01,01,18,20,METAR EDDL 011820Z 18013KT 9999 FEW010 BKN023 13/10 Q1007 TEMPO RA=
EDDL,2012,01,01,18,50,METAR EDDL 011850Z 18011KT 9999 FEW010 BKN023 13/10 Q1006 NOSIG=
EDDL,2012,01,01,19,20,METAR EDDL 011920Z 19013KT 9999 BKN025 14/10 Q1006 NOSIG=
EDDL,2012,01,01,19,50,METAR EDDL 011950Z 18014KT 9999 BKN028 14/10 Q1005 NOSIG=
EDDL,2012,01,01,20,20,METAR EDDL 012020Z 17013KT 9999 BKN028 13/10 Q1005 NOSIG=
EDDL,2012,01,01,20,50,METAR EDDL 012050Z 18012KT 9999 BKN028 14/10 Q1004 NOSIG=
EDDL,2012,01,01,21,20,METAR EDDL 012120Z 19014KT 9999 BKN028 14/10 Q1004 NOSIG=
EDDL,2012,01,01,21,50,METAR EDDL 012150Z 19014KT 9999 BKN028 14/10 Q1004 NOSIG=
EDDL,2012,01,01,22,20,METAR EDDL 012220Z 19016G27KT 9999 BKN028 14/10 Q1003 NOSIG=
EDDL,2012,01,01,22,50,METAR EDDL 012250Z 20019KT 9999 -RA BKN026 14/10 Q1003 NOSIG=
EDDM,2012,01,01,00,20,METAR EDDM 010020Z 25012KT 7000 -RADZ FEW003 BKN010 BKN020 06/06 Q1015 R88/290095 NOSIG=
EDDM,2012,01,01,00,50,METAR EDDM 010050Z 26013KT 7000 RA FEW004 BKN010 OVC044 07/07 Q1015 R88/290095 NOSIG=
EDDM,2012,01,01,01,20,METAR EDDM 010120Z 26012KT 7000 RA FEW004 SCT010 OVC033 07/07 Q1015 R88/290095 BECMG RADZ BKN008=
EDDM,2012,01,01,01,50,METAR EDDM 010150Z 25011KT 7000 RA FEW004 BKN011 OVC033 07/07 Q1016 R88/290095 BECMG RADZ BKN008=
EDDM,2012,01,01,02,20,METAR EDDM 010220Z 25010KT 6000 RA FEW004 BKN009 07/07 Q1016 R88/290095 BECMG 4000 RADZ=
EDDM,2012,01,01,02,50,METAR EDDM 010250Z 25009KT 6000 RADZ SCT005 BKN008 07/07 Q1016 R88/290095 BECMG NSW=
EDDM,2012,01,01,03,20,METAR EDDM 010320Z 26011KT 4000 DZ SCT005 BKN008 07/07 Q1016 R88/290095 NOSIG=
EDDM,2012,01,01,03,50,METAR EDDM 010350Z 26011KT 6000 -DZ SCT005 BKN009 07/07 Q1016 REDZ R88/290095 NOSIG=
EDDM,2012,01,01,04,20,METAR EDDM 010420Z 24011KT 9999 -DZ SCT005 BKN010 08/07 Q1016 R88/290095 NOSIG=
EDDM,2012,01,01,04,50,METAR EDDM 010450Z 25012KT 9999 RA SCT005 BKN011 OVC050 08/07 Q1016 R88/290095 BECMG NSW BKN008=
EDDM,2012,01,01,05,20,METAR EDDM 010520Z 25011KT 9999 -RA FEW005 BKN010 BKN023 08/07 Q1016 RERA R88/290095 BECMG BKN008=
EDDM,2012,01,01,05,50,METAR EDDM 010550Z 25013KT 9999 -RA FEW005 BKN012 BKN023 08/07 Q1017 R88/290095 NOSIG=
EDDM,2012,01,01,06,20,METAR EDDM 010620Z 26012KT 9999 FEW005 OVC013 08/07 Q1017 R88/290095 NOSIG=
EDDM,2012,01,01,06,50,METAR EDDM 010650Z 26012KT 9999 -DZ FEW005 OVC013 08/07 Q1017 R88/290095 NOSIG=
EDDM,2012,01,01,07,20,METAR EDDM 010720Z 25013KT 9999 FEW005 OVC013 08/07 Q1017 R88/290095 NOSIG=
EDDM,2012,01,01,07,50,METAR EDDM 010750Z 27010KT 9999 BKN013 BKN050 08/07 Q1017 R88/290095 NOSIG=
EDDM,2012,01,01,08,20,METAR EDDM 010820Z 26013KT 9999 SCT013 BKN050 09/08 Q1017 R88/290095 NOSIG=
EDDM,2012,01,01,08,50,METAR EDDM 010850Z 26014KT 9999 FEW013 BKN050 09/08 Q1018 R88/290095 NOSIG=
EDDM,2012,01,01,09,20,METAR EDDM 010920Z 25013KT 9999 FEW013 BKN050 10/08 Q1018 R88/290095 NOSIG=
EDDM,2012,01,01,09,50,METAR EDDM 010950Z 26016KT 9000 -DZ FEW015 BKN050 10/08 Q1018 R88/290095 NOSIG=
EDDM,2012,01,01,10,20,METAR EDDM 011020Z 25015KT 9999 FEW015 BKN030 10/08 Q1018 R88/290095 NOSIG=
EDDM,2012,01,01,10,50,METAR EDDM 011050Z 25014KT 9999 FEW015 BKN030 11/08 Q1018 R88/290095 NOSIG=
EDDM,2012,01,01,11,20,METAR EDDM 011120Z 26016KT 9999 FEW015 BKN040 11/08 Q1017 R88/290095 NOSIG=
EDDM,2012,01,01,11,50,METAR EDDM 011150Z 26016KT 9999 FEW015 BKN035 11/08 Q1017 R88/290095 NOSIG=
EDDM,2012,01,01,12,20,METAR EDDM 011220Z 25016KT 9999 FEW015 BKN037 11/08 Q1017 R88/290095 NOSIG=
EDDM,2012,01,01,12,50,METAR EDDM 011250Z 26014KT 9999 FEW015 BKN037 11/08 Q1017 R88/290095 NOSIG=
EDDM,2012,01,01,13,20,METAR EDDM 011320Z 25014KT 9999 FEW015 BKN042 11/08 Q1017 R88/290095 NOSIG=
EDDM,2012,01,01,13,50,METAR EDDM 011350Z 26013KT 9999 BKN040 11/08 Q1017 NOSIG=
EDDM,2012,01,01,14,20,METAR EDDM 011420Z 26011KT 9999 BKN043 11/08 Q1017 NOSIG=
EDDM,2012,01,01,14,50,METAR EDDM 011450Z 25009KT 9999 FEW040 BKN060 11/08 Q1017 NOSIG=
EDDM,2012,01,01,15,20,METAR EDDM 011520Z 25012KT CAVOK 11/08 Q1017 NOSIG=
EDDM,2012,01,01,15,50,METAR EDDM 011550Z 25011KT CAVOK 10/07 Q1017 NOSIG=
EDDM,2012,01,01,16,20,METAR EDDM 011620Z 26013KT CAVOK 10/07 Q1017 NOSIG=
EDDM,2012,01,01,16,50,METAR EDDM 011650Z 26011KT 9999 BKN045 10/07 Q1017 NOSIG=
EDDM,2012,01,01,17,20,METAR EDDM 011720Z 25008KT CAVOK 10/07 Q1017 NOSIG=
EDDM,2012,01,01,17,50,METAR EDDM 011750Z 25007KT CAVOK 09/06 Q1017 NOSIG=
EDDM,2012,01,01,18,20,METAR EDDM 011820Z 24009KT CAVOK 08/06 Q1017 NOSIG=
EDDM,2012,01,01,18,50,METAR EDDM 011850Z 23007KT CAVOK 08/06 Q1017 NOSIG=
EDDM,2012,01,01,19,20,METAR EDDM 011920Z 21003KT CAVOK 07/05 Q1017 NOSIG=
EDDM,2012,01,01,19,50,METAR EDDM 011950Z VRB01KT CAVOK 07/05 Q1017 NOSIG=
EDDM,2012,01,01,20,20,METAR EDDM 012020Z 18003KT CAVOK 07/05 Q1017 NOSIG=
EDDM,2012,01,01,20,50,METAR EDDM 012050Z 15003KT CAVOK 04/04 Q1016 NOSIG=
EDDM,2012,01,01,21,20,METAR EDDM 012120Z 18004KT CAVOK 06/04 Q1016 NOSIG=
EDDM,2012,01,01,21,50,METAR EDDM 012150Z 18005KT CAVOK 06/04 Q1016 NOSIG=
EDDM,2012,01,01,22,20,METAR EDDM 012220Z 20005KT CAVOK 06/04 Q1016 NOSIG=
EDDM,2012,01,01,22,50,METAR EDDM 012250Z 19007KT CAVOK 06/04 Q1015 NOSIG=
EDDN,2012,01,01,00,20,METAR EDDN 010020Z 11003KT 0300 R28/0900V1300D -DZ FG VV/// 05/05 Q1014=
EDDN,2012,01,01,00,50,METAR EDDN 010050Z 10003KT 0100 R28/0900D DZRA FG VV/// 05/05 Q1014=
EDDN,2012,01,01,01,20,METAR EDDN 010120Z 11002KT 0200 R28/0800N DZRA FG VV/// 06/06 Q1014=
EDDN,2012,01,01,01,50,METAR EDDN 010150Z VRB01KT 1300 R28/0650N -DZRA BR BKN004 07/07 Q1014 REDZ=
EDDN,2012,01,01,02,20,METAR EDDN 010220Z VRB01KT 1900 R28/0800V1200U -DZRA BR BKN002 OVC010 07/07 Q1014 REDZ=
EDDN,2012,01,01,02,50,METAR EDDN 010250Z 23004KT 2300 -DZRA BR BKN002 OVC008 08/08 Q1014=
EDDN,2012,01,01,03,20,METAR EDDN 010320Z 23005KT 3300 -DZRA BR BKN003 08/08 Q1014=
EDDN,2012,01,01,03,50,METAR EDDN 010350Z 22003KT 3400 DZRA BR BKN003 OVC010 08/08 Q1014=
EDDN,2012,01,01,04,20,METAR EDDN 010420Z 21004KT 3200 DZRA BR BKN003 08/08 Q1014=
EDDN,2012,01,01,04,50,METAR EDDN 010450Z 20004KT 9999 BKN004 08/08 Q1014 REDZ=
EDDN,2012,01,01,05,20,METAR EDDN 010520Z 20003KT 9999 SCT015 SCT035 BKN060 08/08 Q1015 NOSIG=
EDDN,2012,01,01,05,50,METAR EDDN 010550Z 20003KT 9999 SCT015 BKN025 08/08 Q1015 NOSIG=
EDDN,2012,01,01,06,20,METAR EDDN 010620Z 21004KT 9999 BKN015 08/08 Q1015 NOSIG=
EDDN,2012,01,01,06,50,METAR EDDN 010650Z 20004KT 9999 SCT007 SCT016 BKN045 09/09 Q1015 NOSIG=
EDDN,2012,01,01,07,20,METAR EDDN 010720Z 21003KT 9999 BKN015 BKN050 09/09 Q1015 NOSIG=
EDDN,2012,01,01,07,50,METAR EDDN 010750Z 21003KT 9999 SCT015 BKN020 09/09 Q1015 NOSIG=
EDDN,2012,01,01,08,20,METAR EDDN 010820Z 21004KT 9999 FEW012 SCT015 BKN020 09/09 Q1015 NOSIG=
EDDN,2012,01,01,08,50,METAR EDDN 010850Z 21004KT 9999 SCT008 BKN014 09/09 Q1015 TEMPO BKN008=
EDDN,2012,01,01,09,20,METAR EDDN 010920Z 19005KT 9999 BKN008 BKN014 10/10 Q1016 TEMPO SCT008 BKN014=
EDDN,2012,01,01,09,50,METAR EDDN 010950Z 19004KT 9999 BKN008 BKN014 10/09 Q1016 TEMPO SCT008 BKN014=
EDDN,2012,01,01,10,20,METAR EDDN 011020Z 23006KT 9999 SCT008 BKN012 10/09 Q1016 NOSIG=
EDDN,2012,01,01,10,50,METAR EDDN 011050Z 23008KT 9999 SCT010 BKN013 10/09 Q1016 NOSIG=
EDDN,2012,01,01,11,20,METAR EDDN 011120Z 23008KT 9999 SCT009 BKN013 10/09 Q1015 NOSIG=
EDDN,2012,01,01,11,50,METAR EDDN 011150Z 23006KT 9999 FEW010 BKN014 11/09 Q1015 NOSIG=
EDDN,2012,01,01,12,20,METAR EDDN 011220Z 24008KT 9999 FEW012 BKN014 11/09 Q1015 NOSIG=
EDDN,2012,01,01,12,50,METAR EDDN 011250Z 23008KT 9999 FEW010 BKN013 11/09 Q1015 NOSIG=
EDDN,2012,01,01,13,20,METAR EDDN 011320Z 23006KT 9999 FEW009 SCT010 BKN012 11/09 Q1015 NOSIG=
EDDN,2012,01,01,13,50,METAR EDDN 011350Z 20005KT 9999 SCT010 BKN012 11/10 Q1015 NOSIG=
EDDN,2012,01,01,14,20,METAR EDDN 011420Z 20005KT 9999 FEW009 BKN012 BKN018 11/09 Q1015 NOSIG=
EDDN,2012,01,01,14,50,METAR EDDN 011450Z 21005KT 9999 SCT012 BKN014 BKN021 10/09 Q1015 NOSIG=
EDDN,2012,01,01,15,20,METAR EDDN 011520Z 18004KT 9999 -RA FEW012 BKN014 BKN018 10/09 Q1015 NOSIG=
EDDN,2012,01,01,15,50,METAR EDDN 011550Z 19005KT 9999 -RA FEW012 BKN014 BKN017 10/09 Q1015 NOSIG=
EDDN,2012,01,01,16,20,METAR EDDN 011620Z 19005KT 9999 -RA FEW012 BKN014 BKN018 10/09 Q1015 NOSIG=
EDDN,2012,01,01,16,50,METAR EDDN 011650Z 17004KT 9999 SCT014 BKN019 BKN028 10/09 Q1015 NOSIG=
EDDN,2012,01,01,17,20,METAR EDDN 011720Z 17004KT 9999 FEW014 SCT019 BKN030 10/09 Q1015 NOSIG=
EDDN,2012,01,01,17,50,METAR EDDN 011750Z 15004KT 9999 FEW014 BKN030 10/09 Q1015 NOSIG=
EDDN,2012,01,01,18,20,METAR EDDN 011820Z 15004KT 9999 FEW020 SCT050 BKN150 10/08 Q1015 NOSIG=
EDDN,2012,01,01,18,50,METAR EDDN 011850Z 16005KT CAVOK 09/08 Q1015 NOSIG=
EDDN,2012,01,01,19,20,METAR EDDN 011920Z 15004KT 9999 FEW030 SCT037 09/08 Q1015 NOSIG=
EDDN,2012,01,01,19,50,METAR EDDN 011950Z 17003KT 9999 FEW028 SCT090 BKN250 09/08 Q1015 NOSIG=
EDDN,2012,01,01,20,20,METAR EDDN 012020Z 15006KT CAVOK 09/08 Q1014 NOSIG=
EDDN,2012,01,01,20,50,METAR EDDN 012050Z 13006KT CAVOK 08/07 Q1014 NOSIG=
EDDN,2012,01,01,21,20,METAR EDDN 012120Z 14005KT CAVOK 08/08 Q1014=
EDDN,2012,01,01,21,50,METAR EDDN 012150Z 14004KT CAVOK 08/07 Q1014=
EDDN,2012,01,01,22,20,METAR EDDN 012220Z 15005KT 9999 FEW030 BKN068 09/08 Q1013=
EDDN,2012,01,01,22,50,METAR EDDN 012250Z 17005KT 9999 FEW030 BKN073 09/08 Q1013=
EDDP,2012,01,01,00,20,METAR EDDP 010020Z 22009KT 9999 SCT008 BKN017 04/04 Q1011 TEMPO BKN008=
EDDP,2012,01,01,00,50,METAR EDDP 010050Z 21009KT 9999 SCT008 SCT017 BKN060 05/04 Q1011 TEMPO BKN008=
EDDP,2012,01,01,01,20,METAR EDDP 010120Z 22009KT 9999 SCT008 BKN040 05/04 Q1011 TEMPO BKN008=
EDDP,2012,01,01,01,50,METAR EDDP 010150Z 22010KT 9999 SCT010 BKN050 05/05 Q1011 TEMPO 4000 BR BKN010=
EDDP,2012,01,01,02,20,METAR EDDP 010220Z 21008KT 9999 SCT010 BKN048 05/04 Q1011 TEMPO 4000 BR BKN010=
EDDP,2012,01,01,02,50,METAR EDDP 010250Z 21009KT 9999 FEW010 BKN045 05/05 Q1011 NOSIG=
EDDP,2012,01,01,03,20,METAR EDDP 010320Z 20008KT 9999 FEW010 BKN040 05/05 Q1011 NOSIG=
EDDP,2012,01,01,03,50,METAR COR EDDP 010350Z 20008KT 9999 FEW008 BKN033 06/05 Q1011 TEMPO BKN008=
EDDP,2012,01,01,04,20,METAR EDDP 010420Z 22010KT 9000 -DZ FEW008 SCT013 BKN030 06/06 Q1011 TEMPO BKN012=
EDDP,2012,01,01,04,50,METAR EDDP 010450Z 20007KT 2500 DZ FEW004 BKN013 BKN020 06/06 Q1011 TEMPO BKN008=
EDDP,2012,01,01,05,20,METAR EDDP 010520Z 20009KT 3000 DZ FEW004 BKN013 BKN020 06/06 Q1011 BECMG 5000 NSW=
EDDP,2012,01,01,05,50,METAR EDDP 010550Z 20009KT 8000 -DZ FEW003 BKN009 BKN030 06/06 Q1011 REDZ TEMPO BKN010=
EDDP,2012,01,01,06,20,METAR EDDP 010620Z 19008KT 7000 -DZ FEW006 BKN030 07/07 Q1011 NOSIG=
EDDP,2012,01,01,06,50,METAR EDDP 010650Z 19010KT 9999 SCT026 OVC036 07/07 Q1011 NOSIG=
EDDP,2012,01,01,07,20,METAR EDDP 010720Z 20009KT 9999 BKN035 BKN046 07/07 Q1011 NOSIG=
EDDP,2012,01,01,07,50,METAR EDDP 010750Z 19008KT 9999 BKN032 07/07 Q1011 NOSIG=
EDDP,2012,01,01,08,20,METAR EDDP 010820Z 21010KT 9999 SCT026 BKN032 08/07 Q1011 NOSIG=
EDDP,2012,01,01,08,50,METAR EDDP 010850Z 20009KT 9999 SCT021 OVC026 08/07 Q1011 TEMPO RADZ=
EDDP,2012,01,01,09,20,METAR EDDP 010920Z 20010KT 9999 -RA FEW014 SCT030 BKN130 08/07 Q1011 TEMPO RADZ=
EDDP,2012,01,01,09,50,METAR EDDP 010950Z 20011KT 8000 RA FEW019 SCT046 OVC130 08/07 Q1011 BECMG NSW=
EDDP,2012,01,01,10,20,METAR EDDP 011020Z 20011KT 9999 -RA BKN027 OVC130 09/09 Q1011 NOSIG=
EDDP,2012,01,01,10,50,METAR EDDP 011050Z 20011KT 9999 -RA FEW015 BKN026 09/08 Q1011 NOSIG=
EDDP,2012,01,01,11,20,METAR EDDP 011120Z 19009KT 9999 OVC023 09/09 Q1011 NOSIG=
EDDP,2012,01,01,11,50,METAR EDDP 011150Z 20009KT 9999 SCT017 OVC020 09/09 Q1011 NOSIG=
EDDP,2012,01,01,12,20,METAR EDDP 011220Z 19007KT 9999 -RA BKN017 09/09 Q1011 NOSIG=
EDDP,2012,01,01,12,50,METAR EDDP 011250Z 21008KT 9999 BKN017 10/09 Q1011 NOSIG=
EDDP,2012,01,01,13,20,METAR EDDP 011320Z 21012KT 9999 BKN017 11/09 Q1011 NOSIG=
EDDP,2012,01,01,13,50,METAR EDDP 011350Z 23013KT 9999 FEW006 SCT027 BKN070 11/10 Q1011 NOSIG=
EDDP,2012,01,01,14,20,METAR EDDP 011420Z 22015KT 9999 FEW006 BKN027 BKN300 11/10 Q1010 NOSIG=
EDDP,2012,01,01,14,50,METAR EDDP 011450Z 23013KT 9999 FEW017 BKN027 BKN300 11/10 Q1011 NOSIG=
EDDP,2012,01,01,15,20,METAR EDDP 011520Z 23013KT 9999 FEW016 BKN028 BKN300 11/10 Q1010 NOSIG=
EDDP,2012,01,01,15,50,METAR EDDP 011550Z 22011KT 9999 FEW016 BKN032 BKN300 11/10 Q1011 NOSIG=
EDDP,2012,01,01,16,20,METAR EDDP 011620Z 22008KT 9999 FEW016 BKN032 BKN300 11/09 Q1011 NOSIG=
EDDP,2012,01,01,16,50,METAR EDDP 011650Z 21007KT 9999 FEW015 BKN032 BKN300 10/09 Q1011 NOSIG=
EDDP,2012,01,01,17,20,METAR EDDP 011720Z 19007KT 9999 FEW018 SCT033 10/09 Q1011 NOSIG=
EDDP,2012,01,01,17,50,METAR EDDP 011750Z 20009KT 9999 FEW018 BKN029 11/09 Q1011 NOSIG=
EDDP,2012,01,01,18,20,METAR EDDP 011820Z 18008KT 9999 FEW018 BKN026 11/09 Q1011 NOSIG=
EDDP,2012,01,01,18,50,METAR EDDP 011850Z 20007KT 9999 BKN026 BKN090 11/09 Q1011 NOSIG=
EDDP,2012,01,01,19,20,METAR EDDP 011920Z 20009KT 9999 SCT026 BKN090 11/09 Q1010 NOSIG=
EDDP,2012,01,01,19,50,METAR EDDP 011950Z 20010KT 9999 SCT026 BKN090 11/09 Q1010 NOSIG=
EDDP,2012,01,01,20,20,METAR EDDP 012020Z 17009KT 9999 BKN025 BKN090 11/09 Q1010 NOSIG=
EDDP,2012,01,01,20,50,METAR EDDP 012050Z 20010KT 9999 BKN023 12/10 Q1009 NOSIG=
EDDP,2012,01,01,21,20,METAR EDDP 012120Z 19012KT 9999 BKN023 11/09 Q1009 NOSIG=
EDDP,2012,01,01,21,50,METAR EDDP 012150Z 19011KT 9999 BKN023 BKN090 11/09 Q1009 NOSIG=
EDDP,2012,01,01,22,20,METAR EDDP 012220Z 20011KT 9999 SCT023 BKN090 11/09 Q1008 NOSIG=
EDDP,2012,01,01,22,50,METAR EDDP 012250Z 20012KT 9999 SCT030 BKN100 11/09 Q1008 NOSIG=
EDDR,2012,01,01,00,20,METAR EDDR 010020Z 25012KT 9999 FEW003 BKN006 10/09 Q1015=
EDDR,2012,01,01,00,50,METAR EDDR 010050Z 23011KT 8000 -DZ FEW003 BKN005 10/09 Q1015=
EDDR,2012,01,01,01,20,METAR EDDR 010120Z 23013KT 6000 -DZ FEW003 BKN005 10/09 Q1015=
EDDR,2012,01,01,01,50,METAR EDDR 010150Z 23012KT 6000 -DZ FEW003 BKN005 10/09 Q1015=
EDDR,2012,01,01,02,20,METAR EDDR 010220Z 22012KT 9000 FEW003 BKN005 10/09 Q1015=
EDDR,2012,01,01,02,50,METAR EDDR 010250Z 22012KT 8000 -DZ FEW003 BKN005 10/09 Q1015=
EDDR,2012,01,01,03,20,METAR EDDR 010320Z 22014KT 5000 -DZ BR FEW002 BKN004 10/09 Q1015=
EDDR,2012,01,01,03,50,METAR EDDR 010350Z 23013KT 99999 FEW002 BKN004 10/09 Q1015=
EDDR,2012,01,01,04,20,METAR EDDR 010420Z 23013KT 9999 BKN004 10/09 Q1015=
EDDR,2012,01,01,04,50,METAR EDDR 010450Z 23014KT 9999 FEW001 BKN004 10/09 Q1016 NOSIG=
EDDR,2012,01,01,05,20,METAR EDDR 010520Z 23013KT 9999 BKN005 10/09 Q1016 NOSIG=
EDDR,2012,01,01,05,50,METAR EDDR 010550Z 22013KT 9999 -DZ FEW002 BKN004 10/09 Q1016 NOSIG=
EDDR,2012,01,01,06,20,METAR EDDR 010620Z 22011KT 9999 -DZ FEW002 BKN004 10/09 Q1016 NOSIG=
EDDR,2012,01,01,06,50,METAR EDDR 010650Z 23013KT 9999 FEW002 BKN004 10/09 Q1016 NOSIG=
EDDR,2012,01,01,07,20,METAR EDDR 010720Z 22012KT 4000 -DZ BR FEW002 BKN004 10/09 Q1016 TEMPO 2500=
EDDR,2012,01,01,07,50,METAR EDDR 010750Z 22012KT 3000 DZ BR FEW002 BKN003 10/09 Q1016 BECMG NSW=
EDDR,2012,01,01,08,20,METAR EDDR 010820Z 22012KT 1800 -DZ BR FEW001 BKN002 10/09 Q1016 REDZ TEMPO 0800 BKN001=
EDDR,2012,01,01,08,50,METAR EDDR 010850Z 20012KT 2500 -DZ BR FEW001 BKN002 10/09 Q1016 NOSIG=
EDDR,2012,01,01,09,20,METAR EDDR 010920Z 21012KT 2000 DZ BR FEW001 BKN002 10/09 Q1016 NOSIG=
EDDR,2012,01,01,09,50,METAR EDDR 010950Z 22013KT 3500 -DZ BR FEW002 BKN003 10/09 Q1016 REDZ NOSIG=
EDDR,2012,01,01,10,20,METAR EDDR 011020Z 22013KT 3800 -DZ BR FEW002 BKN003 10/09 Q1016 REDZ NOSIG=
EDDR,2012,01,01,10,50,METAR EDDR 011050Z 22011KT 2200 DZ BR FEW002 BKN003 10/10 Q1016 NOSIG=
EDDR,2012,01,01,11,20,METAR EDDR 011120Z 22012KT 9999 FEW002 BKN006 BKN013 11/10 Q1016 REDZ BECMG BKN015=
EDDR,2012,01,01,11,50,METAR EDDR 011150Z 21010KT 4000 -DZ BR FEW001 BKN004 11/10 Q1015 BECMG 6000=
EDDR,2012,01,01,12,20,METAR EDDR 011220Z 21013KT 9999 FEW001 BKN007 11/10 Q1015 TEMPO BKN004=
EDDR,2012,01,01,12,50,METAR EDDR 011250Z 21013KT 9999 -RADZ FEW001 BKN004 11/10 Q1015 NOSIG=
EDDR,2012,01,01,13,20,METAR EDDR 011320Z 21012KT 7000 -DZ FEW003 BKN005 11/10 Q1014 NOSIG=
EDDR,2012,01,01,13,50,METAR EDDR 011350Z 21010KT 4000 -DZ BR FEW002 BKN004 11/10 Q1014 REDZ BECMG 6000 BKN007=
EDDR,2012,01,01,14,20,METAR EDDR 011420Z 21012KT 3000 -DZ BR FEW001 BKN003 11/10 Q1014 BECMG 6000 BKN007=
EDDR,2012,01,01,14,50,METAR EDDR 011450Z 21013KT 3000 DZ BR FEW001 BKN003 11/10 Q1014 NOSIG=
EDDR,2012,01,01,15,20,METAR EDDR 011520Z 21013G23KT 3000 -DZ BR FEW001 BKN003 11/10 Q1014 REDZ NOSIG=
EDDR,2012,01,01,15,50,METAR EDDR 011550Z 21013KT 9999 FEW002 BKN004 11/10 Q1014 REDZ NOSIG=
EDDR,2012,01,01,16,20,METAR EDDR 011620Z 21014KT 9999 BKN005 BKN009 11/10 Q1014 NOSIG=
EDDR,2012,01,01,16,50,METAR EDDR 011650Z 20012KT 9999 BKN006 BKN014 11/10 Q1014 NOSIG=
EDDR,2012,01,01,17,20,METAR EDDR 011720Z 20013KT 9999 -RA BKN008 BKN015 11/10 Q1014 NOSIG=
EDDR,2012,01,01,17,50,METAR EDDR 011750Z 20013KT 9999 FEW005 BKN007 OVC015 11/10 Q1014 NOSIG=
EDDR,2012,01,01,18,20,METAR EDDR 011820Z 20013KT 9999 -RA FEW005 BKN006 OVC012 11/10 Q1014 NOSIG=
EDDR,2012,01,01,18,50,METAR EDDR 011850Z 21012KT 9999 FEW004 BKN006 OVC011 11/10 Q1013 NOSIG=
EDDR,2012,01,01,19,20,METAR EDDR 011920Z 21014KT 9999 FEW004 BKN006 OVC011 11/10 Q1013 NOSIG=
EDDR,2012,01,01,19,50,METAR EDDR 011950Z 21015KT 9999 BKN006 OVC011 11/10 Q1013 NOSIG=
EDDR,2012,01,01,20,20,METAR EDDR 012020Z 20015KT 9999 BKN007 OVC011 11/10 Q1013 NOSIG=
EDDR,2012,01,01,20,50,METAR EDDR 012050Z 19015KT 9999 BKN008 OVC012 11/09 Q1012 NOSIG=
EDDR,2012,01,01,21,20,METAR EDDR 012120Z 20014KT 9999 BKN008 OVC012 11/09 Q1012 NOSIG=
EDDR,2012,01,01,21,50,METAR EDDR 012150Z 20013KT 9999 BKN009 OVC013 11/09 Q1012 NOSIG=
EDDR,2012,01,01,22,20,METAR EDDR 012220Z 21015KT 9999 BKN010 OVC014 11/09 Q1011=
EDDR,2012,01,01,22,50,METAR EDDR 012250Z 21016KT 9999 BKN011 OVC015 11/09 Q1011=
EDDS,2012,01,01,00,20,METAR EDDS 010020Z 22005KT 4500 -RADZ BR FEW009 BKN024 09/07 Q1016=
EDDS,2012,01,01,00,50,METAR EDDS 010050Z 21005KT 5000 -RADZ BR FEW009 BKN019 09/07 Q1016=
EDDS,2012,01,01,01,20,METAR EDDS 010120Z 24006KT 7000 -RA FEW012 BKN028 09/07 Q1016=
EDDS,2012,01,01,01,50,METAR EDDS 010150Z 23006KT 9000 FEW010 BKN028 09/07 Q1016=
EDDS,2012,01,01,02,20,METAR EDDS 010220Z 23006KT 9999 FEW010 BKN027 BKN120 09/07 Q1016=
EDDS,2012,01,01,02,50,METAR EDDS 010250Z 22008KT 9999 FEW007 BKN027 BKN120 09/07 Q1016=
EDDS,2012,01,01,03,20,METAR EDDS 010320Z 21004KT 9999 FEW009 BKN027 09/07 Q1016=
EDDS,2012,01,01,03,50,METAR EDDS 010350Z 22004KT 9999 -RA FEW010 SCT025 BKN030 09/07 Q1016=
EDDS,2012,01,01,04,20,METAR EDDS 010420Z 21005KT 9000 FEW007 SCT020 BKN030 09/07 Q1016=
EDDS,2012,01,01,04,50,METAR EDDS 010450Z 21006KT 9999 FEW007 SCT032 BKN050 09/07 Q1016=
EDDS,2012,01,01,05,20,METAR EDDS 010520Z 21005KT 9999 FEW008 BKN058 09/06 Q1016 NOSIG=
EDDS,2012,01,01,05,50,METAR EDDS 010550Z 16003KT 9999 FEW022 BKN058 09/06 Q1016 NOSIG=
EDDS,2012,01,01,06,20,METAR EDDS 010620Z 21003KT 9999 SCT030 BKN050 09/06 Q1016 NOSIG=
EDDS,2012,01,01,06,50,METAR EDDS 010650Z 20006KT 9999 BKN030 09/06 Q1016 NOSIG=
EDDS,2012,01,01,07,20,METAR EDDS 010720Z 19005KT 9999 BKN025 09/07 Q1017 NOSIG=
EDDS,2012,01,01,07,50,METAR EDDS 010750Z 20005KT 9999 -RA BKN020 09/07 Q1017 NOSIG=
EDDS,2012,01,01,08,20,METAR EDDS 010820Z 20007KT 9999 BKN024 10/07 Q1017 NOSIG=
EDDS,2012,01,01,08,50,METAR EDDS 010850Z 20005KT 9999 BKN024 10/07 Q1017 NOSIG=
EDDS,2012,01,01,09,20,METAR EDDS 010920Z 20006KT 9999 BKN028 10/07 Q1017 NOSIG=
EDDS,2012,01,01,09,50,METAR EDDS 010950Z 20005KT 9999 BKN028 11/07 Q1017 NOSIG=
EDDS,2012,01,01,10,20,METAR EDDS 011020Z 19006KT 9999 BKN028 11/07 Q1017 NOSIG=
EDDS,2012,01,01,10,50,METAR EDDS 011050Z 20006KT 9999 BKN020 11/07 Q1017 NOSIG=
EDDS,2012,01,01,11,20,METAR EDDS 011120Z 20007KT 9999 BKN025 12/07 Q1017 NOSIG=
EDDS,2012,01,01,11,50,METAR EDDS 011150Z 20006KT 9999 BKN025 12/07 Q1016 NOSIG=
EDDS,2012,01,01,12,20,METAR EDDS 011220Z 20005KT 9999 BKN027 12/07 Q1016 NOSIG=
EDDS,2012,01,01,12,50,METAR EDDS 011250Z 20005KT 9999 BKN022 BKN130 12/07 Q1016 NOSIG=
EDDS,2012,01,01,13,20,METAR EDDS 011320Z 20006KT 9999 SCT021 SCT030 BKN130 12/08 Q1016 NOSIG=
EDDS,2012,01,01,13,50,METAR EDDS 011350Z 20007KT 9999 FEW021 BKN030 12/08 Q1016 NOSIG=
EDDS,2012,01,01,14,20,METAR EDDS 011420Z 20006KT 9999 SCT022 SCT030 BKN250 12/07 Q1016 NOSIG=
EDDS,2012,01,01,14,50,METAR COR EDDS 011450Z 18004KT 9999 FEW021 SCT026 BKN250 12/07 Q1016 NOSIG=
EDDS,2012,01,01,15,20,METAR EDDS 011520Z 19004KT 9999 FEW021 SCT026 BKN250 11/07 Q1016 NOSIG=
EDDS,2012,01,01,15,50,METAR EDDS 011550Z 19006KT 9999 FEW026 BKN250 11/07 Q1016 NOSIG=
EDDS,2012,01,01,16,20,METAR EDDS 011620Z 21006KT 9999 FEW026 SCT038 BKN250 11/07 Q1016 NOSIG=
EDDS,2012,01,01,16,50,METAR EDDS 011650Z 19006KT 9999 FEW025 SCT038 BKN060 11/07 Q1016 NOSIG=
EDDS,2012,01,01,17,20,METAR EDDS 011720Z 19007KT 9999 SCT025 SCT060 BKN250 10/06 Q1016 NOSIG=
EDDS,2012,01,01,17,50,METAR EDDS 011750Z 19004KT 9999 SCT027 BKN250 11/07 Q1016 NOSIG=
EDDS,2012,01,01,18,20,METAR EDDS 011820Z 20006KT 9999 SCT027 BKN250 11/06 Q1015 NOSIG=
EDDS,2012,01,01,18,50,METAR EDDS 011850Z 19007KT 9999 FEW027 BKN250 11/06 Q1015 NOSIG=
EDDS,2012,01,01,19,20,METAR EDDS 011920Z 19009KT 9999 FEW027 BKN250 11/06 Q1015 NOSIG=
EDDS,2012,01,01,19,50,METAR EDDS 011950Z 18007KT CAVOK 10/06 Q1015 NOSIG=
EDDS,2012,01,01,20,20,METAR EDDS 012020Z 19009KT CAVOK 11/06 Q1015 NOSIG=
EDDS,2012,01,01,20,50,METAR EDDS 012050Z 19006KT CAVOK 10/06 Q1014 NOSIG=
EDDS,2012,01,01,21,20,METAR EDDS 012120Z 19008KT CAVOK 11/06 Q1014=
EDDS,2012,01,01,21,50,METAR EDDS 012150Z 19007KT CAVOK 11/06 Q1014=
EDDS,2012,01,01,22,20,METAR EDDS 012220Z 19005KT CAVOK 11/06 Q1014=
EDDS,2012,01,01,22,50,METAR EDDS 012250Z VRB02KT CAVOK 11/06 Q1013=
EDDT,2012,01,01,00,20,METAR EDDT 010020Z 15005KT 2200 FU BKN011 02/00 Q1011=
EDDT,2012,01,01,00,50,METAR EDDT 010050Z 16005KT 1800 -RA FU BKN003 BKN010 02/01 Q1011=
EDDT,2012,01,01,01,20,METAR EDDT 010120Z 17006KT 1600 -RA FU BKN003 02/01 Q1011=
EDDT,2012,01,01,01,50,METAR EDDT 010150Z 17004KT 1400 R08L/P2000N R08R/P2000N -DZ FU BKN003 02/01 Q1011=
EDDT,2012,01,01,02,20,METAR EDDT 010220Z 18004KT 1500 -DZ FU BKN003 03/02 Q1011=
EDDT,2012,01,01,02,50,METAR EDDT 010250Z 17004KT 2200 -DZ FU BKN003 03/02 Q1011=
EDDT,2012,01,01,03,20,METAR EDDT 010320Z 17004KT 2400 FU BKN003 03/02 Q1010=
EDDT,2012,01,01,03,50,METAR EDDT 010350Z 17004KT 3000 BR BKN003 03/02 Q1010 TEMPO 2000 BR=
EDDT,2012,01,01,04,20,METAR EDDT 010420Z 19005KT 3200 BR BKN003 03/03 Q1010 TEMPO 2000 BR=
EDDT,2012,01,01,04,50,METAR EDDT 010450Z 18004KT 3300 BR BKN003 04/03 Q1010 TEMPO 2000 BR=
EDDT,2012,01,01,05,20,METAR EDDT 010520Z 20004KT 3300 BR BKN003 04/03 Q1010 TEMPO 2000 BR=
EDDT,2012,01,01,05,50,METAR COR EDDT 010550Z 19006KT 3300 BR BKN003 04/03 Q1010 TEMPO 2000 BR BKN005=
EDDT,2012,01,01,06,20,METAR EDDT 010620Z 18004KT 3100 -DZ BR BKN003 BKN012 05/04 Q1010 TEMPO 2000 BR BKN005=
EDDT,2012,01,01,06,50,METAR EDDT 010650Z 17004KT 3300 BR SCT016 BKN034 05/04 Q1010 TEMPO 2000 BR=
EDDT,2012,01,01,07,20,METAR EDDT 010720Z 19004KT 3200 BR FEW005 BKN028 05/04 Q1010 NOSIG=
EDDT,2012,01,01,07,50,METAR EDDT 010750Z 19005KT 3700 BR SCT005 BKN021 05/04 Q1010 TEMPO BKN005=
EDDT,2012,01,01,08,20,METAR EDDT 010820Z 20006KT 4500 BR SCT005 BKN015 06/04 Q1010 TEMPO BKN005=
EDDT,2012,01,01,08,50,METAR EDDT 010850Z 20006KT 5000 BR BKN005 06/05 Q1010 TEMPO 4000 -RADZ=
EDDT,2012,01,01,09,20,METAR EDDT 010920Z 20006KT 6000 BKN005 06/05 Q1010 TEMPO 4000 -RADZ=
EDDT,2012,01,01,09,50,METAR EDDT 010950Z 21006KT 7000 -RADZ BKN005 BKN020 07/06 Q1010 BECMG SCT005=
EDDT,2012,01,01,10,20,METAR COR EDDT 011020Z 21007KT 8000 FEW006 BKN020 07/06 Q1009 TEMPO 4000 RADZ=
EDDT,2012,01,01,10,50,METAR COR EDDT 011050Z 21006KT 9000 -RA FEW008 BKN020 08/07 Q1009 TEMPO 4000 RADZ=
EDDT,2012,01,01,11,20,METAR EDDT 011120Z 22008KT 6000 -RA SCT009 BKN019 08/07 Q1009 TEMPO 4000 RADZ=
EDDT,2012,01,01,11,50,METAR EDDT 011150Z 22009KT 8000 -RA SCT006 BKN016 09/07 Q1009 NOSIG=
EDDT,2012,01,01,12,20,METAR EDDT 011220Z 23011KT 4000 -RA SCT006 BKN018 09/08 Q1009 BECMG 8000=
EDDT,2012,01,01,12,50,METAR EDDT 011250Z 23011KT 3100 -RA SCT007 BKN018 09/08 Q1009 BECMG 8000=
EDDT,2012,01,01,13,20,METAR EDDT 011320Z 24009KT 8000 SCT005 BKN010 09/08 Q1009 BECMG SCT010=
EDDT,2012,01,01,13,50,METAR EDDT 011350Z 23009KT 9999 -RA SCT008 BKN010 10/09 Q1009 BECMG SCT010=
EDDT,2012,01,01,14,20,METAR EDDT 011420Z 25008KT 9999 SCT006 BKN010 10/09 Q1009 BECMG SCT010=
EDDT,2012,01,01,14,50,METAR EDDT 011450Z 24007KT 9999 SCT007 BKN014 10/09 Q1009 BECMG SCT010=
EDDT,2012,01,01,15,20,METAR EDDT 011520Z 23006KT 9999 SCT009 BKN014 10/09 Q1009 BECMG SCT010=
EDDT,2012,01,01,15,50,METAR EDDT 011550Z 25007KT 9999 FEW008 BKN014 10/09 Q1009 BECMG SCT014 BKN025=
EDDT,2012,01,01,16,20,METAR EDDT 011620Z 24007KT 9999 FEW008 BKN010 BKN024 10/09 Q1009 BECMG SCT014 BKN025=
EDDT,2012,01,01,16,50,METAR EDDT 011650Z 23007KT 9999 FEW009 BKN030 10/09 Q1009 NOSIG=
EDDT,2012,01,01,17,20,METAR EDDT 011720Z 21006KT 9999 FEW010 BKN030 10/09 Q1010 NOSIG=
EDDT,2012,01,01,17,50,METAR EDDT 011750Z 21006KT 9999 FEW015 BKN030 10/09 Q1010 NOSIG=
EDDT,2012,01,01,18,20,METAR EDDT 011820Z 19006KT 9999 FEW009 BKN017 10/09 Q1009 NOSIG=
EDDT,2012,01,01,18,50,METAR EDDT 011850Z 19007KT 9999 FEW009 BKN018 10/09 Q1009 NOSIG=
EDDT,2012,01,01,19,20,METAR EDDT 011920Z 20008KT 9999 FEW005 SCT023 BKN036 10/09 Q1009 NOSIG=
EDDT,2012,01,01,19,50,METAR EDDT 011950Z 20007KT 9999 -RA FEW008 BKN034 11/09 Q1009 NOSIG=
EDDT,2012,01,01,20,20,METAR EDDT 012020Z 19008KT 9999 -RA BKN030 11/09 Q1008 NOSIG=
EDDT,2012,01,01,20,50,METAR EDDT 012050Z 20008KT 9999 -RA BKN030 11/09 Q1008 NOSIG=
EDDT,2012,01,01,21,20,METAR EDDT 012120Z 20010KT 9999 BKN032 11/09 Q1008 NOSIG=
EDDT,2012,01,01,21,50,METAR EDDT 012150Z 20009KT 9999 BKN040 11/09 Q1007 NOSIG=
EDDT,2012,01,01,22,20,METAR EDDT 012220Z 19010KT 9999 FEW040 BKN066 11/09 Q1007=
EDDT,2012,01,01,22,50,METAR EDDT 012250Z 19010KT 9999 -RA NSC 11/09 Q1006=
EDDV,2012,01,01,00,20,METAR EDDV 010020Z 23005KT 2800 FU BKN008 BKN040 07/07 Q1009=
EDDV,2012,01,01,00,50,METAR EDDV 010050Z 20006KT 3800 FU BKN007 07/07 Q1009=
EDDV,2012,01,01,01,20,METAR EDDV 010120Z 20007KT 2500 -DZ BR BKN002 BKN007 08/08 Q1009=
EDDV,2012,01,01,01,50,METAR EDDV 010150Z 18009KT 2500 -DZ BR BKN002 BKN007 08/08 Q1009=
EDDV,2012,01,01,02,20,METAR EDDV 010220Z 20008KT 6000 BKN008 08/08 Q1008=
EDDV,2012,01,01,02,50,METAR EDDV 010250Z 20007KT 6000 BKN009 08/08 Q1008=
EDDV,2012,01,01,03,20,METAR EDDV 010320Z 18007KT 6000 -DZ BKN009 08/08 Q1008=
EDDV,2012,01,01,03,50,METAR EDDV 010350Z 21006KT 6000 SCT009 BKN012 09/08 Q1008 TEMPO BKN009=
EDDV,2012,01,01,04,20,METAR EDDV 010420Z 24008KT 8000 SCT011 BKN016 BKN030 09/08 Q1008 TEMPO BKN009=
EDDV,2012,01,01,04,50,METAR EDDV 010450Z 24009KT 8000 SCT016 BKN030 10/09 Q1008 TEMPO BKN009=
EDDV,2012,01,01,05,20,METAR EDDV 010520Z 23009KT 8000 SCT015 BKN030 10/09 Q1008 TEMPO BKN009=
EDDV,2012,01,01,05,50,METAR EDDV 010550Z 24011KT 8000 -RA BKN013 10/09 Q1007 TEMPO BKN009=
EDDV,2012,01,01,06,20,METAR EDDV 010620Z 22010KT 9999 -RADZ BKN012 10/09 Q1008 TEMPO BKN009=
EDDV,2012,01,01,06,50,METAR EDDV 010650Z 25011KT 9999 -RADZ FEW009 BKN012 10/09 Q1008 TEMPO 4000 BKN008=
EDDV,2012,01,01,07,20,METAR EDDV 010720Z 25012KT 9999 -RADZ SCT010 BKN015 11/09 Q1008 TEMPO 4000 BKN008=
EDDV,2012,01,01,07,50,METAR EDDV 010750Z 25012KT 9999 -RADZ BKN012 BKN015 11/09 Q1008 TEMPO 4000 BKN008=
EDDV,2012,01,01,08,20,METAR EDDV 010820Z 25012KT 9999 BKN010 BKN015 11/10 Q1008 TEMPO 4000 BKN008=
EDDV,2012,01,01,08,50,METAR EDDV 010850Z 25011KT 9999 -RA FEW008 BKN010 BKN015 11/10 Q1008 TEMPO 4000 BKN008=
EDDV,2012,01,01,09,20,METAR EDDV 010920Z 25012KT 7000 -DZRA FEW008 BKN010 BKN015 11/10 Q1008 TEMPO 4000 BKN008=
EDDV,2012,01,01,09,50,METAR EDDV 010950Z 25013KT 8000 -DZRA FEW008 BKN010 BKN015 11/10 Q1008 TEMPO 4000 BKN008=
EDDV,2012,01,01,10,20,METAR EDDV 011020Z 25013KT 5000 -DZRA BR FEW008 BKN010 BKN015 11/10 Q1008 TEMPO 4000 BKN008=
EDDV,2012,01,01,10,50,METAR EDDV 011050Z 26012KT 4000 -DZRA BR FEW005 BKN008 BKN012 11/11 Q1008 NOSIG=
EDDV,2012,01,01,11,20,METAR EDDV 011120Z 26013KT 8000 -DZRA FEW005 BKN015 OVC020 12/11 Q1009 NOSIG=
EDDV,2012,01,01,11,50,METAR EDDV 011150Z 26012KT 9999 -DZRA FEW008 BKN015 OVC025 12/10 Q1008 NOSIG=
EDDV,2012,01,01,12,20,METAR EDDV 011220Z 26012KT 9999 FEW010 BKN025 12/10 Q1008 NOSIG=
EDDV,2012,01,01,12,50,METAR EDDV 011250Z 26010KT 9999 FEW010 SCT015 OVC025 12/10 Q1008 TEMPO BKN012=
EDDV,2012,01,01,13,20,METAR EDDV 011320Z 26011KT 9999 -DZ FEW010 SCT015 OVC025 12/11 Q1008 TEMPO BKN012=
EDDV,2012,01,01,13,50,METAR EDDV 011350Z 26009KT 9999 FEW009 BKN025 BKN030 12/11 Q1008 BECMG BKN008=
EDDV,2012,01,01,14,20,METAR EDDV 011420Z 24009KT 9999 -DZ FEW008 BKN010 OVC020 12/11 Q1008 TEMPO BKN008=
EDDV,2012,01,01,14,50,METAR EDDV 011450Z 22007KT 9999 SCT010 BKN028 12/11 Q1008 TEMPO BKN012=
EDDV,2012,01,01,15,20,METAR EDDV 011520Z 24008KT 9999 BKN014 BKN018 12/10 Q1008 TEMPO BKN008=
EDDV,2012,01,01,15,50,METAR EDDV 011550Z 22007KT 9999 BKN016 BKN020 12/10 Q1008 TEMPO BKN012=
EDDV,2012,01,01,16,20,METAR EDDV 011620Z 23009KT 9999 -DZ BKN016 BKN020 12/10 Q1008 TEMPO BKN012=
EDDV,2012,01,01,16,50,METAR EDDV 011650Z 19008KT 9999 -DZ BKN025 BKN060 12/10 Q1007 TEMPO BKN012=
EDDV,2012,01,01,17,20,METAR EDDV 011720Z 19008KT 9999 -RA BKN025 12/11 Q1007 TEMPO BKN012=
EDDV,2012,01,01,17,50,METAR EDDV 011750Z 18010KT 9999 FEW008 BKN018 12/11 Q1007 TEMPO BKN012=
EDDV,2012,01,01,18,20,METAR EDDV 011820Z 19009KT 9999 -RA BKN012 OVC028 12/11 Q1006 NOSIG=
EDDV,2012,01,01,18,50,METAR EDDV 011850Z 19009KT 9999 -RA BKN006 OVC015 11/11 Q1006 TEMPO BKN012=
EDDV,2012,01,01,19,20,METAR EDDV 011920Z 19010KT 9999 -RA FEW010 BKN020 12/11 Q1006 TEMPO BKN012=
EDDV,2012,01,01,19,50,METAR EDDV 011950Z 19011KT 9999 -RA FEW010 BKN022 12/10 Q1005 TEMPO BKN012=
EDDV,2012,01,01,20,20,METAR EDDV 012020Z 19014KT 9999 FEW010 BKN022 12/10 Q1005 TEMPO BKN012=
EDDV,2012,01,01,20,50,METAR EDDV 012050Z 19015KT 9999 -RA FEW010 BKN025 12/10 Q1004 TEMPO BKN012=
EDDV,2012,01,01,21,20,METAR EDDV 012120Z 21015KT 9999 BKN028 13/10 Q1003=
EDDV,2012,01,01,21,50,METAR EDDV 012150Z 22015KT 9999 SCT020 BKN032 13/10 Q1003=
EDDV,2012,01,01,22,20,METAR EDDV 012220Z 19015KT 9999 FEW025 BKN032 13/10 Q1002=
EDDV,2012,01,01,22,50,METAR EDDV 012250Z 22015KT 9999 BKN032 13/10 Q1002=
EDDW,2012,01,01,00,20,METAR EDDW 010020Z 20008KT 1500 BR OVC003 08/08 Q1008=
EDDW,2012,01,01,00,50,METAR EDDW 010050Z 20007KT 1700 -DZ BR OVC003 08/08 Q1007=
EDDW,2012,01,01,01,20,METAR EDDW 010120Z 20008KT 1700 -DZ BR OVC003 09/09 Q1007=
EDDW,2012,01,01,01,50,METAR EDDW 010150Z 20007KT 1900 -RADZ BR OVC003 09/09 Q1007=
EDDW,2012,01,01,02,20,METAR EDDW 010220Z 20007KT 1900 -RADZ BR OVC003 09/09 Q1007=
EDDW,2012,01,01,02,50,METAR EDDW 010250Z 21007KT 4000 -DZ BR OVC004 09/09 Q1007=
EDDW,2012,01,01,03,20,METAR EDDW 010320Z 23008KT 4500 -DZ BR OVC004 10/10 Q1007=
EDDW,2012,01,01,03,50,METAR EDDW 010350Z 21008KT 4500 -DZ BR OVC004 10/10 Q1006 TEMPO 2500=
EDDW,2012,01,01,04,20,METAR EDDW 010420Z 21008KT 5000 -DZ OVC004 10/09 Q1006 TEMPO 2500 BR=
EDDW,2012,01,01,04,50,METAR EDDW 010450Z 21008KT 5000 -DZ OVC004 10/09 Q1006 TEMPO 2500 BR=
EDDW,2012,01,01,05,20,METAR EDDW 010520Z 22009KT 5000 -DZ OVC005 10/09 Q1006 TEMPO 2500 BR=
EDDW,2012,01,01,05,50,METAR EDDW 010550Z 22009KT 4500 -RA BKN005 10/10 Q1006 TEMPO 2500 BR=
EDDW,2012,01,01,06,20,METAR EDDW 010620Z 22010KT 4500 -RA BR BKN005 10/10 Q1006 TEMPO 2500=
EDDW,2012,01,01,06,50,METAR EDDW 010650Z 23010KT 2300 DZ BR BKN004 10/10 Q1006 TEMPO 4000 BKN006=
EDDW,2012,01,01,07,20,METAR EDDW 010720Z 22010KT 4000 -DZ BR SCT004 BKN006 10/10 Q1006 REDZ NOSIG=
EDDW,2012,01,01,07,50,METAR EDDW 010750Z 22011KT 4000 BR SCT004 BKN006 11/11 Q1006 NOSIG=
EDDW,2012,01,01,08,20,METAR EDDW 010820Z 23011KT 2500 -DZ BR BKN004 BKN006 11/11 Q1006 TEMPO 4000 BKN006=
EDDW,2012,01,01,08,50,METAR EDDW 010850Z 23011KT 3500 -DZ BR SCT004 BKN008 11/10 Q1006 NOSIG=
EDDW,2012,01,01,09,20,METAR EDDW 010920Z 23011KT 3500 -DZ BR FEW004 BKN008 11/11 Q1006 NOSIG=
EDDW,2012,01,01,09,50,METAR EDDW 010950Z 24012KT 8000 BKN007 11/11 Q1007 BECMG BKN012=
EDDW,2012,01,01,10,20,METAR EDDW 011020Z 25012KT 9999 -DZ BKN008 BKN012 11/10 Q1007 BECMG BKN012=
EDDW,2012,01,01,10,50,METAR EDDW 011050Z 25010KT 9999 BKN011 BKN030 12/10 Q1007 BECMG BKN015=
EDDW,2012,01,01,11,20,METAR EDDW 011120Z 25010KT 9999 SCT012 BKN027 12/10 Q1007 NOSIG=
EDDW,2012,01,01,11,50,METAR EDDW 011150Z 25010KT 9999 SCT015 BKN027 12/10 Q1007 NOSIG=
EDDW,2012,01,01,12,20,METAR EDDW 011220Z 23009KT 9999 SCT015 BKN027 12/10 Q1007 NOSIG=
EDDW,2012,01,01,12,50,METAR EDDW 011250Z 23010KT 9999 SCT011 BKN017 BKN030 12/10 Q1007 NOSIG=
EDDW,2012,01,01,13,20,METAR EDDW 011320Z 23010KT 9999 FEW012 BKN027 12/10 Q1007 NOSIG=
EDDW,2012,01,01,13,50,METAR EDDW 011350Z 23008KT 9999 FEW012 BKN027 12/10 Q1007 NOSIG=
EDDW,2012,01,01,14,20,METAR EDDW 011420Z 21008KT 9999 FEW012 BKN028 12/10 Q1006 NOSIG=
EDDW,2012,01,01,14,50,METAR EDDW 011450Z 21008KT 9999 FEW015 SCT028 BKN120 11/10 Q1006 NOSIG=
EDDW,2012,01,01,15,20,METAR EDDW 011520Z 21007KT 9999 FEW015 SCT028 BKN120 11/10 Q1006 NOSIG=
EDDW,2012,01,01,15,50,METAR EDDW 011550Z 20006KT 9999 BKN012 BKN120 11/10 Q1006 NOSIG=
EDDW,2012,01,01,16,20,METAR EDDW 011620Z 21007KT 8000 -RA SCT007 BKN011 BKN027 11/10 Q1006 TEMPO BKN008=
EDDW,2012,01,01,16,50,METAR COR EDDW 011650Z 20008KT 9999 SCT008 BKN013 BKN027 11/10 Q1005 TEMPO BKN008=
EDDW,2012,01,01,17,20,METAR EDDW 011720Z 20010KT 9999 BKN008 BKN013 11/11 Q1005 NOSIG=
EDDW,2012,01,01,17,50,METAR EDDW 011750Z 20009KT 9999 BKN008 12/11 Q1005 NOSIG=
EDDW,2012,01,01,18,20,METAR EDDW 011820Z 19009KT 9000 -DZ FEW005 BKN007 12/11 Q1004 NOSIG=
EDDW,2012,01,01,18,50,METAR EDDW 011850Z 19011KT 9999 -DZ FEW006 BKN009 12/11 Q1004 NOSIG=
EDDW,2012,01,01,19,20,METAR EDDW 011920Z 19011KT 9999 -DZ FEW006 BKN009 12/11 Q1003 TEMPO 4000 DZRA=
EDDW,2012,01,01,19,50,METAR EDDW 011950Z 18012KT 9999 -RADZ FEW007 BKN009 12/11 Q1002 TEMPO 4000 DZRA=
EDDW,2012,01,01,20,20,METAR EDDW 012020Z 19016KT 9999 -RADZ FEW007 BKN009 12/11 Q1002 TEMPO 4000 DZRA=
EDDW,2012,01,01,20,50,METAR EDDW 012050Z 19015KT 9999 -RADZ SCT008 BKN012 12/11 Q1001 TEMPO 4000 DZRA BKN008=
EDDW,2012,01,01,21,20,METAR EDDW 012120Z 20015KT 9999 -RA SCT008 BKN019 12/11 Q1000=
EDDW,2012,01,01,21,50,METAR EDDW 012150Z 20016KT 9999 -RA BKN010 BKN019 12/11 Q1000 RERA=
EDDW,2012,01,01,22,20,METAR EDDW 012220Z 20015G25KT 9999 RA BKN014 12/11 Q0999=
EDDW,2012,01,01,22,50,METAR EDDW 012250Z 20017KT 9999 RA SCT015 BKN025 13/11 Q0999=
EDFH,2012,01,01,00,20,METAR EDFH 010020Z 26011KT 220V300 8000 -DZRA SCT003 BKN006 BKN012 09/09 Q1013=
EDFH,2012,01,01,00,50,METAR EDFH 010050Z 26009KT 210V300 5000 -DZRA SCT003 BKN006 BKN012 09/09 Q1013=
EDFH,2012,01,01,01,20,METAR EDFH 010120Z 25008KT 200V310 3500 DZRA SCT002 BKN004 BKN010 09/09 Q1013=
EDFH,2012,01,01,01,50,METAR EDFH 010150Z 25009KT 200V290 8000 -DZRA SCT002 BKN004 BKN010 09/09 Q1013 REDZ=
EDFH,2012,01,01,02,20,METAR EDFH 010220Z 26010KT 190V290 8000 -DZRA SCT002 BKN005 BKN010 09/09 Q1013=
EDFH,2012,01,01,02,50,METAR EDFH 010250Z 26010KT 220V290 9999 -DZRA FEW003 BKN005 BKN014 09/09 Q1013=
EDFH,2012,01,01,03,20,METAR EDFH 010320Z 26011KT 220V290 2500 DZRA FEW003 BKN004 09/09 Q1013=
EDFH,2012,01,01,03,50,METAR EDFH 010350Z 25009KT 210V310 5000 -DZRA FEW003 BKN004 09/09 Q1013 REDZ=
EDFH,2012,01,01,04,20,METAR EDFH 010420Z 25010KT 210V300 9999 SCT003 BKN005 09/09 Q1013=
EDFH,2012,01,01,04,50,METAR EDFH 010450Z 25010KT 210V300 5000 -DZRA SCT003 BKN005 09/09 Q1013=
EDFH,2012,01,01,05,20,METAR EDFH 010520Z 25010KT 200V290 4000 -DZRA FEW002 BKN004 09/09 Q1013 REDZ=
EDFH,2012,01,01,05,50,METAR EDFH 010550Z 25008KT 200V290 4000 -DZRA FEW002 BKN004 09/09 Q1014 REDZ=
EDFH,2012,01,01,06,20,METAR EDFH 010620Z 24009KT 200V280 8000 -DZ FEW002 BKN004 09/09 Q1013=
EDFH,2012,01,01,06,50,METAR EDFH 010650Z 24010KT 200V280 3000 RADZ FEW002 SCT004 BKN006 09/09 Q1014=
EDFH,2012,01,01,07,20,METAR EDFH 010720Z 25008KT 210V310 2800 RADZ FEW002 SCT003 BKN004 09/09 Q1014=
EDFH,2012,01,01,07,50,METAR EDFH 010750Z 24010KT 210V270 3200 DZRA FEW002 BKN004 BKN006 09/09 Q1014=
EDFH,2012,01,01,08,20,METAR EDFH 010820Z 24009KT 210V290 4000 -DZRA FEW002 BKN004 BKN006 09/09 Q1014 REDZ=
EDFH,2012,01,01,08,50,METAR EDFH 010850Z 25010KT 170V290 3000 DZRA FEW002 BKN003 BKN005 09/09 Q1014=
EDFH,2012,01,01,09,20,METAR EDFH 010920Z 24011KT 210V280 6000 -DZRA FEW002 BKN004 BKN007 10/10 Q1014=
EDFH,2012,01,01,09,50,METAR EDFH 010950Z 24010KT 210V290 7000 -DZRA FEW002 BKN004 BKN007 10/10 Q1015 REDZ=
EDFH,2012,01,01,10,20,METAR EDFH 011020Z 25009KT 220V290 9999 FEW002 SCT004 BKN007 10/10 Q1014=
EDFH,2012,01,01,10,50,METAR EDFH 011050Z 25009G21KT 140V310 9999 FEW002 SCT004 BKN008 10/10 Q1014=
EDFH,2012,01,01,11,20,METAR EDFH 011120Z 24011KT 210V280 9999 FEW002 SCT006 BKN009 10/10 Q1014=
EDFH,2012,01,01,11,50,METAR EDFH 011150Z 23010KT 190V270 9999 FEW002 SCT008 BKN012 10/10 Q1013=
EDFH,2012,01,01,12,20,METAR EDFH 011220Z 23011KT 200V280 9999 FEW002 SCT006 BKN009 10/10 Q1013=
EDFH,2012,01,01,12,50,METAR EDFH 011250Z 23009KT 200V260 8000 -DZRA FEW002 SCT004 BKN008 10/10 Q1013=
EDFH,2012,01,01,13,20,METAR EDFH 011320Z 22010KT 200V260 7000 DZRA FEW002 SCT004 BKN006 10/10 Q1013=
EDFH,2012,01,01,13,50,METAR EDFH 011350Z 23009KT 9999 FEW003 SCT005 BKN008 10/10 Q1013 REDZ=
EDFH,2012,01,01,14,20,METAR EDFH 011420Z 22009KT 8000 -DZRA FEW002 SCT004 BKN006 10/10 Q1013=
EDFH,2012,01,01,14,50,METAR EDFH 011450Z 23009KT 190V280 7000 -DZRA FEW002 BKN004 BKN008 10/10 Q1013=
EDFH,2012,01,01,15,20,METAR EDFH 011520Z 22009KT 190V250 9000 -DZRA FEW003 BKN005 BKN008 10/10 Q1013=
EDFH,2012,01,01,15,50,METAR EDFH 011550Z 22010KT 3000 DZRA FEW002 BKN005 BKN009 10/10 Q1012=
EDFH,2012,01,01,16,20,METAR EDFH 011620Z 22009KT 190V250 8000 -DZRA FEW002 BKN005 BKN010 10/10 Q1012 REDZ=
EDFH,2012,01,01,16,50,METAR EDFH 011650Z 22012KT 8000 -DZRA FEW005 BKN007 BKN013 10/10 Q1012=
EDFH,2012,01,01,17,20,METAR EDFH 011720Z 22014KT 8000 -DZRA FEW005 BKN008 BKN013 10/10 Q1012=
EDFH,2012,01,01,17,50,METAR EDFH 011750Z 22013KT 170V250 6000 -DZRA FEW005 BKN008 BKN013 10/10 Q1012=
EDFH,2012,01,01,18,20,METAR EDFH 011820Z 22012KT 5000 -DZRA SCT005 BKN007 10/10 Q1011=
EDFH,2012,01,01,18,50,METAR EDFH 011850Z 22012KT 6000 -DZRA FEW005 BKN007 10/10 Q1011=
EDFH,2012,01,01,19,20,METAR EDFH 011920Z 23014KT 200V260 9000 -DZRA FEW006 BKN008 10/10 Q1011=
EDFH,2012,01,01,19,50,METAR EDFH 011950Z 22015KT 9000 -DZRA FEW005 BKN007 10/10 Q1011=
EDFH,2012,01,01,20,20,METAR EDFH 012020Z 22015KT 200V260 6000 -DZRA FEW005 BKN007 10/10 Q1010=
EDFH,2012,01,01,20,50,METAR EDFH 012050Z 22014KT 200V260 9000 -DZRA FEW006 BKN008 10/10 Q1010=
EDFH,2012,01,01,21,20,METAR EDFH 012120Z 22017G29KT 200V260 9000 -DZRA FEW006 BKN008 10/10 Q1010=
EDFH,2012,01,01,21,50,METAR EDFH 012150Z 22016G27KT 9000 FEW007 BKN009 10/10 Q1009=
EDFH,2012,01,01,22,20,METAR EDFH 012220Z 22016G31KT 190V250 8000 -DZRA FEW006 BKN008 10/10 Q1009=
EDFH,2012,01,01,22,50,METAR EDFH 012250Z 22015G27KT 8000 -DZRA FEW006 BKN008 10/10 Q1009=
EDFM,2012,01,01,00,20,METAR EDFM 010020Z NIL=
EDFM,2012,01,01,00,50,METAR EDFM 010050Z NIL=
EDFM,2012,01,01,01,20,METAR EDFM 010120Z NIL=
EDFM,2012,01,01,01,50,METAR EDFM 010150Z NIL=
EDFM,2012,01,01,02,20,METAR EDFM 010220Z NIL=
EDFM,2012,01,01,02,50,METAR EDFM 010250Z NIL=
EDFM,2012,01,01,03,20,METAR EDFM 010320Z NIL=
EDFM,2012,01,01,03,50,METAR EDFM 010350Z NIL=
EDFM,2012,01,01,04,20,METAR EDFM 010420Z NIL=
EDFM,2012,01,01,04,50,METAR EDFM 010450Z NIL=
EDFM,2012,01,01,05,20,METAR EDFM 010520Z NIL=
EDFM,2012,01,01,05,50,METAR EDFM 010550Z NIL=
EDFM,2012,01,01,06,20,METAR EDFM 010620Z NIL=
EDFM,2012,01,01,06,50,METAR EDFM 010650Z NIL=
EDFM,2012,01,01,07,20,METAR EDFM 010720Z NIL=
EDFM,2012,01,01,07,50,METAR EDFM 010750Z NIL=
EDFM,2012,01,01,08,20,METAR EDFM 010820Z NIL=
EDFM,2012,01,01,08,50,METAR EDFM 010850Z NIL=
EDFM,2012,01,01,09,20,METAR EDFM 010920Z NIL=
EDFM,2012,01,01,09,50,METAR EDFM 010950Z NIL=
EDFM,2012,01,01,10,20,METAR EDFM 011020Z NIL=
EDFM,2012,01,01,10,50,METAR EDFM 011050Z NIL=
EDFM,2012,01,01,11,20,METAR EDFM 011120Z NIL=
EDFM,2012,01,01,11,50,METAR EDFM 011150Z NIL=
EDFM,2012,01,01,12,20,METAR EDFM 011220Z NIL=
EDFM,2012,01,01,12,50,METAR EDFM 011250Z NIL=
EDFM,2012,01,01,13,20,METAR EDFM 011320Z NIL=
EDFM,2012,01,01,13,50,METAR EDFM 011350Z NIL=
EDFM,2012,01,01,14,20,METAR EDFM 011420Z NIL=
EDFM,2012,01,01,14,50,METAR EDFM 011450Z NIL=
EDFM,2012,01,01,15,20,METAR EDFM 011520Z NIL=
EDFM,2012,01,01,15,50,METAR EDFM 011550Z NIL=
EDFM,2012,01,01,16,20,METAR EDFM 011620Z NIL=
EDFM,2012,01,01,16,50,METAR EDFM 011650Z NIL=
EDFM,2012,01,01,17,20,METAR EDFM 011720Z NIL=
EDFM,2012,01,01,17,50,METAR EDFM 011750Z NIL=
EDFM,2012,01,01,18,20,METAR EDFM 011820Z NIL=
EDFM,2012,01,01,18,50,METAR EDFM 011850Z NIL=
EDFM,2012,01,01,19,20,METAR EDFM 011920Z NIL=
EDFM,2012,01,01,19,50,METAR EDFM 011950Z NIL=
EDFM,2012,01,01,20,20,METAR EDFM 012020Z NIL=
EDFM,2012,01,01,20,50,METAR EDFM 012050Z NIL=
EDFM,2012,01,01,21,20,METAR EDFM 012120Z NIL=
EDFM,2012,01,01,21,50,METAR EDFM 012150Z NIL=
EDFM,2012,01,01,22,20,METAR EDFM 012220Z NIL=
EDFM,2012,01,01,22,50,METAR EDFM 012250Z NIL=
EDGS,2012,01,01,00,00,METAR EDGS NIL=
EDGS,2012,01,01,01,00,METAR EDGS NIL=
EDGS,2012,01,01,02,00,METAR EDGS NIL=
EDGS,2012,01,01,03,00,METAR EDGS NIL=
EDGS,2012,01,01,04,00,METAR EDGS NIL=
EDGS,2012,01,01,05,00,METAR EDGS NIL=
EDGS,2012,01,01,06,00,METAR EDGS NIL=
EDGS,2012,01,01,07,00,METAR EDGS NIL=
EDGS,2012,01,01,08,00,METAR EDGS NIL=
EDGS,2012,01,01,09,00,METAR EDGS NIL=
EDGS,2012,01,01,10,00,METAR EDGS NIL=
EDGS,2012,01,01,11,00,METAR EDGS NIL=
EDGS,2012,01,01,12,00,METAR EDGS NIL=
EDGS,2012,01,01,13,00,METAR EDGS NIL=
EDGS,2012,01,01,14,00,METAR EDGS NIL=
EDGS,2012,01,01,15,00,METAR EDGS NIL=
EDGS,2012,01,01,16,00,METAR EDGS NIL=
EDGS,2012,01,01,17,00,METAR EDGS NIL=
EDGS,2012,01,01,18,00,METAR EDGS NIL=
EDGS,2012,01,01,19,00,METAR EDGS NIL=
EDGS,2012,01,01,20,00,METAR EDGS NIL=
EDGS,2012,01,01,21,00,METAR EDGS NIL=
EDGS,2012,01,01,22,00,METAR EDGS NIL=
EDGS,2012,01,01,23,00,METAR EDGS NIL=
EDHI,2012,01,01,00,20,METAR EDHI NIL=
EDHI,2012,01,01,00,50,METAR EDHI NIL=
EDHI,2012,01,01,01,20,METAR EDHI NIL=
EDHI,2012,01,01,01,50,METAR EDHI NIL=
EDHI,2012,01,01,02,20,METAR EDHI NIL=
EDHI,2012,01,01,02,50,METAR EDHI NIL=
EDHI,2012,01,01,03,20,METAR EDHI NIL=
EDHI,2012,01,01,03,50,METAR EDHI NIL=
EDHI,2012,01,01,04,20,METAR EDHI NIL=
EDHI,2012,01,01,04,50,METAR EDHI NIL=
EDHI,2012,01,01,05,20,METAR EDHI NIL=
EDHI,2012,01,01,05,50,METAR EDHI NIL=
EDHI,2012,01,01,06,20,METAR EDHI NIL=
EDHI,2012,01,01,06,50,METAR EDHI NIL=
EDHI,2012,01,01,07,20,METAR EDHI NIL=
EDHI,2012,01,01,07,50,METAR EDHI NIL=
EDHI,2012,01,01,08,20,METAR EDHI NIL=
EDHI,2012,01,01,08,50,METAR EDHI NIL=
EDHI,2012,01,01,09,20,METAR EDHI NIL=
EDHI,2012,01,01,09,50,METAR EDHI NIL=
EDHI,2012,01,01,10,20,METAR EDHI NIL=
EDHI,2012,01,01,10,50,METAR EDHI NIL=
EDHI,2012,01,01,11,20,METAR EDHI NIL=
EDHI,2012,01,01,11,50,METAR EDHI NIL=
EDHI,2012,01,01,12,20,METAR EDHI NIL=
EDHI,2012,01,01,12,50,METAR EDHI NIL=
EDHI,2012,01,01,13,20,METAR EDHI NIL=
EDHI,2012,01,01,13,50,METAR EDHI NIL=
EDHI,2012,01,01,14,20,METAR EDHI NIL=
EDHI,2012,01,01,14,50,METAR EDHI NIL=
EDHI,2012,01,01,15,20,METAR EDHI NIL=
EDHI,2012,01,01,15,50,METAR EDHI NIL=
EDHI,2012,01,01,16,20,METAR EDHI NIL=
EDHI,2012,01,01,16,50,METAR EDHI NIL=
EDHI,2012,01,01,17,20,METAR EDHI NIL=
EDHI,2012,01,01,17,50,METAR EDHI NIL=
EDHI,2012,01,01,18,20,METAR EDHI NIL=
EDHI,2012,01,01,18,50,METAR EDHI NIL=
EDHI,2012,01,01,19,20,METAR EDHI NIL=
EDHI,2012,01,01,19,50,METAR EDHI NIL=
EDHI,2012,01,01,20,20,METAR EDHI NIL=
EDHI,2012,01,01,20,50,METAR EDHI NIL=
EDHI,2012,01,01,21,20,METAR EDHI NIL=
EDHI,2012,01,01,21,50,METAR EDHI NIL=
EDHI,2012,01,01,22,20,METAR EDHI NIL=
EDHI,2012,01,01,22,50,METAR EDHI NIL=
EDHK,2012,01,01,00,00,METAR EDHK NIL=
EDHK,2012,01,01,00,20,METAR EDHK 010020Z 17006KT 0400 FG VV001 04/03 Q1007 RED=
EDHK,2012,01,01,01,00,METAR EDHK NIL=
EDHK,2012,01,01,01,20,METAR EDHK 010120Z 17005KT 0400 FG VV001 04/04 Q1006 RED=
EDHK,2012,01,01,02,00,METAR EDHK NIL=
EDHK,2012,01,01,02,20,METAR EDHK 010220Z 17006KT 0400 FG VV001 05/04 Q1005 RED=
EDHK,2012,01,01,03,00,METAR EDHK NIL=
EDHK,2012,01,01,03,20,METAR EDHK 010320Z 17006KT 0600 FG VV001 05/05 Q1005 RED=
EDHK,2012,01,01,04,00,SPECI EDHK 010400Z 18006KT 1200 -RADZ BR BKN002 06/05 Q1004 AMB=
EDHK,2012,01,01,04,00,METAR EDHK NIL=
EDHK,2012,01,01,04,20,METAR EDHK 010420Z 18007KT 1000 -DZRA BR BKN002 06/06 Q1004 AMB=
EDHK,2012,01,01,05,00,METAR EDHK NIL=
EDHK,2012,01,01,05,20,METAR EDHK 010520Z 19007KT 1200 -DZ BR BKN002 07/06 Q1004 AMB=
EDHK,2012,01,01,06,00,METAR EDHK NIL=
EDHK,2012,01,01,06,20,METAR EDHK 010620Z 20007KT 1200 -DZRA BR BKN002 08/07 Q1003 AMB=
EDHK,2012,01,01,07,00,METAR EDHK NIL=
EDHK,2012,01,01,07,20,METAR EDHK 010720Z 21009KT 1200 -DZRA BR BKN003 09/08 Q1003 AMB=
EDHK,2012,01,01,08,00,METAR EDHK NIL=
EDHK,2012,01,01,08,20,METAR EDHK 010820Z 22008KT 1000 R26/2600U -DZRA BR BKN004 10/09 Q1003 AMB=
EDHK,2012,01,01,09,00,METAR EDHK NIL=
EDHK,2012,01,01,09,20,METAR EDHK 010920Z 22010KT 1100 R26/2300D -DZRA BR BKN003 10/09 Q1004 AMB=
EDHK,2012,01,01,10,00,METAR EDHK NIL=
EDHK,2012,01,01,10,20,METAR EDHK 011020Z 23011KT 1500 R26/2600U -DZRA BR BKN004 10/09 Q1004 AMB=
EDHK,2012,01,01,10,55,SPECI EDHK 011055Z 24012KT 5000 -DZ BR BKN005 10/09 Q1004 YLO=
EDHK,2012,01,01,11,00,METAR EDHK NIL=
EDHK,2012,01,01,11,20,METAR EDHK 011120Z 24015KT 5000 -DZ BR BKN005 10/09 Q1004 YLO=
EDHK,2012,01,01,12,00,METAR EDHK NIL=
EDHK,2012,01,01,12,20,METAR EDHK 011220Z 24014KT 5000 BR BKN005 09/08 Q1004 YLO=
EDHK,2012,01,01,13,00,METAR EDHK NIL=
EDHK,2012,01,01,13,20,METAR EDHK 011320Z 24011KT 9999 BKN008 09/08 Q1004 GRN=
EDHK,2012,01,01,14,00,METAR EDHK NIL=
EDHK,2012,01,01,14,20,METAR EDHK 011420Z 26012KT 9999 BKN008 10/08 Q1005 GRN=
EDHK,2012,01,01,15,00,METAR EDHK NIL=
EDHK,2012,01,01,15,20,METAR EDHK 011520Z 23009KT 9999 BKN012 10/08 Q1004 GRN=
EDHK,2012,01,01,16,00,METAR EDHK NIL=
EDHK,2012,01,01,16,20,METAR EDHK 011620Z 22008KT 9999 BKN010 BKN030 10/08 Q1005 GRN=
EDHK,2012,01,01,17,00,METAR EDHK NIL=
EDHK,2012,01,01,17,20,METAR EDHK 011720Z 20005KT 9999 SCT010 SCT030 10/08 Q1004 BLU/=
EDHK,2012,01,01,18,00,METAR EDHK NIL=
EDHK,2012,01,01,18,20,METAR EDHK 011820Z 19007KT 4000 -DZ BR BKN010 BKN020 10/08 Q1003 GRN=
EDHK,2012,01,01,18,42,SPECI EDHK 011842Z 19007KT 6000 FEW008 BKN050 10/09 Q1003 WHT=
EDHK,2012,01,01,19,00,METAR EDHK NIL=
EDHK,2012,01,01,19,20,METAR EDHK 011920Z 18008KT 7000 FEW030 BKN050 10/09 Q1002 WHT=
EDHK,2012,01,01,19,57,SPECI EDHK 011957Z 18007KT 5000 BR BKN007 10/09 Q1002 GRN=
EDHK,2012,01,01,20,00,METAR EDHK NIL=
EDHK,2012,01,01,20,20,METAR EDHK 012020Z 19006KT 4500 -DZ BR BKN005 10/09 Q1001 YLO=
EDHK,2012,01,01,21,00,METAR EDHK NIL=
EDHK,2012,01,01,21,20,METAR EDHK 012120Z 18005KT 4000 -RA BR BKN005 10/09 Q1000 YLO=
EDHK,2012,01,01,21,42,SPECI EDHK 012142Z 16004KT 1600 RA BR BKN003 BKN006 10/09 Q0999 YLO=
EDHK,2012,01,01,22,00,METAR EDHK NIL=
EDHK,2012,01,01,22,20,METAR EDHK 012220Z 16004KT 1800 -RA BR SCT002 BKN005 10/09 Q0997 RERA YLO=
EDHK,2012,01,01,22,46,SPECI EDHK 012246Z 18009KT 4000 -RA BR BKN007 11/10 Q0997 GRN=
EDHK,2012,01,01,23,00,METAR EDHK NIL=
EDHL,2012,01,01,00,20,METAR EDHL NIL=
EDHL,2012,01,01,00,50,METAR EDHL NIL=
EDHL,2012,01,01,01,20,METAR EDHL NIL=
EDHL,2012,01,01,01,50,METAR EDHL NIL=
EDHL,2012,01,01,02,20,METAR EDHL NIL=
EDHL,2012,01,01,02,50,METAR EDHL NIL=
EDHL,2012,01,01,03,20,METAR EDHL NIL=
EDHL,2012,01,01,03,50,METAR EDHL NIL=
EDHL,2012,01,01,04,20,METAR EDHL NIL=
EDHL,2012,01,01,04,50,METAR EDHL NIL=
EDHL,2012,01,01,05,20,METAR EDHL NIL=
EDHL,2012,01,01,05,50,METAR EDHL NIL=
EDHL,2012,01,01,06,20,METAR EDHL NIL=
EDHL,2012,01,01,06,50,METAR EDHL NIL=
EDHL,2012,01,01,07,20,METAR EDHL NIL=
EDHL,2012,01,01,07,50,METAR EDHL NIL=
EDHL,2012,01,01,08,20,METAR EDHL NIL=
EDHL,2012,01,01,08,50,METAR EDHL NIL=
EDHL,2012,01,01,09,20,METAR EDHL NIL=
EDHL,2012,01,01,09,50,METAR EDHL NIL=
EDHL,2012,01,01,10,20,METAR COR EDHL 011020Z 23012KT 4000 RA BKN008 OVC011 10/10 Q1005=
EDHL,2012,01,01,10,50,METAR EDHL 011050Z 24011KT 4000 -RA BKN008 OVC011 10/10 Q1005 RMK B=
EDHL,2012,01,01,11,20,METAR EDHL NIL=
EDHL,2012,01,01,11,50,METAR EDHL 011150Z 24012KT 3000 -RA BKN007 OVC010 10/10 Q1006 RMK C=
EDHL,2012,01,01,12,20,METAR EDHL 011220Z 26011KT 6000 BKN011 BKN024 10/10 Q1005=
EDHL,2012,01,01,12,50,METAR EDHL 011250Z 25010KT 8000 BKN015 BKN034 10/10 Q1005 RMK E=
EDHL,2012,01,01,13,20,METAR EDHL NIL=
EDHL,2012,01,01,13,50,METAR EDHL 011350Z 25012KT 9999 BKN016 BKN032 11/11 Q1006 RMK F=
EDHL,2012,01,01,14,20,METAR EDHL 011420Z 24012KT 9999 SCT022 BKN035 10/10 Q1006=
EDHL,2012,01,01,14,50,METAR EDHL 011450Z 24010KT 9999 BKN033 10/10 Q1006 RMK H=
EDHL,2012,01,01,15,20,METAR EDHL 011520Z 23009KT 9999 BKN034 10/10 Q1006=
EDHL,2012,01,01,15,50,METAR COR EDHL 011550Z 22008KT 9999 BKN033 09/09 Q1006 RMK K=
EDHL,2012,01,01,16,20,METAR EDHL 011620Z 21006KT 9000 BKN013 09/09 Q1006=
EDHL,2012,01,01,16,50,METAR EDHL 011650Z 19005KT 9000 FEW012 SCT090 09/09 Q1006 RMK M=
EDHL,2012,01,01,17,20,METAR EDHL 011720Z 17005KT 140V210 9999 SCT035 SCT100 09/09 Q1006=
EDHL,2012,01,01,17,50,METAR EDHL 011750Z 18007KT CAVOK 09/09 Q1005 RMK O=
EDHL,2012,01,01,18,20,METAR EDHL 011820Z 18008KT 9999 SCT023 10/10 Q1005=
EDHL,2012,01,01,18,50,METAR EDHL NIL=
EDHL,2012,01,01,19,20,METAR EDHL NIL=
EDHL,2012,01,01,19,50,METAR EDHL NIL=
EDHL,2012,01,01,20,20,METAR EDHL NIL=
EDHL,2012,01,01,20,50,METAR EDHL NIL=
EDHL,2012,01,01,21,20,METAR EDHL NIL=
EDHL,2012,01,01,21,50,METAR EDHL NIL=
EDHL,2012,01,01,22,20,METAR EDHL NIL=
EDHL,2012,01,01,22,50,METAR EDHL NIL=
EDLN,2012,01,01,00,20,METAR EDLN NIL=
EDLN,2012,01,01,00,50,METAR EDLN NIL=
EDLN,2012,01,01,01,50,METAR EDLN NIL=
EDLN,2012,01,01,02,50,METAR EDLN NIL=
EDLN,2012,01,01,03,20,METAR EDLN NIL=
EDLN,2012,01,01,03,50,METAR EDLN NIL=
EDLN,2012,01,01,04,50,METAR EDLN NIL=
EDLN,2012,01,01,05,20,METAR EDLN NIL=
EDLN,2012,01,01,05,50,METAR EDLN NIL=
EDLN,2012,01,01,06,50,METAR EDLN NIL=
EDLN,2012,01,01,07,20,METAR EDLN NIL=
EDLN,2012,01,01,07,50,METAR EDLN NIL=
EDLN,2012,01,01,09,20,METAR EDLN NIL=
EDLN,2012,01,01,09,50,METAR EDLN NIL=
EDLN,2012,01,01,10,20,METAR EDLN NIL=
EDLN,2012,01,01,10,50,METAR EDLN NIL=
EDLN,2012,01,01,11,20,METAR EDLN NIL=
EDLN,2012,01,01,11,50,METAR EDLN NIL=
EDLN,2012,01,01,12,20,METAR EDLN NIL=
EDLN,2012,01,01,12,50,METAR EDLN NIL=
EDLN,2012,01,01,13,50,METAR EDLN NIL=
EDLN,2012,01,01,14,20,METAR EDLN NIL=
EDLN,2012,01,01,14,50,METAR EDLN NIL=
EDLN,2012,01,01,15,20,METAR EDLN NIL=
EDLN,2012,01,01,15,50,METAR EDLN NIL=
EDLN,2012,01,01,16,20,METAR EDLN NIL=
EDLN,2012,01,01,16,50,METAR EDLN NIL=
EDLN,2012,01,01,17,20,METAR EDLN NIL=
EDLN,2012,01,01,17,50,METAR EDLN NIL=
EDLN,2012,01,01,18,50,METAR EDLN NIL=
EDLN,2012,01,01,19,20,METAR EDLN NIL=
EDLN,2012,01,01,19,50,METAR EDLN NIL=
EDLN,2012,01,01,20,20,METAR EDLN NIL=
EDLN,2012,01,01,20,50,METAR EDLN NIL=
EDLN,2012,01,01,21,20,METAR EDLN NIL=
EDLN,2012,01,01,21,50,METAR EDLN NIL=
EDLN,2012,01,01,22,20,METAR EDLN NIL=
EDLN,2012,01,01,22,50,METAR EDLN NIL=
EDLP,2012,01,01,00,20,METAR EDLP NIL=
EDLP,2012,01,01,00,50,METAR EDLP NIL=
EDLP,2012,01,01,01,50,METAR EDLP NIL=
EDLP,2012,01,01,02,50,METAR EDLP 010250Z 23008KT 9999 SCT020 BKN035 09/09 Q1010 RMK RWY24 TRL70 PB ATIS A=
EDLP,2012,01,01,03,20,METAR EDLP 010320Z 22010KT 9999 BKN035 10/09 Q1010=
EDLP,2012,01,01,03,50,METAR EDLP 010350Z 21009KT 9999 SCT020 BKN035 09/09 Q1010 RMK RWY24 TRL70 PB ATIS C=
EDLP,2012,01,01,04,20,METAR EDLP 010420Z 21011KT 9999 BKN015 09/09 Q1010=
EDLP,2012,01,01,04,50,METAR EDLP 010450Z 20011KT 9999 BKN015 09/09 Q1009 RMK RWY24 TRL70 PB ATIS E=
EDLP,2012,01,01,05,20,METAR EDLP 010520Z 21012KT 9999 SCT016 BKN017 09/09 Q1010=
EDLP,2012,01,01,05,50,METAR EDLP 010550Z 21011KT 9999 SCT016 BKN021 10/09 Q1009 RMK RWY24 TRL70 HS ATIS G=
EDLP,2012,01,01,06,20,METAR EDLP 010620Z 21011KT 9999 -RA SCT019 BKN024 10/09 Q1009=
EDLP,2012,01,01,06,50,METAR EDLP 010650Z 21012KT 9999 -RA SCT022 BKN025 10/10 Q1009 RMK RWY24 TRL70 HS ATIS A=
EDLP,2012,01,01,07,20,METAR EDLP 010720Z 21013KT 7000 -RA SCT014 BKN021 10/10 Q1010=
EDLP,2012,01,01,07,50,METAR EDLP 010750Z 22014KT 7000 -RA SCT014 BKN021 10/10 Q1010 RMK RWY24 TRL70 HS ATIS C=
EDLP,2012,01,01,08,20,METAR EDLP 010820Z 21014KT 9999 SCT018 BKN022 11/10 Q1010=
EDLP,2012,01,01,08,50,METAR EDLP 010850Z 22015KT 9999 SCT017 BKN022 11/10 Q1010 RMK RWY24 TRL70 HS ATIS E=
EDLP,2012,01,01,09,20,METAR EDLP 010920Z 22010G20KT 9999 -RA SCT015 BKN024 11/10 Q1010=
EDLP,2012,01,01,09,50,METAR COR EDLP 010950Z 22014KT 6000 -RA SCT015 BKN020 11/10 Q1010 RMK RWY24 TRL70 HS ATIS A=
EDLP,2012,01,01,10,20,METAR EDLP 011020Z 23012KT 7000 -RA SCT015 BKN020 11/11 Q1010=
EDLP,2012,01,01,10,50,METAR EDLP 011050Z 23011KT 5000 -RA BR SCT012 BKN017 11/11 Q1010 RMK RWY24 TRL70 HS ATIS C=
EDLP,2012,01,01,11,20,METAR EDLP 011120Z 22012KT 6000 SCT012 BKN018 11/11 Q1010=
EDLP,2012,01,01,11,50,METAR EDLP 011150Z 23012KT 6000 -RA SCT012 BKN018 12/11 Q1010 RMK RWY24 TRL70 HS ATIS E=
EDLP,2012,01,01,12,20,METAR EDLP 011220Z 22010G20KT 9999 FEW022 SCT027 12/12 Q1009=
EDLP,2012,01,01,12,50,METAR EDLP 011250Z 23013KT 9999 SCT022 BKN027 12/12 Q1009 RMK RWY24 TRL70 HS ATIS G=
EDLP,2012,01,01,13,20,METAR EDLP 011320Z 23012KT 9999 SCT022 BKN025 12/12 Q1010=
EDLP,2012,01,01,13,50,METAR EDLP 011350Z 22011KT 9999 SCT015 BKN025 12/11 Q1009 RMK RWY24 TRL70 HS ATIS I=
EDLP,2012,01,01,14,20,METAR COR EDLP 011420Z 22011KT 9999 SCT015 BKN025 12/11 Q1009=
EDLP,2012,01,01,14,50,METAR EDLP 011450Z 20008KT 9999 SCT015 BKN025 11/11 Q1009 RMK RWY24 TRL70 TT ATIS K=
EDLP,2012,01,01,15,20,METAR EDLP 011520Z 19007KT 9999 BKN035 11/11 Q1009=
EDLP,2012,01,01,15,50,METAR EDLP 011550Z 19010KT 9999 BKN035 12/11 Q1009 RMK RWY24 TRL70 TT ATIS M=
EDLP,2012,01,01,16,20,METAR EDLP 011620Z 19011KT 9999 BKN035 12/11 Q1009=
EDLP,2012,01,01,16,50,METAR COR EDLP 011650Z 19012KT 9999 BKN035 12/11 Q1008 RMK RWY24 TRL70 TT ATIS N=
EDLP,2012,01,01,17,20,METAR EDLP 011720Z 19010KT 9999 BKN035 12/11 Q1008=
EDLP,2012,01,01,17,50,METAR EDLP 011750Z 19009KT 9999 FEW019 BKN035 12/11 Q1008 RMK RWY24 TRL70 TT ATIS P=
EDLP,2012,01,01,18,20,METAR EDLP 011820Z 20012KT 9999 FEW019 BKN035 12/11 Q1007=
EDLP,2012,01,01,18,50,METAR EDLP 011850Z 19010KT 9999 SCT019 BKN060 12/10 Q1007 RMK RWY24 TRL70 TT ATIS R=
EDLP,2012,01,01,19,20,METAR EDLP 011920Z 20015KT 9999 SCT019 BKN060 12/10 Q1006=
EDLP,2012,01,01,19,50,METAR EDLP 011950Z 20016KT 9999 -SHRA BKN060 12/10 Q1006 RMK RWY24 TRL70 PB ATIS T=
EDLP,2012,01,01,20,20,METAR EDLP 012020Z 20017KT 9999 SCT025 BKN120 12/10 Q1006=
EDLP,2012,01,01,20,50,METAR EDLP 012050Z 20017KT CAVOK 13/10 Q1005 RMK RWY24 TRL70 PB ATIS V=
EDLP,2012,01,01,21,20,METAR EDLP 012120Z 20017G28KT CAVOK 13/10 Q1005=
EDLP,2012,01,01,21,50,METAR EDLP 012150Z 20017KT 9999 SCT025 13/10 Q1004 RMK RWY24 TRL70 PB ATIS X=
EDLP,2012,01,01,22,20,METAR EDLP NIL=
EDLP,2012,01,01,22,50,METAR EDLP NIL=
EDLV,2012,01,01,00,20,METAR EDLV 010020Z NIL=
EDLV,2012,01,01,00,50,METAR EDLV 010050Z NIL=
EDLV,2012,01,01,01,20,METAR EDLV 010120Z NIL=
EDLV,2012,01,01,01,50,METAR EDLV 010150Z NIL=
EDLV,2012,01,01,02,20,METAR EDLV 010220Z NIL=
EDLV,2012,01,01,02,50,METAR EDLV 010250Z NIL=
EDLV,2012,01,01,03,20,METAR EDLV 010320Z NIL=
EDLV,2012,01,01,03,50,METAR EDLV 010350Z 21010KT 8000 -RA BKN006 11/11 Q1009=
EDLV,2012,01,01,04,20,METAR EDLV 010420Z 21011KT 9999 BKN006 11/11 Q1009=
EDLV,2012,01,01,04,50,METAR EDLV 010450Z 21010KT 9999 BKN007 11/11 Q1009=
EDLV,2012,01,01,05,20,METAR EDLV 010520Z 22012KT 180V240 8000 BKN006 11/11 Q1009=
EDLV,2012,01,01,05,50,METAR EDLV 010550Z 22013KT 7000 -RA BKN005 11/11 Q1009=
EDLV,2012,01,01,06,20,METAR EDLV 010620Z 22011KT 8000 -RA BKN004 11/11 Q1009=
EDLV,2012,01,01,06,50,METAR EDLV 010650Z 22011KT 8000 -RA BKN006 11/11 Q1009=
EDLV,2012,01,01,07,20,METAR EDLV 010720Z 22010KT 9000 BKN005 12/12 Q1009=
EDLV,2012,01,01,07,50,METAR EDLV 010750Z 22010KT 9000 -RA BKN005 12/12 Q1009=
EDLV,2012,01,01,08,20,METAR EDLV 010820Z 23010KT 7000 -RA BKN006 12/12 Q1010=
EDLV,2012,01,01,08,50,METAR EDLV 010850Z 23010KT 5000 -RA BKN006 12/12 Q1010=
EDLV,2012,01,01,09,20,METAR EDLV 010920Z 23009KT 4000 RA BKN006 12/12 Q1010=
EDLV,2012,01,01,09,50,METAR EDLV 010950Z 23010KT 6000 -RA BKN004 12/12 Q1010=
EDLV,2012,01,01,10,20,METAR EDLV 011020Z 23011KT 6000 -RA BKN004 12/12 Q1010=
EDLV,2012,01,01,10,50,METAR EDLV 011050Z 22011KT 9000 -DZ BKN005 12/12 Q1010=
EDLV,2012,01,01,11,20,METAR EDLV 011120Z 22011KT 9000 -DZ BKN004 12/12 Q1009=
EDLV,2012,01,01,11,50,METAR EDLV 011150Z 22010KT 9000 -DZ BKN004 12/12 Q1009=
EDLV,2012,01,01,12,20,METAR EDLV 011220Z 22010KT 9000 BKN006 12/12 Q1009=
EDLV,2012,01,01,12,50,METAR EDLV 011250Z 21008KT 9000 -DZ BKN005 12/12 Q1009=
EDLV,2012,01,01,13,20,METAR EDLV 011320Z 21009KT 6000 -RA SCT004 BKN008 12/12 Q1008=
EDLV,2012,01,01,13,50,METAR EDLV 011350Z 20010KT 9999 -DZ BKN005 13/13 Q1008=
EDLV,2012,01,01,14,20,METAR EDLV 011420Z 21010KT 9999 -DZ BKN005 13/13 Q1008=
EDLV,2012,01,01,14,50,METAR EDLV 011450Z 20009KT 9000 BKN005 12/12 Q1008=
EDLV,2012,01,01,15,20,METAR EDLV 011520Z 21010KT 9999 SCT009 BKN019 13/13 Q1008=
EDLV,2012,01,01,15,50,METAR EDLV 011550Z 19008KT 160V230 9999 BKN007 12/12 Q1007=
EDLV,2012,01,01,16,20,METAR EDLV 011620Z 19009KT 9999 BKN007 12/12 Q1007=
EDLV,2012,01,01,16,50,METAR EDLV 011650Z 18009KT 9999 BKN012 12/12 Q1006=
EDLV,2012,01,01,17,20,METAR EDLV 011720Z 19011KT 160V220 9999 BKN014 13/13 Q1006=
EDLV,2012,01,01,17,50,METAR EDLV 011750Z 19011KT 170V230 9999 BKN014 13/13 Q1006=
EDLV,2012,01,01,18,20,METAR EDLV 011820Z 20012KT 160V230 9999 -RA BKN012 13/13 Q1005=
EDLV,2012,01,01,18,50,METAR EDLV 011850Z 19011KT 8000 -RA BKN018 13/13 Q1004=
EDLV,2012,01,01,19,20,METAR EDLV 011920Z 19013KT 9999 BKN016 13/13 Q1004=
EDLV,2012,01,01,19,50,METAR EDLV 011950Z 19014KT 160V220 9999 BKN019 13/13 Q1003=
EDLV,2012,01,01,20,20,METAR EDLV 012020Z 19015KT 9999 -RA BKN023 13/13 Q1002=
EDLV,2012,01,01,20,50,METAR EDLV 012050Z 20014KT 160V230 9999 -RA BKN022 14/13 Q1002=
EDLV,2012,01,01,21,20,METAR EDLV 012120Z 20015KT 160V230 9999 BKN021 14/12 Q1002=
EDLV,2012,01,01,21,50,METAR EDLV 012150Z 21019G31KT 180V240 9999 BKN023 14/12 Q1002=
EDLV,2012,01,01,22,20,METAR EDLV 012220Z NIL=
EDLV,2012,01,01,22,50,METAR EDLV 012250Z NIL=
EDLW,2012,01,01,00,20,METAR EDLW NIL=
EDLW,2012,01,01,00,50,METAR EDLW NIL=
EDLW,2012,01,01,01,50,METAR EDLW NIL=
EDLW,2012,01,01,02,50,METAR EDLW NIL=
EDLW,2012,01,01,03,20,METAR EDLW NIL=
EDLW,2012,01,01,03,50,METAR EDLW NIL=
EDLW,2012,01,01,04,20,METAR EDLW 010420Z 23013KT 9999 -DZ OVC009 11/09 Q1010=
EDLW,2012,01,01,04,50,METAR EDLW 010450Z 23015KT 9999 -DZ BKN009 11/09 Q1009 RMK ATIS B=
EDLW,2012,01,01,05,20,METAR EDLW 010520Z 22015KT 9999 -RA BKN010 11/09 Q1009=
EDLW,2012,01,01,05,50,METAR EDLW 010550Z 21013KT 9999 BKN010 11/09 Q1009 RMK ATIS D=
EDLW,2012,01,01,06,20,METAR EDLW 010620Z 23014KT 6000 DZ BKN006 11/10 Q1010=
EDLW,2012,01,01,06,50,METAR EDLW 010650Z 22013KT 8000 -DZ BKN008 11/10 Q1010 RMK ATIS F=
EDLW,2012,01,01,07,20,METAR EDLW 010720Z 23016KT 6000 -DZ BKN008 11/10 Q1010=
EDLW,2012,01,01,07,50,METAR EDLW 010750Z 23016KT 9999 -DZ BKN008 11/10 Q1010 RMK ATIS H=
EDLW,2012,01,01,08,20,METAR EDLW 010820Z 23015KT 8000 -RA BKN010 12/10 Q1010=
EDLW,2012,01,01,08,50,METAR EDLW 010850Z 23013KT 9999 BKN010 11/10 Q1010 RMK ATIS J=
EDLW,2012,01,01,09,20,METAR EDLW 010920Z 23014KT 9999 BKN009 11/10 Q1010=
EDLW,2012,01,01,09,50,METAR EDLW 010950Z 23013KT 7000 -RA BKN007 12/10 Q1010 RMK ATIS L=
EDLW,2012,01,01,10,20,METAR EDLW 011020Z 23013KT 4000 BR BKN008 12/11 Q1010=
EDLW,2012,01,01,10,50,METAR EDLW 011050Z 23015KT 8000 -RA BKN010 12/11 Q1010 RMK ATIS N=
EDLW,2012,01,01,11,20,METAR EDLW 011120Z 24015KT 6000 -RA OVC008 12/11 Q1010=
EDLW,2012,01,01,11,50,METAR EDLW 011150Z 22014KT 9000 BKN008 12/11 Q1010 RMK ATIS P=
EDLW,2012,01,01,12,20,METAR EDLW 011220Z 23012KT 9999 BKN008 12/11 Q1010=
EDLW,2012,01,01,12,50,METAR EDLW 011250Z 23013KT 7000 -DZ OVC008 12/11 Q1009 RMK ATIS R=
EDLW,2012,01,01,13,20,METAR EDLW 011320Z 23013KT 9000 BKN010 12/11 Q1009=
EDLW,2012,01,01,13,50,METAR EDLW 011350Z 22010KT 6000 BKN009 12/11 Q1009 RMK ATIS T=
EDLW,2012,01,01,14,20,METAR COR EDLW 011420Z 21010KT 8000 -RA BKN007 12/11 Q1009=
EDLW,2012,01,01,14,50,METAR EDLW 011450Z 22012KT 4000 -RA BR BKN006 12/11 Q1009 RMK ATIS V=
EDLW,2012,01,01,15,20,METAR EDLW 011520Z 21013KT 7000 BKN007 12/11 Q1009=
EDLW,2012,01,01,15,50,METAR EDLW 011550Z 21012KT 9999 FEW009 BKN018 12/11 Q1008 RMK ATIS X=
EDLW,2012,01,01,16,20,METAR EDLW 011620Z 21012KT 9999 SCT014 BKN021 12/11 Q1008=
EDLW,2012,01,01,16,50,METAR EDLW 011650Z 20011KT 9999 FEW010 BKN021 12/11 Q1008 RMK ATIS Z=
EDLW,2012,01,01,17,20,METAR EDLW 011720Z 20009KT 9999 FEW016 BKN031 12/11 Q1007=
EDLW,2012,01,01,17,50,METAR EDLW 011750Z 20012KT 9999 BKN016 12/10 Q1007 RMK ATIS B=
EDLW,2012,01,01,18,20,METAR EDLW 011820Z 20014KT 9999 SCT025 12/10 Q1007=
EDLW,2012,01,01,18,50,METAR EDLW 011850Z 20017KT 9999 SCT020 12/10 Q1006 RMK ATIS D=
EDLW,2012,01,01,19,20,METAR EDLW 011920Z 21016KT 9999 SCT030 13/10 Q1006=
EDLW,2012,01,01,19,50,METAR EDLW 011950Z 20016KT 9999 SCT035 13/10 Q1005 RMK ATIS F=
EDLW,2012,01,01,20,20,METAR EDLW 012020Z 20016KT 9999 SCT020 13/10 Q1005=
EDLW,2012,01,01,20,50,METAR EDLW 012050Z 20016KT 9999 FEW020 13/10 Q1004 RMK ATIS H=
EDLW,2012,01,01,21,20,METAR EDLW NIL=
EDLW,2012,01,01,21,50,METAR EDLW NIL=
EDLW,2012,01,01,22,20,METAR EDLW NIL=
EDLW,2012,01,01,22,50,METAR EDLW NIL=
EDMA,2012,01,01,00,20,METAR EDMA 010020Z AUTO 24009KT 2100NDV ////// 07/06 Q1015 RMK ATIS IND=
EDMA,2012,01,01,00,50,METAR EDMA 010050Z AUTO 24009KT 2000NDV RA ////// 07/06 Q1016 RMK ATIS JUL=
EDMA,2012,01,01,01,20,METAR EDMA 010120Z AUTO 24009KT 1900NDV ////// 07/06 Q1016 RERA RMK ATIS KIL=
EDMA,2012,01,01,01,50,METAR EDMA 010150Z AUTO 24011KT 2100NDV ////// 07/07 Q1016 REDZ RMK ATIS LIM=
EDMA,2012,01,01,02,20,METAR EDMA 010220Z AUTO 24010KT 2100NDV ////// 07/07 Q1016=
EDMA,2012,01,01,02,50,METAR EDMA 010250Z AUTO 24010KT 2000NDV -DZ ////// 07/07 Q1016 RMK ATIS NOV=
EDMA,2012,01,01,03,20,METAR EDMA 010320Z AUTO 24011KT 2000NDV ////// 08/07 Q1016=
EDMA,2012,01,01,03,50,METAR EDMA 010350Z AUTO 23010KT 2000NDV ////// 08/07 Q1016 REDZ RERA RMK ATIS PAP=
EDMA,2012,01,01,04,20,METAR EDMA 010420Z AUTO 23009KT 2100NDV -DZ ////// 08/07 Q1016=
EDMA,2012,01,01,04,50,METAR EDMA 010450Z AUTO 24009KT 2100NDV ////// 08/07 Q1016 RMK ATIS ROM=
EDMA,2012,01,01,05,20,METAR EDMA 010520Z AUTO 24011KT 2100NDV ////// 08/07 Q1017=
EDMA,2012,01,01,05,50,METAR EDMA 010550Z AUTO 24009KT 2100NDV ////// 08/07 Q1017 RMK ATIS TAN=
EDMA,2012,01,01,06,20,METAR EDMA 010620Z AUTO 24011KT 2100NDV ////// 08/07 Q1017=
EDMA,2012,01,01,06,50,METAR EDMA 010650Z AUTO 23013KT 2100NDV ////// 08/07 Q1017 RMK ATIS VIC=
EDMA,2012,01,01,07,20,METAR EDMA 010720Z AUTO 23014KT 2100NDV ////// 08/07 Q1017=
EDMA,2012,01,01,07,50,METAR EDMA 010750Z AUTO 23010KT 2100NDV ////// 08/07 Q1018 RMK ATIS X-R=
EDMA,2012,01,01,08,20,METAR EDMA 010820Z AUTO 23011KT 2100NDV ////// 09/07 Q1018=
EDMA,2012,01,01,08,50,METAR EDMA 010850Z AUTO 23011KT 2100NDV -DZ ////// 09/07 Q1018 RMK ATIS ZUL=
EDMA,2012,01,01,09,20,METAR EDMA 010920Z AUTO 23010KT 2100NDV ////// 09/07 Q1018=
EDMA,2012,01,01,09,50,METAR EDMA 010950Z AUTO 23011KT 2100NDV ////// 09/07 Q1018 RMK ATIS BRA=
EDMA,2012,01,01,10,20,METAR EDMA 011020Z AUTO 23013KT 2100NDV ////// 10/07 Q1018=
EDMA,2012,01,01,10,50,METAR EDMA 011050Z AUTO 23014KT 2100NDV ////// 10/07 Q1018 RMK ATIS DEL=
EDMA,2012,01,01,11,20,METAR EDMA 011120Z AUTO 23016KT 2100NDV ////// 10/07 Q1018=
EDMA,2012,01,01,11,50,METAR EDMA 011150Z AUTO 24014KT 2100NDV ////// 10/08 Q1018 RMK ATIS FOX=
EDMA,2012,01,01,12,20,METAR EDMA 011220Z AUTO 24012KT 2100NDV ////// 10/08 Q1017=
EDMA,2012,01,01,12,50,METAR EDMA 011250Z AUTO 24013KT 2100NDV ////// 11/08 Q1017 RMK ATIS HOT=
EDMA,2012,01,01,13,20,METAR EDMA 011320Z AUTO 24015KT 2100NDV ////// 11/07 Q1017=
EDMA,2012,01,01,13,50,METAR EDMA 011350Z AUTO 24013KT 2100NDV ////// 11/08 Q1017 RMK ATIS JUL=
EDMA,2012,01,01,14,20,METAR EDMA 011420Z AUTO 24012KT 2100NDV ////// 11/07 Q1017=
EDMA,2012,01,01,14,50,METAR EDMA 011450Z AUTO 22008KT 2100NDV ////// 11/07 Q1017 RMK ATIS LIM=
EDMA,2012,01,01,15,20,METAR EDMA 011520Z AUTO 22009KT 2100NDV ////// 10/07 Q1017=
EDMA,2012,01,01,15,50,METAR EDMA 011550Z AUTO 22007KT 2100NDV ////// 10/07 Q1017 RMK ATIS NOV=
EDMA,2012,01,01,16,20,METAR EDMA 011620Z AUTO 21007KT 2100NDV ////// 10/07 Q1017=
EDMA,2012,01,01,16,50,METAR EDMA 011650Z AUTO 22006KT 2100NDV ////// 09/07 Q1017 RMK ATIS PAP=
EDMA,2012,01,01,17,20,METAR EDMA 011720Z AUTO 21006KT 2100NDV ////// 09/06 Q1017=
EDMA,2012,01,01,17,50,METAR EDMA 011750Z AUTO 20006KT 2100NDV ////// 08/06 Q1017 RMK ATIS ROM=
EDMA,2012,01,01,18,20,METAR EDMA 011820Z AUTO 16006KT 2100NDV ////// 08/06 Q1017=
EDMA,2012,01,01,18,50,METAR EDMA 011850Z AUTO 17006KT 2100NDV ////// 07/06 Q1017 RMK ATIS TAN=
EDMA,2012,01,01,19,20,METAR EDMA 011920Z AUTO 20008KT 2100NDV ////// 08/06 Q1017=
EDMA,2012,01,01,19,50,METAR EDMA 011950Z AUTO 18007KT 2100NDV ////// 08/06 Q1017 RMK ATIS VIC=
EDMA,2012,01,01,20,20,METAR EDMA 012020Z AUTO 16005KT 2100NDV ////// 07/05 Q1016=
EDMA,2012,01,01,20,50,METAR EDMA 012050Z AUTO 16005KT 2100NDV ////// 07/05 Q1016 RMK ATIS X-R=
EDMA,2012,01,01,21,20,METAR EDMA 012120Z AUTO 12004KT 2100NDV ////// 06/05 Q1016=
EDMA,2012,01,01,21,50,METAR EDMA 012150Z AUTO 16004KT 2100NDV ////// 06/05 Q1016 RMK ATIS ZUL=
EDMA,2012,01,01,22,20,METAR EDMA 012220Z AUTO 19006KT 2100NDV ////// 06/05 Q1016=
EDMA,2012,01,01,22,50,METAR EDMA 012250Z AUTO 22006KT 2100NDV ////// 07/05 Q1015 RMK ATIS BRA=
EDMO,2012,01,01,00,20,METAR EDMO NIL=
EDMO,2012,01,01,00,50,METAR EDMO NIL=
EDMO,2012,01,01,01,50,METAR EDMO NIL=
EDMO,2012,01,01,02,50,METAR EDMO NIL=
EDMO,2012,01,01,03,20,METAR EDMO NIL=
EDMO,2012,01,01,03,50,METAR EDMO NIL=
EDMO,2012,01,01,04,50,METAR EDMO NIL=
EDMO,2012,01,01,05,20,METAR EDMO NIL=
EDMO,2012,01,01,05,50,METAR EDMO NIL=
EDMO,2012,01,01,06,50,METAR EDMO NIL=
EDMO,2012,01,01,07,20,METAR EDMO NIL=
EDMO,2012,01,01,07,50,METAR EDMO NIL=
EDMO,2012,01,01,09,20,METAR EDMO NIL=
EDMO,2012,01,01,09,50,METAR EDMO NIL=
EDMO,2012,01,01,10,20,METAR EDMO 011020Z 24014KT 9999 BKN018 BKN060 10/07 Q1018=
EDMO,2012,01,01,10,50,METAR EDMO 011050Z 25014KT 9999 BKN018 BKN060 10/07 Q1018=
EDMO,2012,01,01,11,20,METAR EDMO NIL=
EDMO,2012,01,01,11,50,METAR EDMO NIL=
EDMO,2012,01,01,12,20,METAR EDMO NIL=
EDMO,2012,01,01,12,50,METAR EDMO NIL=
EDMO,2012,01,01,13,50,METAR EDMO NIL=
EDMO,2012,01,01,14,20,METAR EDMO NIL=
EDMO,2012,01,01,14,50,METAR EDMO NIL=
EDMO,2012,01,01,15,20,METAR EDMO NIL=
EDMO,2012,01,01,15,50,METAR EDMO NIL=
EDMO,2012,01,01,16,20,METAR EDMO NIL=
EDMO,2012,01,01,16,50,METAR EDMO NIL=
EDMO,2012,01,01,17,20,METAR EDMO NIL=
EDMO,2012,01,01,17,50,METAR EDMO NIL=
EDMO,2012,01,01,18,50,METAR EDMO NIL=
EDMO,2012,01,01,19,20,METAR EDMO NIL=
EDMO,2012,01,01,19,50,METAR EDMO NIL=
EDMO,2012,01,01,20,20,METAR EDMO NIL=
EDMO,2012,01,01,20,50,METAR EDMO NIL=
EDMO,2012,01,01,21,20,METAR EDMO NIL=
EDMO,2012,01,01,21,50,METAR EDMO NIL=
EDMO,2012,01,01,22,20,METAR EDMO NIL=
EDMO,2012,01,01,22,50,METAR EDMO NIL=
EDNY,2012,01,01,00,09,SPECI EDNY 010009Z AUTO 19004KT 170V230 2500 1400/ R24/P2000N -RA BR OVC012 06/06 Q1018 RERA=
EDNY,2012,01,01,00,20,METAR EDNY 010020Z AUTO 20004KT 170V230 4700 1600/ -RA BR BKN011 06/06 Q1018 RERA=
EDNY,2012,01,01,00,25,SPECI EDNY 010025Z AUTO VRB03KT 3300 0650/ R24/P2000N -RA BR BKN011 06/05 Q1018 RERA=
EDNY,2012,01,01,00,30,SPECI EDNY 010030Z AUTO VRB03KT 1400 0500/ R24/P2000N -RA FG BKN011 05/05 Q1018 RERA=
EDNY,2012,01,01,00,40,SPECI EDNY 010040Z AUTO 05004KT 020V080 1200 0750/ R24/P2000N -RA BR FEW001 BKN012 05/05 Q1018=
EDNY,2012,01,01,00,50,METAR EDNY 010050Z AUTO 06004KT 020V090 1300 0750/ R24/P2000N -RA BR FEW001 BKN012 05/05 Q1018=
EDNY,2012,01,01,01,04,SPECI EDNY 010104Z AUTO 16005KT 2000 1400/ R24/P2000N -RA BR BKN013 06/05 Q1018=
EDNY,2012,01,01,01,20,METAR EDNY 010120Z AUTO 17005KT 2300 -RA BR OVC013 06/05 Q1018=
EDNY,2012,01,01,01,50,METAR EDNY 010150Z AUTO 16005KT 2700 RA BR BKN014 06/05 Q1019=
EDNY,2012,01,01,02,20,METAR EDNY 010220Z AUTO 00000KT 2300 -RA BR BKN015 OVC018 06/05 Q1019 RERA=
EDNY,2012,01,01,02,25,SPECI EDNY 010225Z AUTO VRB02KT 0600 0350/ R24/1900U -RA FG OVC016 05/05 Q1019 RERA=
EDNY,2012,01,01,02,38,SPECI EDNY 010238Z AUTO VRB02KT 4700 -RA BR OVC015 06/05 Q1019 RERA=
EDNY,2012,01,01,02,50,METAR EDNY 010250Z AUTO VRB03KT 5000 -RA OVC015 06/05 Q1019 RERA=
EDNY,2012,01,01,03,20,METAR EDNY 010320Z AUTO VRB02KT 5000 -DZ OVC018 06/05 Q1019=
EDNY,2012,01,01,03,50,METAR EDNY 010350Z AUTO 13006KT 9999 BKN017 BKN021 06/05 Q1019=
EDNY,2012,01,01,04,02,SPECI EDNY 010402Z AUTO VRB02KT 8000 3800/ OVC018 06/05 Q1019=
EDNY,2012,01,01,04,03,SPECI EDNY 010403Z AUTO VRB02KT 8000 2800/ OVC018 06/05 Q1019=
EDNY,2012,01,01,04,06,SPECI EDNY 010406Z AUTO VRB02KT 4900 2000/ BR OVC018 06/05 Q1019=
EDNY,2012,01,01,04,20,METAR EDNY 010420Z AUTO VRB03KT 6000 OVC017 06/05 Q1019=
EDNY,2012,01,01,04,35,SPECI EDNY 010435Z AUTO 13004KT 100V160 9999 FEW013 BKN018 06/05 Q1019=
EDNY,2012,01,01,04,50,METAR EDNY 010450Z AUTO VRB02KT 9999 FEW013 BKN018 06/05 Q1019=
EDNY,2012,01,01,05,00,SPECI EDNY 010500Z AUTO VRB01KT 9999 4300/ BKN019 BKN029 06/05 Q1019=
EDNY,2012,01,01,05,20,METAR EDNY 010520Z AUTO 06003KT 9999 SCT020 BKN025 06/05 Q1019=
EDNY,2012,01,01,05,38,SPECI EDNY 010538Z AUTO VRB02KT 9999 4200/ FEW009 SCT021 OVC026 06/05 Q1019=
EDNY,2012,01,01,05,50,METAR EDNY 010550Z AUTO VRB02KT 9999 3200/ DZ FEW008 BKN020 OVC026 06/05 Q1019=
EDNY,2012,01,01,06,05,SPECI EDNY 010605Z AUTO VRB03KT 9999 3700/ -SHRA FEW007 BKN020 06/05 Q1019=
EDNY,2012,01,01,06,20,METAR EDNY 010620Z AUTO VRB02KT 9999 -SHRA FEW007 BKN020 06/05 Q1019=
EDNY,2012,01,01,06,50,METAR EDNY 010650Z AUTO VRB03KT 9999 SCT018 OVC030 06/05 Q1019=
EDNY,2012,01,01,07,20,METAR EDNY 010720Z AUTO VRB02KT 9999 FEW022 BKN031 06/05 Q1020=
EDNY,2012,01,01,07,50,METAR EDNY 010750Z VRB03KT 9999 FEW021 BKN032 06/05 Q1020 RMK ATIS A=
EDNY,2012,01,01,08,20,METAR EDNY 010820Z VRB03KT 9999 FEW010 BKN021 06/05 Q1020=
EDNY,2012,01,01,08,50,METAR EDNY 010850Z VRB03KT 9999 -SHRA FEW005 SCT010 BKN021 06/05 Q1020 RMK ATIS C=
EDNY,2012,01,01,09,20,METAR EDNY 010920Z 15006KT 9999 FEW010 SCT026 BKN037 07/05 Q1020 RMK ATIS D=
EDNY,2012,01,01,09,50,METAR EDNY 010950Z 14004KT 9999 FEW023 SCT033 BKN044 07/05 Q1020 RMK ATIS E=
EDNY,2012,01,01,10,20,METAR EDNY 011020Z 14008KT 9999 FEW014 SCT036 BKN057 07/05 Q1020=
EDNY,2012,01,01,10,50,METAR EDNY 011050Z VRB02KT 9999 FEW040 BKN049 07/06 Q1020 RMK ATIS G=
EDNY,2012,01,01,11,20,METAR EDNY 011120Z 11004KT 9999 BKN048 08/06 Q1020=
EDNY,2012,01,01,11,50,METAR EDNY 011150Z VRB03KT 9999 BKN047 09/06 Q1020 RMK ATIS I=
EDNY,2012,01,01,12,20,METAR EDNY 011220Z 10003KT 9999 BKN048 09/06 Q1019=
EDNY,2012,01,01,12,50,METAR EDNY 011250Z 10004KT 070V140 9999 FEW039 BKN049 09/06 Q1019 RMK ATIS K=
EDNY,2012,01,01,13,20,METAR EDNY 011320Z VRB02KT 9999 SCT042 BKN049 OVC058 09/06 Q1019=
EDNY,2012,01,01,13,50,METAR EDNY 011350Z 14005KT 9999 BKN036 09/06 Q1019 RMK ATIS M=
EDNY,2012,01,01,14,20,METAR EDNY 011420Z 12004KT 100V160 9999 FEW041 BKN053 09/06 Q1019=
EDNY,2012,01,01,15,20,METAR EDNY 011520Z 07003KT 9999 SCT049 OVC059 08/06 Q1018=
EDNY,2012,01,01,16,20,METAR EDNY 011620Z VRB02KT 9999 SCT049 BKN064 07/06 Q1018=
EDNY,2012,01,01,16,50,METAR EDNY 011650Z VRB03KT 9999 FEW051 07/05 Q1019 RMK ATIS Q=
EDNY,2012,01,01,17,20,METAR EDNY 011720Z VRB01KT 9999 BKN047 BKN061 06/05 Q1019=
EDNY,2012,01,01,18,20,METAR EDNY 011820Z VRB01KT 8000 BKN054 05/04 Q1019=
EDNY,2012,01,01,18,50,METAR EDNY 011850Z 15005KT 9999 OVC051 07/05 Q1018 RMK ATIS T=
EDNY,2012,01,01,19,20,METAR EDNY 011920Z VRB03KT 9999 OVC061 06/05 Q1018=
EDNY,2012,01,01,19,50,METAR EDNY 011950Z 12004KT 9999 SCT067 07/04 Q1018 RMK ATIS V=
EDNY,2012,01,01,20,20,METAR EDNY 012020Z VRB03KT CAVOK 06/04 Q1018=
EDNY,2012,01,01,20,50,METAR EDNY 012050Z AUTO VRB02KT 9999 05/03 Q1018=
EDNY,2012,01,01,21,20,METAR EDNY 012120Z AUTO 00000KT 2500 0350/ R24/1200VP2000D FG 04/03 Q1017=
EDNY,2012,01,01,21,50,METAR EDNY 012150Z AUTO VRB01KT 1000 0450/ R24/2000D FG 03/02 Q1017=
EDNY,2012,01,01,22,20,METAR EDNY 012220Z AUTO 00000KT 2300 0600/ R24/P2000U BR 03/02 Q1017=
EDNY,2012,01,01,22,50,METAR EDNY 012250Z AUTO VRB03KT 3200 1200/ R24/P2000N BR 02/02 Q1016=
EDOP,2012,01,01,00,00,METAR EDOP NIL=
EDOP,2012,01,01,01,00,METAR EDOP NIL=
EDOP,2012,01,01,02,00,METAR EDOP NIL=
EDOP,2012,01,01,03,00,METAR EDOP NIL=
EDOP,2012,01,01,04,00,METAR EDOP NIL=
EDOP,2012,01,01,05,00,METAR EDOP NIL=
EDOP,2012,01,01,06,00,METAR EDOP NIL=
EDOP,2012,01,01,07,00,METAR EDOP NIL=
EDOP,2012,01,01,08,00,METAR EDOP NIL=
EDOP,2012,01,01,09,00,METAR EDOP NIL=
EDOP,2012,01,01,10,00,METAR EDOP NIL=
EDOP,2012,01,01,11,00,METAR EDOP NIL=
EDOP,2012,01,01,12,00,METAR EDOP NIL=
EDOP,2012,01,01,13,00,METAR EDOP NIL=
EDOP,2012,01,01,14,00,METAR EDOP NIL=
EDOP,2012,01,01,15,00,METAR EDOP NIL=
EDOP,2012,01,01,16,00,METAR EDOP NIL=
EDOP,2012,01,01,17,00,METAR EDOP NIL=
EDOP,2012,01,01,18,00,METAR EDOP NIL=
EDOP,2012,01,01,19,00,METAR EDOP NIL=
EDOP,2012,01,01,20,00,METAR EDOP NIL=
EDOP,2012,01,01,21,00,METAR EDOP NIL=
EDOP,2012,01,01,22,00,METAR EDOP NIL=
EDOP,2012,01,01,23,00,METAR EDOP NIL=
EDQD,2012,01,01,00,20,METAR EDQD NIL=
EDQD,2012,01,01,00,50,METAR EDQD NIL=
EDQD,2012,01,01,01,50,METAR EDQD NIL=
EDQD,2012,01,01,02,50,METAR EDQD NIL=
EDQD,2012,01,01,03,20,METAR EDQD NIL=
EDQD,2012,01,01,03,50,METAR EDQD NIL=
EDQD,2012,01,01,04,50,METAR EDQD NIL=
EDQD,2012,01,01,05,20,METAR EDQD NIL=
EDQD,2012,01,01,05,50,METAR EDQD NIL=
EDQD,2012,01,01,06,50,METAR EDQD NIL=
EDQD,2012,01,01,07,20,METAR EDQD NIL=
EDQD,2012,01,01,07,50,METAR EDQD NIL=
EDQD,2012,01,01,09,20,METAR EDQD NIL=
EDQD,2012,01,01,09,50,METAR EDQD NIL=
EDQD,2012,01,01,10,20,METAR EDQD NIL=
EDQD,2012,01,01,10,50,METAR EDQD NIL=
EDQD,2012,01,01,11,20,METAR EDQD NIL=
EDQD,2012,01,01,11,50,METAR EDQD NIL=
EDQD,2012,01,01,12,20,METAR EDQD NIL=
EDQD,2012,01,01,12,50,METAR EDQD NIL=
EDQD,2012,01,01,13,50,METAR EDQD NIL=
EDQD,2012,01,01,14,20,METAR EDQD NIL=
EDQD,2012,01,01,14,50,METAR EDQD NIL=
EDQD,2012,01,01,15,20,METAR EDQD NIL=
EDQD,2012,01,01,15,50,METAR EDQD NIL=
EDQD,2012,01,01,16,20,METAR EDQD NIL=
EDQD,2012,01,01,16,50,METAR EDQD NIL=
EDQD,2012,01,01,17,20,METAR EDQD NIL=
EDQD,2012,01,01,17,50,METAR EDQD NIL=
EDQD,2012,01,01,18,50,METAR EDQD NIL=
EDQD,2012,01,01,19,20,METAR EDQD NIL=
EDQD,2012,01,01,19,50,METAR EDQD NIL=
EDQD,2012,01,01,20,20,METAR EDQD NIL=
EDQD,2012,01,01,20,50,METAR EDQD NIL=
EDQD,2012,01,01,21,20,METAR EDQD NIL=
EDQD,2012,01,01,21,50,METAR EDQD NIL=
EDQD,2012,01,01,22,20,METAR EDQD NIL=
EDQD,2012,01,01,22,50,METAR EDQD NIL=
EDQM,2012,01,01,00,20,METAR EDQM 010020Z AUTO 22006KT 9999NDV BKN004/// OVC006/// 02/01 Q1012=
EDQM,2012,01,01,00,50,METAR EDQM 010050Z AUTO 22008KT 2100NDV +DZ OVC003/// 02/01 Q1012=
EDQM,2012,01,01,01,20,METAR EDQM 010120Z AUTO 22007KT 7000NDV BR BKN003/// BKN005/// 02/01 Q1012=
EDQM,2012,01,01,01,50,METAR EDQM 010150Z AUTO 21008KT 4800NDV BR SCT003/// BKN027/// 02/02 Q1012=
EDQM,2012,01,01,02,20,METAR EDQM 010220Z AUTO 21007KT 2900NDV BR SCT006/// BKN010/// BKN019/// 03/02 Q1013=
EDQM,2012,01,01,02,50,METAR EDQM 010250Z AUTO 21008KT 5000NDV UP BKN001/// OVC006/// 03/02 Q1012=
EDQM,2012,01,01,03,20,METAR EDQM 010320Z AUTO 21007KT 3000NDV +DZ SCT001/// OVC004/// 03/02 Q1013=
EDQM,2012,01,01,03,50,METAR EDQM 010350Z AUTO 22007KT 3600NDV DZ VV006 03/02 Q1013=
EDQM,2012,01,01,04,20,METAR EDQM 010420Z AUTO 19004KT 160V230 3100NDV UP BKN001/// BKN003/// 03/02 Q1013=
EDQM,2012,01,01,04,50,METAR EDQM 010450Z AUTO 21007KT 2700NDV UP OVC001/// 03/03 Q1013=
EDQM,2012,01,01,05,20,METAR EDQM 010520Z AUTO 21007KT 160V240 2900NDV UP OVC001/// 04/03 Q1013=
EDQM,2012,01,01,05,50,METAR EDQM 010550Z AUTO 22009KT 2300NDV -RA BKN002/// OVC004/// 04/03 Q1013=
EDQM,2012,01,01,06,20,METAR EDQM 010620Z AUTO 21008KT 6000NDV -RA OVC004/// 05/04 Q1013=
EDQM,2012,01,01,06,50,METAR EDQM 010650Z AUTO 20006KT 9999NDV SCT002/// BKN008/// BKN013/// 05/04 Q1013=
EDQM,2012,01,01,07,20,METAR EDQM 010720Z AUTO 22006KT 190V250 9999NDV SCT003/// BKN006/// OVC010/// 05/04 Q1014=
EDQM,2012,01,01,07,50,METAR EDQM 010750Z AUTO 22007KT 0450NDV R27/0650V1100N FG OVC001/// 05/04 Q1014=
EDQM,2012,01,01,08,20,METAR EDQM 010820Z AUTO 23008KT 3200NDV OVC001/// 05/04 Q1014=
EDQM,2012,01,01,08,50,METAR EDQM 010850Z AUTO 22011KT 2100NDV -RA OVC002/// 06/05 Q1014=
EDQM,2012,01,01,09,20,METAR EDQM 010920Z AUTO 23010KT 3300NDV UP BKN003/// OVC005/// 06/05 Q1014=
EDQM,2012,01,01,09,50,METAR EDQM 010950Z AUTO 22012KT 1400NDV R27/P2000D BR BKN002/// OVC004/// 06/05 Q1014=
EDQM,2012,01,01,10,20,METAR EDQM 011020Z AUTO 22012KT 1400NDV R27/1200VP2000N DZ OVC001/// 06/06 Q1014=
EDQM,2012,01,01,10,50,METAR EDQM 011050Z AUTO 22012KT 3200NDV -DZ OVC003/// 07/06 Q1013=
EDQM,2012,01,01,11,20,METAR EDQM 011120Z AUTO 23012KT 7000NDV DZ OVC003/// 08/07 Q1013=
EDQM,2012,01,01,11,50,METAR EDQM 011150Z AUTO 23017KT 2000NDV +DZ VV012 08/07 Q1013 REDZ=
EDQM,2012,01,01,12,20,METAR EDQM 011220Z AUTO 22014KT 2500NDV DZ BKN005/// BKN009/// OVC012/// 08/07 Q1013=
EDQM,2012,01,01,12,50,METAR EDQM 011250Z AUTO 23015KT 4800NDV DZ OVC005/// 08/07 Q1013=
EDQM,2012,01,01,13,20,METAR EDQM 011320Z AUTO 24013KT 4200NDV -DZ OVC005/// 08/07 Q1013=
EDQM,2012,01,01,13,50,METAR EDQM 011350Z AUTO 23011KT 7000NDV BR BKN005/// OVC008/// 09/07 Q1013=
EDQM,2012,01,01,14,20,METAR EDQM 011420Z AUTO 21009KT 5000NDV UP BKN006/// OVC008/// 09/07 Q1014=
EDQM,2012,01,01,14,50,METAR EDQM 011450Z AUTO 22009KT 4000NDV +DZ OVC005/// 09/07 Q1014=
EDQM,2012,01,01,15,20,METAR EDQM 011520Z AUTO 21009KT 3500NDV -RA BKN005/// OVC008/// 08/07 Q1014=
EDQM,2012,01,01,15,50,METAR EDQM 011550Z AUTO 21007KT 3100NDV -RA BKN005/// OVC009/// 09/07 Q1014=
EDQM,2012,01,01,16,20,METAR EDQM 011620Z AUTO 22009KT 2200NDV +DZ VV007 09/07 Q1014=
EDQM,2012,01,01,16,50,METAR EDQM 011650Z AUTO 22011KT 2700NDV DZ SCT007/// BKN010/// OVC013/// 09/07 Q1014=
EDQM,2012,01,01,17,20,METAR EDQM 011720Z AUTO 22010KT 9999NDV UP BKN006/// BKN009/// OVC015/// 09/07 Q1014=
EDQM,2012,01,01,17,50,METAR EDQM 011750Z AUTO 22012KT 9999NDV OVC006/// 09/07 Q1014 REDZ REUP=
EDQM,2012,01,01,18,20,METAR EDQM 011820Z AUTO 21011KT 3100NDV DZ VV005 08/07 Q1014=
EDQM,2012,01,01,18,50,METAR EDQM 011850Z AUTO 21010KT 4100NDV -RA OVC006/// 09/07 Q1014=
EDQM,2012,01,01,19,20,METAR EDQM 011920Z AUTO 21013KT 6000NDV DZ OVC005/// 09/08 Q1013=
EDQM,2012,01,01,19,50,METAR EDQM 011950Z AUTO 22014KT 2700NDV +DZ BKN005/// OVC008/// 09/08 Q1013=
EDQM,2012,01,01,20,20,METAR EDQM 012020Z AUTO 22014KT 2900NDV -RA BKN006/// OVC009/// 09/07 Q1013 REDZ=
EDQM,2012,01,01,20,50,METAR EDQM 012050Z AUTO 22019KT 3200NDV DZ BKN005/// BKN012/// OVC017/// 09/07 Q1012=
EDQM,2012,01,01,21,20,METAR EDQM 012120Z AUTO 21018KT 3300NDV DZ VV005 09/07 Q1012=
EDQM,2012,01,01,21,50,METAR EDQM 012150Z AUTO 20013KT 2500NDV RA VV003 08/07 Q1013 REDZ=
EDQM,2012,01,01,22,20,METAR EDQM 012220Z AUTO 21012KT 9999NDV BKN005/// 09/08 Q1012=
EDQM,2012,01,01,22,50,METAR EDQM 012250Z AUTO 21014KT 9999NDV BKN007/// OVC010/// 09/07 Q1012=
EDRZ,2012,01,01,00,00,METAR EDRZ NIL=
EDRZ,2012,01,01,01,00,METAR EDRZ NIL=
EDRZ,2012,01,01,02,00,METAR EDRZ NIL=
EDRZ,2012,01,01,03,00,METAR EDRZ NIL=
EDRZ,2012,01,01,04,00,METAR EDRZ NIL=
EDRZ,2012,01,01,05,00,METAR EDRZ NIL=
EDRZ,2012,01,01,06,00,METAR EDRZ NIL=
EDRZ,2012,01,01,07,00,METAR EDRZ NIL=
EDRZ,2012,01,01,07,50,METAR EDRZ 010750Z 23011KT 7000 OVC003 10/09 Q1016=
EDRZ,2012,01,01,08,20,METAR EDRZ 010820Z 23011KT 6000 -RA BKN003 10/09 Q1016=
EDRZ,2012,01,01,08,50,METAR EDRZ 010850Z 22012KT 4000 -RA BR OVC002 10/10 Q1016=
EDRZ,2012,01,01,09,20,METAR EDRZ 010920Z 22013KT 5000 -RA BR OVC003 10/10 Q1016=
EDRZ,2012,01,01,09,50,METAR EDRZ 010950Z 23013KT 9000 OVC004 10/10 Q1016=
EDRZ,2012,01,01,10,20,METAR EDRZ 011020Z 23013KT 6000 OVC005 11/10 Q1016=
EDRZ,2012,01,01,10,50,METAR EDRZ 011050Z 23011KT 8000 -RA BKN005 11/10 Q1016=
EDRZ,2012,01,01,11,20,METAR EDRZ 011120Z 23012KT 4000 -RA BR BKN005 10/10 Q1016=
EDRZ,2012,01,01,11,50,METAR EDRZ 011150Z 23010KT 7000 OVC006 11/10 Q1016=
EDRZ,2012,01,01,12,20,METAR EDRZ 011220Z 22013KT 7000 BKN004 BKN010 11/10 Q1015=
EDRZ,2012,01,01,12,50,METAR EDRZ 011250Z 21013KT 7000 -RA BKN006 11/10 Q1015=
EDRZ,2012,01,01,13,20,METAR EDRZ 011320Z 21013KT 3000 -RA BR OVC006 11/10 Q1015=
EDRZ,2012,01,01,13,50,METAR EDRZ 011350Z 21011KT 3000 -DZ BR OVC004 11/10 Q1014=
EDRZ,2012,01,01,14,20,METAR EDRZ 011420Z 20011KT 150V220 3000 -DZ BR OVC003 11/10 Q1015=
EDRZ,2012,01,01,14,50,METAR EDRZ 011450Z 21011KT 2600 -DZ BR OVC003 11/10 Q1014=
EDRZ,2012,01,01,15,20,METAR EDRZ 011520Z 21014KT 3000 -DZ BR BKN004 BKN009 11/10 Q1014=
EDRZ,2012,01,01,15,50,METAR EDRZ 011550Z 20012KT 4000 -RA BR OVC005 11/10 Q1015=
EDRZ,2012,01,01,16,20,METAR EDRZ 011620Z 20012KT 9000 -RA OVC005 11/10 Q1014=
EDRZ,2012,01,01,16,50,METAR EDRZ 011650Z 20011KT 9999 SCT005 BKN012 11/10 Q1014=
EDRZ,2012,01,01,17,20,METAR EDRZ 011720Z 20013KT 9999 FEW007 BKN012 11/10 Q1014=
EDRZ,2012,01,01,18,00,METAR EDRZ NIL=
EDRZ,2012,01,01,19,00,METAR EDRZ NIL=
EDRZ,2012,01,01,20,00,METAR EDRZ NIL=
EDRZ,2012,01,01,21,00,METAR EDRZ NIL=
EDRZ,2012,01,01,22,00,METAR EDRZ NIL=
EDRZ,2012,01,01,23,00,METAR EDRZ NIL=
EDTD,2012,01,01,00,20,METAR EDTD NIL=
EDTD,2012,01,01,00,50,METAR EDTD NIL=
EDTD,2012,01,01,01,50,METAR EDTD NIL=
EDTD,2012,01,01,02,50,METAR EDTD NIL=
EDTD,2012,01,01,03,20,METAR EDTD NIL=
EDTD,2012,01,01,03,50,METAR EDTD NIL=
EDTD,2012,01,01,04,50,METAR EDTD NIL=
EDTD,2012,01,01,05,20,METAR EDTD NIL=
EDTD,2012,01,01,05,50,METAR EDTD NIL=
EDTD,2012,01,01,06,50,METAR EDTD NIL=
EDTD,2012,01,01,07,20,METAR EDTD NIL=
EDTD,2012,01,01,07,50,METAR EDTD NIL=
EDTD,2012,01,01,09,20,METAR EDTD NIL=
EDTD,2012,01,01,09,50,METAR EDTD NIL=
EDTD,2012,01,01,10,20,METAR EDTD NIL=
EDTD,2012,01,01,10,50,METAR EDTD NIL=
EDTD,2012,01,01,11,20,METAR EDTD NIL=
EDTD,2012,01,01,11,50,METAR EDTD NIL=
EDTD,2012,01,01,12,20,METAR EDTD NIL=
EDTD,2012,01,01,12,50,METAR EDTD NIL=
EDTD,2012,01,01,13,50,METAR EDTD NIL=
EDTD,2012,01,01,14,20,METAR EDTD NIL=
EDTD,2012,01,01,14,50,METAR EDTD NIL=
EDTD,2012,01,01,15,20,METAR EDTD NIL=
EDTD,2012,01,01,15,50,METAR EDTD NIL=
EDTD,2012,01,01,16,20,METAR EDTD NIL=
EDTD,2012,01,01,16,50,METAR EDTD NIL=
EDTD,2012,01,01,17,20,METAR EDTD NIL=
EDTD,2012,01,01,17,50,METAR EDTD NIL=
EDTD,2012,01,01,18,50,METAR EDTD NIL=
EDTD,2012,01,01,19,20,METAR EDTD NIL=
EDTD,2012,01,01,19,50,METAR EDTD NIL=
EDTD,2012,01,01,20,20,METAR EDTD NIL=
EDTD,2012,01,01,20,50,METAR EDTD NIL=
EDTD,2012,01,01,21,20,METAR EDTD NIL=
EDTD,2012,01,01,21,50,METAR EDTD NIL=
EDTD,2012,01,01,22,20,METAR EDTD NIL=
EDTD,2012,01,01,22,50,METAR EDTD NIL=
EDTL,2012,01,01,00,20,METAR EDTL 010020Z NIL=
EDTL,2012,01,01,00,50,METAR EDTL 010050Z NIL=
EDTL,2012,01,01,01,20,METAR EDTL 010120Z NIL=
EDTL,2012,01,01,01,50,METAR EDTL 010150Z NIL=
EDTL,2012,01,01,02,20,METAR EDTL 010220Z NIL=
EDTL,2012,01,01,02,50,METAR EDTL 010250Z NIL=
EDTL,2012,01,01,03,20,METAR EDTL 010320Z NIL=
EDTL,2012,01,01,03,50,METAR EDTL 010350Z NIL=
EDTL,2012,01,01,04,20,METAR EDTL 010420Z NIL=
EDTL,2012,01,01,04,50,METAR EDTL 010450Z NIL=
EDTL,2012,01,01,05,20,METAR EDTL 010520Z NIL=
EDTL,2012,01,01,05,50,METAR EDTL 010550Z NIL=
EDTL,2012,01,01,06,20,METAR EDTL 010620Z NIL=
EDTL,2012,01,01,06,50,METAR EDTL 010650Z NIL=
EDTL,2012,01,01,07,20,METAR EDTL 010720Z NIL=
EDTL,2012,01,01,07,50,METAR EDTL 010750Z NIL=
EDTL,2012,01,01,08,20,METAR EDTL 010820Z NIL=
EDTL,2012,01,01,08,50,METAR EDTL 010850Z NIL=
EDTL,2012,01,01,09,20,METAR EDTL 010920Z NIL=
EDTL,2012,01,01,09,50,METAR EDTL 010950Z NIL=
EDTL,2012,01,01,10,20,METAR EDTL 011020Z NIL=
EDTL,2012,01,01,10,50,METAR EDTL 011050Z NIL=
EDTL,2012,01,01,11,20,METAR EDTL 011120Z NIL=
EDTL,2012,01,01,11,50,METAR EDTL 011150Z NIL=
EDTL,2012,01,01,12,20,METAR EDTL 011220Z NIL=
EDTL,2012,01,01,12,50,METAR EDTL 011250Z NIL=
EDTL,2012,01,01,13,20,METAR EDTL 011320Z NIL=
EDTL,2012,01,01,13,50,METAR EDTL 011350Z NIL=
EDTL,2012,01,01,14,20,METAR EDTL 011420Z NIL=
EDTL,2012,01,01,14,50,METAR EDTL 011450Z NIL=
EDTL,2012,01,01,15,20,METAR EDTL 011520Z NIL=
EDTL,2012,01,01,15,50,METAR EDTL 011550Z NIL=
EDTL,2012,01,01,16,20,METAR EDTL 011620Z NIL=
EDTL,2012,01,01,16,50,METAR EDTL 011650Z NIL=
EDTL,2012,01,01,17,20,METAR EDTL 011720Z NIL=
EDTL,2012,01,01,17,50,METAR EDTL 011750Z NIL=
EDTL,2012,01,01,18,20,METAR EDTL 011820Z NIL=
EDTL,2012,01,01,18,50,METAR EDTL 011850Z NIL=
EDTL,2012,01,01,19,20,METAR EDTL 011920Z NIL=
EDTL,2012,01,01,19,50,METAR EDTL 011950Z NIL=
EDTL,2012,01,01,20,20,METAR EDTL 012020Z NIL=
EDTL,2012,01,01,20,50,METAR EDTL 012050Z NIL=
EDTL,2012,01,01,21,20,METAR EDTL 012120Z NIL=
EDTL,2012,01,01,21,50,METAR EDTL 012150Z NIL=
EDTL,2012,01,01,22,20,METAR EDTL 012220Z NIL=
EDTL,2012,01,01,22,50,METAR EDTL 012250Z NIL=
EDTZ,2012,01,01,00,20,METAR EDTZ NIL=
EDTZ,2012,01,01,00,50,METAR EDTZ NIL=
EDTZ,2012,01,01,01,50,METAR EDTZ NIL=
EDTZ,2012,01,01,02,50,METAR EDTZ NIL=
EDTZ,2012,01,01,03,20,METAR EDTZ NIL=
EDTZ,2012,01,01,03,50,METAR EDTZ NIL=
EDTZ,2012,01,01,04,50,METAR EDTZ NIL=
EDTZ,2012,01,01,05,20,METAR EDTZ NIL=
EDTZ,2012,01,01,05,50,METAR EDTZ NIL=
EDTZ,2012,01,01,06,50,METAR EDTZ NIL=
EDTZ,2012,01,01,07,20,METAR EDTZ NIL=
EDTZ,2012,01,01,07,50,METAR EDTZ NIL=
EDTZ,2012,01,01,09,20,METAR EDTZ NIL=
EDTZ,2012,01,01,09,50,METAR EDTZ NIL=
EDTZ,2012,01,01,10,20,METAR EDTZ NIL=
EDTZ,2012,01,01,10,50,METAR EDTZ NIL=
EDTZ,2012,01,01,11,20,METAR EDTZ NIL=
EDTZ,2012,01,01,11,50,METAR EDTZ NIL=
EDTZ,2012,01,01,12,20,METAR EDTZ NIL=
EDTZ,2012,01,01,12,50,METAR EDTZ NIL=
EDTZ,2012,01,01,13,50,METAR EDTZ NIL=
EDTZ,2012,01,01,14,20,METAR EDTZ NIL=
EDTZ,2012,01,01,14,50,METAR EDTZ NIL=
EDTZ,2012,01,01,15,20,METAR EDTZ NIL=
EDTZ,2012,01,01,15,50,METAR EDTZ NIL=
EDTZ,2012,01,01,16,20,METAR EDTZ NIL=
EDTZ,2012,01,01,16,50,METAR EDTZ NIL=
EDTZ,2012,01,01,17,20,METAR EDTZ NIL=
EDTZ,2012,01,01,17,50,METAR EDTZ NIL=
EDTZ,2012,01,01,18,50,METAR EDTZ NIL=
EDTZ,2012,01,01,19,20,METAR EDTZ NIL=
EDTZ,2012,01,01,19,50,METAR EDTZ NIL=
EDTZ,2012,01,01,20,20,METAR EDTZ NIL=
EDTZ,2012,01,01,20,50,METAR EDTZ NIL=
EDTZ,2012,01,01,21,20,METAR EDTZ NIL=
EDTZ,2012,01,01,21,50,METAR EDTZ NIL=
EDTZ,2012,01,01,22,20,METAR EDTZ NIL=
EDTZ,2012,01,01,22,50,METAR EDTZ NIL=
EDVE,2012,01,01,00,20,METAR EDVE NIL=
EDVE,2012,01,01,00,50,METAR EDVE NIL=
EDVE,2012,01,01,01,50,METAR EDVE NIL=
EDVE,2012,01,01,02,50,METAR EDVE NIL=
EDVE,2012,01,01,03,20,METAR EDVE NIL=
EDVE,2012,01,01,03,50,METAR EDVE NIL=
EDVE,2012,01,01,04,50,METAR EDVE NIL=
EDVE,2012,01,01,05,20,METAR EDVE NIL=
EDVE,2012,01,01,05,50,METAR EDVE NIL=
EDVE,2012,01,01,06,50,METAR EDVE NIL=
EDVE,2012,01,01,07,20,METAR EDVE NIL=
EDVE,2012,01,01,07,50,METAR EDVE NIL=
EDVE,2012,01,01,09,20,METAR EDVE NIL=
EDVE,2012,01,01,09,50,METAR EDVE NIL=
EDVE,2012,01,01,10,20,METAR EDVE NIL=
EDVE,2012,01,01,10,50,METAR EDVE NIL=
EDVE,2012,01,01,11,20,METAR EDVE NIL=
EDVE,2012,01,01,11,50,METAR EDVE NIL=
EDVE,2012,01,01,12,20,METAR EDVE NIL=
EDVE,2012,01,01,12,50,METAR EDVE NIL=
EDVE,2012,01,01,13,50,METAR EDVE NIL=
EDVE,2012,01,01,14,20,METAR EDVE NIL=
EDVE,2012,01,01,14,50,METAR EDVE NIL=
EDVE,2012,01,01,15,20,METAR EDVE NIL=
EDVE,2012,01,01,15,50,METAR EDVE NIL=
EDVE,2012,01,01,16,20,METAR EDVE NIL=
EDVE,2012,01,01,16,50,METAR EDVE NIL=
EDVE,2012,01,01,17,20,METAR EDVE NIL=
EDVE,2012,01,01,17,50,METAR EDVE NIL=
EDVE,2012,01,01,18,50,METAR EDVE NIL=
EDVE,2012,01,01,19,20,METAR EDVE NIL=
EDVE,2012,01,01,19,50,METAR EDVE NIL=
EDVE,2012,01,01,20,20,METAR EDVE NIL=
EDVE,2012,01,01,20,50,METAR EDVE NIL=
EDVE,2012,01,01,21,20,METAR EDVE NIL=
EDVE,2012,01,01,21,50,METAR EDVE NIL=
EDVE,2012,01,01,22,20,METAR EDVE NIL=
EDVE,2012,01,01,22,50,METAR EDVE NIL=
EDVK,2012,01,01,00,20,METAR EDVK 010020Z NIL=
EDVK,2012,01,01,00,50,METAR EDVK 010050Z NIL=
EDVK,2012,01,01,01,20,METAR EDVK 010120Z NIL=
EDVK,2012,01,01,01,50,METAR EDVK 010150Z NIL=
EDVK,2012,01,01,02,20,METAR EDVK 010220Z NIL=
EDVK,2012,01,01,02,50,METAR EDVK 010250Z NIL=
EDVK,2012,01,01,03,20,METAR EDVK 010320Z NIL=
EDVK,2012,01,01,03,50,METAR EDVK 010350Z NIL=
EDVK,2012,01,01,04,20,METAR EDVK 010420Z NIL=
EDVK,2012,01,01,04,50,METAR EDVK 010450Z NIL=
EDVK,2012,01,01,05,20,METAR EDVK 010520Z NIL=
EDVK,2012,01,01,05,50,METAR EDVK 010550Z NIL=
EDVK,2012,01,01,06,20,METAR EDVK 010620Z NIL=
EDVK,2012,01,01,06,50,METAR EDVK 010650Z NIL=
EDVK,2012,01,01,07,20,METAR EDVK 010720Z NIL=
EDVK,2012,01,01,07,50,METAR EDVK 010750Z NIL=
EDVK,2012,01,01,08,20,METAR EDVK 010820Z NIL=
EDVK,2012,01,01,08,50,METAR EDVK 010850Z NIL=
EDVK,2012,01,01,09,20,METAR EDVK 010920Z NIL=
EDVK,2012,01,01,09,50,METAR EDVK 010950Z NIL=
EDVK,2012,01,01,10,20,METAR EDVK 011020Z NIL=
EDVK,2012,01,01,10,50,METAR EDVK 011050Z NIL=
EDVK,2012,01,01,11,20,METAR EDVK 011120Z NIL=
EDVK,2012,01,01,11,50,METAR EDVK 011150Z NIL=
EDVK,2012,01,01,12,20,METAR EDVK 011220Z NIL=
EDVK,2012,01,01,12,50,METAR EDVK 011250Z NIL=
EDVK,2012,01,01,13,20,METAR EDVK 011320Z NIL=
EDVK,2012,01,01,13,50,METAR EDVK 011350Z NIL=
EDVK,2012,01,01,14,20,METAR EDVK 011420Z NIL=
EDVK,2012,01,01,14,50,METAR EDVK 011450Z NIL=
EDVK,2012,01,01,15,20,METAR EDVK 011520Z NIL=
EDVK,2012,01,01,15,50,METAR EDVK 011550Z NIL=
EDVK,2012,01,01,16,20,METAR EDVK 011620Z NIL=
EDVK,2012,01,01,16,50,METAR EDVK 011650Z NIL=
EDVK,2012,01,01,17,20,METAR EDVK 011720Z NIL=
EDVK,2012,01,01,17,50,METAR EDVK 011750Z NIL=
EDVK,2012,01,01,18,20,METAR EDVK 011820Z NIL=
EDVK,2012,01,01,18,50,METAR EDVK 011850Z NIL=
EDVK,2012,01,01,19,20,METAR EDVK 011920Z NIL=
EDVK,2012,01,01,19,50,METAR EDVK 011950Z NIL=
EDVK,2012,01,01,20,20,METAR EDVK 012020Z NIL=
EDVK,2012,01,01,20,50,METAR EDVK 012050Z NIL=
EDVK,2012,01,01,21,20,METAR EDVK 012120Z NIL=
EDVK,2012,01,01,21,50,METAR EDVK 012150Z NIL=
EDVK,2012,01,01,22,20,METAR EDVK 012220Z NIL=
EDVK,2012,01,01,22,50,METAR EDVK 012250Z NIL=
EDXW,2012,01,01,00,20,METAR EDXW 010020Z AUTO 19010KT 0250NDV R14/0800V1200 FG VV001 06/05 Q1004=
EDXW,2012,01,01,00,50,METAR EDXW 010050Z AUTO 18009KT 0200NDV R14/0800N FG VV001 06/05 Q1004 RMK ATIS BRA=
EDXW,2012,01,01,01,20,METAR EDXW 010120Z AUTO 18011KT 0400NDV R14/1000V1600U UP VV001 06/06 Q1003=
EDXW,2012,01,01,01,50,METAR EDXW 010150Z AUTO 19014KT 1300NDV R14/P2000N -RA OVC001/// 07/06 Q1003 RMK ATIS DEL=
EDXW,2012,01,01,02,20,METAR EDXW 010220Z AUTO 20016KT 3500NDV -RA OVC002/// 07/07 Q1003=
EDXW,2012,01,01,02,50,METAR EDXW 010250Z AUTO 20015KT 2200NDV BR OVC001/// 07/07 Q1002 REDZ RMK ATIS FOX=
EDXW,2012,01,01,03,20,METAR EDXW 010320Z AUTO 20015KT 0550NDV R14/1700N FG VV001 07/07 Q1002=
EDXW,2012,01,01,03,50,METAR EDXW 010350Z AUTO 21017KT 1000NDV R14/P2000N FG OVC001/// 07/07 Q1002 RMK ATIS HOT=
EDXW,2012,01,01,04,20,METAR EDXW 010420Z AUTO 21015KT 0800NDV R14/P2000N -RA OVC001/// 07/07 Q1001=
EDXW,2012,01,01,04,50,METAR EDXW 010450Z AUTO 21018KT 0800NDV R14/P2000N -DZ OVC001/// 07/07 Q1001 RMK ATIS JUL=
EDXW,2012,01,01,05,20,METAR EDXW 010520Z AUTO 22016KT 0800NDV R14/P2000N FG OVC001/// 07/07 Q1001=
EDXW,2012,01,01,05,50,METAR EDXW 010550Z AUTO 22017KT 1500NDV OVC001/// 07/07 Q1001 RMK ATIS LIM=
EDXW,2012,01,01,06,20,METAR EDXW 010620Z AUTO 22016KT 1200NDV R14/P2000N OVC001/// 08/07 Q1001=
EDXW,2012,01,01,06,50,METAR EDXW 010650Z AUTO 22014KT 1900NDV BR OVC001/// 08/07 Q1001 RMK ATIS NOV=
EDXW,2012,01,01,07,20,METAR EDXW 010720Z AUTO 23015KT 1300NDV R14/P2000N BR OVC001/// 08/07 Q1002=
EDXW,2012,01,01,07,50,METAR EDXW 010750Z AUTO 23014KT 1900NDV BR OVC001/// 08/07 Q1002 REUP REDZ RMK ATIS PAP=
EDXW,2012,01,01,08,20,METAR EDXW 010820Z AUTO 23013KT 1900NDV BR OVC001/// 08/07 Q1002=
EDXW,2012,01,01,08,50,METAR EDXW 010850Z AUTO 23015KT 1500NDV -RA OVC001/// 08/07 Q1002 REUP RMK ATIS ROM=
EDXW,2012,01,01,09,20,METAR EDXW 010920Z AUTO 23014KT 2000NDV BR OVC001/// 08/07 Q1002 REDZ=
EDXW,2012,01,01,09,50,METAR EDXW 010950Z AUTO 23014KT 2900NDV BR OVC001/// 08/07 Q1003 RMK ATIS TAN=
EDXW,2012,01,01,10,20,METAR EDXW 011020Z AUTO 23015KT 4900NDV BKN003/// OVC005/// 08/08 Q1003=
EDXW,2012,01,01,10,50,METAR EDXW 011050Z AUTO 23015KT 5000NDV SCT004/// OVC007/// 08/08 Q1003 RMK ATIS VIC=
EDXW,2012,01,01,11,20,METAR EDXW 011120Z AUTO 23015KT 5000NDV SCT005/// BKN007/// 08/08 Q1003=
EDXW,2012,01,01,11,50,METAR EDXW 011150Z AUTO 23014KT 6000NDV SCT029/// 08/07 Q1003 RMK ATIS X-R=
EDXW,2012,01,01,12,20,METAR EDXW 011220Z AUTO 23013KT 5000NDV NCD 08/07 Q1003=
EDXW,2012,01,01,12,50,METAR EDXW 011250Z AUTO 22013KT 4900NDV FEW002/// SCT005/// 07/07 Q1003 RMK ATIS ZUL=
EDXW,2012,01,01,13,20,METAR EDXW 011320Z AUTO 22012KT 3600NDV BR OVC002/// 08/07 Q1003=
EDXW,2012,01,01,13,50,METAR COR EDXW 011350Z 23016KT 6000 FEW002 08/08 Q1003=
EDXW,2012,01,01,14,20,METAR EDXW 011420Z 22014KT 6000 FEW003 08/07 Q1003=
EDXW,2012,01,01,14,50,METAR EDXW 011450Z 22014KT 5000 BR SCT003 07/07 Q1003 RMK ATIS ECH=
EDXW,2012,01,01,15,20,METAR EDXW 011520Z 22013KT 5000 BR SCT003 07/07 Q1002=
EDXW,2012,01,01,15,50,METAR EDXW 011550Z 22015KT 0450 R14/P2000D FG OVC002 07/06 Q1002 RMK ATIS GOL=
EDXW,2012,01,01,16,20,METAR EDXW 011620Z AUTO 21015KT 1100NDV R14/P2000N OVC001/// 07/07 Q1003=
EDXW,2012,01,01,16,50,METAR EDXW 011650Z AUTO 22015KT 0650NDV R14/1600VP2000N VV002 08/07 Q1002 RMK ATIS IND=
EDXW,2012,01,01,17,20,METAR EDXW 011720Z AUTO 21014KT 3200NDV OVC002/// 08/08 Q1002=
EDXW,2012,01,01,17,50,METAR EDXW 011750Z AUTO 21014KT 6000NDV OVC002/// 08/08 Q1001 RMK ATIS KIL=
EDXW,2012,01,01,18,20,METAR EDXW 011820Z AUTO 21013KT 5000NDV BR BKN003/// BKN004/// OVC006/// 08/08 Q1001=
EDXW,2012,01,01,18,50,METAR EDXW 011850Z AUTO 19013KT 2200NDV BR OVC001/// 08/08 Q1000 RMK ATIS MIK=
EDXW,2012,01,01,19,20,METAR EDXW 011920Z AUTO 19011KT 3000NDV BR OVC002/// 08/08 Q1000=
EDXW,2012,01,01,19,50,METAR EDXW 011950Z AUTO 19009KT 3900NDV BR OVC002/// 08/07 Q1000 RMK ATIS OSC=
EDXW,2012,01,01,20,20,METAR EDXW 012020Z AUTO 20011KT 4700NDV BR BKN003/// BKN009/// OVC011/// 08/08 Q0999=
EDXW,2012,01,01,20,50,METAR EDXW 012050Z AUTO 18010KT 2000NDV DZ BKN002/// BKN005/// OVC008/// 08/07 Q0998 REUP RMK ATIS QUE=
EDXW,2012,01,01,21,20,METAR EDXW 012120Z AUTO 18009KT 2300NDV -RA BKN002/// 08/08 Q0998 REDZ=
EDXW,2012,01,01,21,50,METAR EDXW 012150Z AUTO 20012KT 3600NDV -RA SCT003/// BKN007/// 08/08 Q0997 RMK ATIS SIE=
EDXW,2012,01,01,22,20,METAR EDXW 012220Z AUTO 20010KT 3500NDV -RA SCT003/// 08/08 Q0997=
EDXW,2012,01,01,22,50,METAR EDXW 012250Z AUTO 22012KT 5000NDV -RA NCD 08/08 Q0996 RMK ATIS UNI=
ETAD,2012,01,01,00,02,SPECI ETAD 010002Z AUTO 23010KT 9999 SCT013 BKN019 BKN034 OVC042 09/09 A2993 RMK AO2 BKN019 V SCT CIG 002 RWY23 SLP146 $=
ETAD,2012,01,01,00,06,SPECI ETAD 010006Z AUTO 23009KT 9999 BKN013 BKN019 OVC041 09/09 A2993 RMK AO2 CIG 009V016 SLP145 $=
ETAD,2012,01,01,00,09,SPECI ETAD 010009Z AUTO 24008KT 9999 SCT013 BKN018 OVC041 09/09 A2993 RMK AO2 CIG 018V022 SCT V BKN CIG 012 RWY23 SLP146 $=
ETAD,2012,01,01,00,13,SPECI ETAD 010013Z AUTO 23009KT 9999 BKN014 BKN019 OVC041 09/09 A2993 RMK AO2 CIG 012V016 SLP144 $=
ETAD,2012,01,01,00,14,SPECI ETAD 010014Z AUTO 23009KT 9999 BKN016 OVC041 09/09 A2993 RMK AO2 CIG 011V019 CIG 011 RWY23 SLP144 $=
ETAD,2012,01,01,00,15,SPECI ETAD 010015Z AUTO 23009KT 9999 BKN014 BKN019 OVC041 09/09 A2993 RMK AO2 CIG 011V016 SLP144 $=
ETAD,2012,01,01,00,19,SPECI ETAD 010019Z AUTO 23008KT 9999 FEW007 BKN016 OVC041 09/09 A2993 RMK AO2 CIG 011 RWY23 SLP144 $=
ETAD,2012,01,01,00,21,SPECI ETAD 010021Z AUTO 23009KT 9999 -RA FEW007 OVC016 09/09 A2993 RMK AO2 RAB0021 OVC V BKN CIG 011 RWY23 SLP144 $=
ETAD,2012,01,01,00,28,SPECI ETAD 010028Z AUTO 23010KT 9999 R05/1300VP1500 -RA SCT007 BKN013 OVC018 09/09 A2993 RMK AO2 RAB0021 BKN V OVC CIG 004 RWY23 SLP143 $=
ETAD,2012,01,01,00,33,SPECI ETAD 010033Z AUTO 23010KT 6000 R05/1200VP1500 BR SCT007 OVC013 09/09 A2993 RMK AO2 RAB0021E0033DZB0031E0032 OVC V BKN CIG 003 RWY23 SLP143 $=
ETAD,2012,01,01,00,35,SPECI ETAD 010035Z AUTO 23010KT 6000 R05/1200VP1500 BR FEW004 BKN009 OVC015 09/09 A2993 RMK AO2 RAB0021E0033DZB0031E0032 CIG 003 RWY23 SLP143 $=
ETAD,2012,01,01,00,37,SPECI ETAD 010037Z AUTO 23010KT 6000 R05/1200VP1500 -RA BR FEW004 BKN009 OVC015 09/09 A2993 RMK AO2 RAB0021DZB0031E0032 CIG 003 RWY23 SLP143 $=
ETAD,2012,01,01,00,39,SPECI ETAD 010039Z AUTO 23010KT 6000 R05/1200VP1500 -RA BR SCT006 BKN011 OVC015 09/09 A2992 RMK AO2 RAB0021DZB0031E0032 CIG 002 RWY23 SLP142 $=
ETAD,2012,01,01,00,40,SPECI ETAD 010040Z AUTO 23010KT 6000 R05/1200VP1500 -RA BR FEW004 BKN009 OVC017 09/09 A2992 RMK AO2 RAB0021DZB0031E0032 BKN V OVC CIG 002 RWY23 SLP142 $=
ETAD,2012,01,01,00,41,SPECI ETAD 010041Z AUTO 23010KT 8000 R05/1200VP1500 -RA BR FEW004 BKN009 OVC016 09/09 A2993 RMK AO2 RAB0021DZB0031E0032 CIG 002 RWY23 SLP143 $=
ETAD,2012,01,01,00,42,SPECI ETAD 010042Z AUTO 23010KT 8000 R05/1300VP1500 -RA BR FEW003 BKN008 OVC016 09/09 A2992 RMK AO2 RAB0021DZB0031E0032 BKN V OVC CIG 002 RWY23 SLP142 $=
ETAD,2012,01,01,00,46,SPECI ETAD 010046Z AUTO 23009KT 9999 -RA OVC006 09/09 A2992 RMK AO2 RAB0021DZB0031E0032 OVC V BKN CIG 002 RWY23 SLP142 $=
ETAD,2012,01,01,00,49,SPECI ETAD 010049Z AUTO 23009KT 9999 OVC006 09/09 A2992 RMK AO2 RAB0021E0049DZB0031E0032 CIG 002 RWY23 SLP141 $=
ETAD,2012,01,01,00,55,METAR ETAD 010055Z AUTO 23008KT 9999 BKN006 OVC010 09/09 A2992 RMK AO2 RAB0021E0049DZB0031E0032 BKN V OVC CIG 002 RWY23 SLP140 P0001 T00910090 $=
ETAD,2012,01,01,00,57,SPECI ETAD 010057Z AUTO 23008KT 9999 BKN005 OVC010 09/09 A2992 RMK AO2 SLP140 $=
ETAD,2012,01,01,01,01,SPECI ETAD 010101Z AUTO 23008KT 9999 SCT004 BKN009 OVC040 09/09 A2991 RMK AO2 SCT V BKN CIG 002 RWY23 SLP138 $=
ETAD,2012,01,01,01,11,SPECI ETAD 010111Z AUTO 23010KT 9999 SCT004 BKN011 OVC040 09/09 A2992 RMK AO2 CIG 002 RWY23 SLP139 $=
ETAD,2012,01,01,01,19,SPECI ETAD 010119Z AUTO 23010KT 9999 BKN008 BKN011 OVC040 09/09 A2992 RMK AO2 CIG 002 RWY23 SLP140 $=
ETAD,2012,01,01,01,21,SPECI ETAD 010121Z AUTO 23009KT 9999 SCT008 BKN011 BKN039 09/09 A2992 RMK AO2 CIG 002 RWY23 SLP140 $=
ETAD,2012,01,01,01,26,SPECI ETAD 010126Z AUTO 23009KT 9999 BKN009 BKN019 OVC039 09/09 A2992 RMK AO2 BKN009 V SCT CIG 003 RWY23 SLP141 $=
ETAD,2012,01,01,01,28,SPECI ETAD 010128Z AUTO 23010KT 9999 FEW008 SCT012 BKN018 OVC039 09/09 A2992 RMK AO2 FEW V SCT CIG 003 RWY23 SLP141 $=
ETAD,2012,01,01,01,29,SPECI ETAD 010129Z AUTO 23010KT 9999 FEW008 BKN012 BKN018 OVC039 09/09 A2992 RMK AO2 CIG 003 RWY23 SLP141 $=
ETAD,2012,01,01,01,31,SPECI ETAD 010131Z AUTO 23009KT 9999 BKN011 BKN018 OVC039 09/09 A2992 RMK AO2 CIG 003 RWY23 SLP142 $=
ETAD,2012,01,01,01,34,SPECI ETAD 010134Z AUTO 23011KT 9999 -RA BKN011 OVC018 09/09 A2992 RMK AO2 RAB0134 CIG 003 RWY23 SLP142 $=
ETAD,2012,01,01,01,40,SPECI ETAD 010140Z AUTO 23010KT 9999 -RA SCT008 BKN012 BKN018 OVC035 09/09 A2993 RMK AO2 RAB0134DZB0135E0140 SCT V BKN CIG 003 RWY23 SLP143 $=
ETAD,2012,01,01,01,42,SPECI ETAD 010142Z AUTO 23011KT 9999 -RA BKN010 BKN022 OVC035 09/09 A2993 RMK AO2 RAB0134DZB0135E0140 CIG 003 RWY23 SLP143 $=
ETAD,2012,01,01,01,44,SPECI ETAD 010144Z AUTO 23012KT 9999 BKN010 BKN022 OVC035 09/09 A2993 RMK AO2 RAB0134E0144DZB0135E0140 CIG 003 RWY23 SLP143 $=
ETAD,2012,01,01,01,46,SPECI ETAD 010146Z AUTO 23011KT 9999 SCT010 BKN022 OVC035 09/09 A2993 RMK AO2 RAB0134E0144DZB0135E0140 CIG 003 RWY23 SLP143 $=
ETAD,2012,01,01,01,55,METAR ETAD 010155Z AUTO 23011KT 9999 SCT010 BKN026 OVC034 09/09 A2993 RMK AO2 RAB0134E0144DZB0135E0140 CIG 003 RWY23 SLP143 P0000 T00920091 $=
ETAD,2012,01,01,01,57,SPECI ETAD 010157Z AUTO 23009KT 9999 -RA FEW008 SCT012 BKN027 OVC034 09/09 A2993 RMK AO2 RAB0157 FEW V SCT CIG 003 RWY23 SLP143 $=
ETAD,2012,01,01,01,59,SPECI ETAD 010159Z AUTO 23009KT 9999 -RA SCT008 BKN030 BKN036 09/09 A2993 RMK AO2 RAB0157 CIG 003 RWY23 SLP143 $=
ETAD,2012,01,01,02,01,SPECI ETAD 010201Z AUTO 23009KT 9999 -RA SCT008 BKN027 OVC034 09/09 A2993 RMK AO2 RAB0157 CIG 003 RWY23 SLP143 $=
ETAD,2012,01,01,02,05,SPECI ETAD 010205Z AUTO 23009KT 9999 SCT008 BKN029 OVC036 09/09 A2993 RMK AO2 RAB0157E0205 SCT V BKN CIG 005 RWY23 SLP143 $=
ETAD,2012,01,01,02,16,SPECI ETAD 010216Z AUTO 22011KT 9999 SCT009 BKN015 BKN021 OVC034 09/09 A2993 RMK AO2 RAB0157E0205 BKN015 V SCT CIG 005 RWY23 SLP141 $=
ETAD,2012,01,01,02,38,SPECI ETAD 010238Z AUTO 22014KT 9999 FEW007 OVC016 09/09 A2993 RMK AO2 RAB0157E0205 CIG 005 RWY23 SLP142 $=
ETAD,2012,01,01,02,52,SPECI ETAD 010252Z AUTO 23010KT 9000 BR FEW007 OVC014 09/09 A2993 RMK AO2 RAB0157E0205 CIG 003 RWY23 SLP142 $=
ETAD,2012,01,01,02,55,METAR ETAD 010255Z AUTO 22008KT 8000 R05/1400VP1500 BR FEW007 OVC014 09/09 A2993 RMK AO2 RAB0157E0205 CIG 003 RWY23 SLP142 P0000 60001 T00930092 55000 $=
ETAD,2012,01,01,02,56,SPECI ETAD 010256Z AUTO 23009KT 8000 R05/1400VP1500 -RA BR SCT007 OVC014 09/09 A2993 RMK AO2 RAB0256 CIG 003 RWY23 SLP142 $=
ETAD,2012,01,01,03,02,SPECI ETAD 010302Z AUTO 22009KT 8000 R05/1400VP1500 -RA BR BKN006 OVC013 09/09 A2993 RMK AO2 RAB0256 BKN V SCT CIG 002 RWY23 SLP142 $=
ETAD,2012,01,01,03,05,SPECI ETAD 010305Z AUTO 22009KT 9000 -RA BR BKN005 OVC013 09/09 A2993 RMK AO2 RAB0256 SLP142 $=
ETAD,2012,01,01,03,09,SPECI ETAD 010309Z AUTO 23008KT 9999 -RA BKN004 OVC010 09/09 A2993 RMK AO2 RAB0256 SLP142 $=
ETAD,2012,01,01,03,23,SPECI ETAD 010323Z AUTO 23010KT 6000 R05/1300VP1500 -RA BR OVC004 09/09 A2993 RMK AO2 RAB0256 SLP144 $=
ETAD,2012,01,01,03,28,SPECI ETAD 010328Z AUTO 23008KT 8000 R05/1300VP1500 -RA BR OVC005 09/09 A2993 RMK AO2 RAB0256 SLP143 $=
ETAD,2012,01,01,03,38,SPECI ETAD 010338Z AUTO 22009KT 9999 OVC005 09/09 A2993 RMK AO2 RAB0256E0335DZB0335E0338 SLP143 $=
ETAD,2012,01,01,03,43,SPECI ETAD 010343Z AUTO 22011KT 9999 SCT005 OVC012 09/09 A2993 RMK AO2 RAB0256E0335DZB0335E0338 CIG 002 RWY23 SLP143 $=
ETAD,2012,01,01,03,55,METAR ETAD 010355Z AUTO 22009KT 9999 SCT007 OVC013 09/09 A2993 RMK AO2 RAB0256E0335DZB0335E0338 CIG 003 RWY23 SLP142 P0001 T00940094 $=
ETAD,2012,01,01,03,56,SPECI ETAD 010356Z AUTO 22009KT 9999 BKN009 OVC013 09/09 A2993 RMK AO2 BKN V SCT CIG 003 RWY23 SLP142 $=
ETAD,2012,01,01,03,57,SPECI ETAD 010357Z AUTO 22011KT 9999 -DZ BKN009 OVC013 09/09 A2993 RMK AO2 DZB0357 CIG 003 RWY23 SLP142 $=
ETAD,2012,01,01,04,08,SPECI ETAD 010408Z AUTO 22012KT 9999 BKN009 OVC017 09/09 A2993 RMK AO2 RAB0407E0408DZB0357E0407 CIG 004 RWY23 SLP142 $=
ETAD,2012,01,01,04,10,SPECI ETAD 010410Z AUTO 22011KT 9999 BKN010 OVC017 09/09 A2993 RMK AO2 RAB0407E0408DZB0357E0407 CIG 005 RWY23 SLP142 $=
ETAD,2012,01,01,04,22,SPECI ETAD 010422Z AUTO 22012KT 9999 OVC009 09/09 A2993 RMK AO2 RAB0407E0408DZB0357E0407 CIG 007V012 CIG 005 RWY23 SLP140 $=
ETAD,2012,01,01,04,32,SPECI ETAD 010432Z AUTO 22011KT 9999 BKN007 OVC011 10/09 A2993 RMK AO2 RAB0407E0408DZB0357E0407 SLP141 $=
ETAD,2012,01,01,04,41,SPECI ETAD 010441Z AUTO 22010KT 9000 R05/1300VP1500 -RA BR BKN007 OVC011 10/09 A2993 RMK AO2 RAB0407E0408B0441DZB0357E0407 SLP141 $=
ETAD,2012,01,01,04,44,SPECI ETAD 010444Z AUTO 22009KT 8000 R05/1300VP1500 -RA BR BKN006 OVC011 10/09 A2993 RMK AO2 RAB0407E0408B0441DZB0357E0407 SLP140 $=
ETAD,2012,01,01,04,46,SPECI ETAD 010446Z AUTO 22009KT 6000 R05/1300VP1500 -RA BR BKN006 OVC010 10/09 A2993 RMK AO2 RAB0407E0408B0441DZB0357E0407 SLP141 $=
ETAD,2012,01,01,04,48,SPECI ETAD 010448Z AUTO 22009KT 6000 R05/1300V1400 -RA BR OVC006 10/09 A2993 RMK AO2 RAB0407E0408B0441DZB0357E0407 SLP140 $=
ETAD,2012,01,01,04,52,SPECI ETAD 010452Z AUTO 22009KT 4800 R05/1100V1300 -RA BR OVC007 09/09 A2993 RMK AO2 RAB0407E0408B0441DZB0357E0407 CIG 002 RWY23 SLP140 $=
ETAD,2012,01,01,04,55,METAR ETAD 010455Z AUTO 22009KT 4800 R05/1100V1300 -RA BR OVC007 09/09 A2993 RMK AO2 RAB0407E0408B0441DZB0357E0407 CIG 002 RWY23 SLP141 P0001 T00950093 $=
ETAD,2012,01,01,04,56,SPECI ETAD 010456Z AUTO 22009KT 4800 R05/1100V1300 -RA BR OVC006 09/09 A2993 RMK AO2 CIG 002 RWY23 SLP141 $=
ETAD,2012,01,01,05,04,SPECI ETAD 010504Z AUTO 23009KT 4800 R05/1200V1300 -RA BR OVC005 09/09 A2993 RMK AO2 SLP141 $=
ETAD,2012,01,01,05,07,SPECI ETAD 010507Z AUTO 22009KT 6000 R05/1200V1400 -RA BR OVC005 09/09 A2993 RMK AO2 SLP140 $=
ETAD,2012,01,01,05,08,SPECI ETAD 010508Z AUTO 22009KT 6000 R05/1200VP1500 -RA BR OVC005 09/09 A2993 RMK AO2 SLP140 $=
ETAD,2012,01,01,05,18,SPECI ETAD 010518Z AUTO 22008KT 6000 R05/1300V1400 -RA BR OVC005 09/09 A2993 RMK AO2 SLP142 $=
ETAD,2012,01,01,05,20,SPECI ETAD 010520Z AUTO 23008KT 6000 R05/1300VP1500 -RA BR OVC005 09/09 A2993 RMK AO2 SLP141 $=
ETAD,2012,01,01,05,23,SPECI ETAD 010523Z AUTO 23007KT 8000 R05/1300VP1500 -RA BR OVC004 09/09 A2993 RMK AO2 SLP141 $=
ETAD,2012,01,01,05,40,SPECI ETAD 010540Z AUTO 23007KT 9999 R05/1400VP1500 -DZ OVC005 10/10 A2993 RMK AO2 RAE0530DZB0530 SLP141 $=
ETAD,2012,01,01,05,54,SPECI ETAD 010554Z AUTO 22009KT 9999 -DZ OVC007 10/10 A2993 RMK AO2 RAE0530DZB0530 SLP140 $=
ETAD,2012,01,01,05,55,METAR ETAD 010555Z AUTO 22008KT 9999 -DZ OVC007 10/10 A2993 RMK AO2 RAE0530DZB0530 SLP140 P0001 60004 T00950095 10096 20091 58001 $=
ETAD,2012,01,01,06,03,SPECI ETAD 010603Z AUTO 22009KT 9999 OVC007 10/10 A2993 RMK AO2 DZE0603 CIG 005V010 SLP141 $=
ETAD,2012,01,01,06,12,SPECI ETAD 010612Z AUTO 23008KT 9999 OVC008 10/10 A2993 RMK AO2 DZE0603 CIG 006V011 SLP141 $=
ETAD,2012,01,01,06,22,SPECI ETAD 010622Z AUTO 22008KT 9999 OVC007 10/10 A2993 RMK AO2 DZE0603 CIG 007V010 SLP142 $=
ETAD,2012,01,01,06,46,SPECI ETAD 010646Z AUTO 22008KT 9999 -RA OVC007 10/09 A2994 RMK AO2 RAB0646DZE0603 CIG 006V009 SLP144 $=
ETAD,2012,01,01,06,52,SPECI ETAD 010652Z AUTO 22009KT 9999 -DZ OVC006 10/09 A2994 RMK AO2 RAB0646E0647DZE0603B0647 CIG 006V009 SLP144 $=
ETAD,2012,01,01,06,55,METAR ETAD 010655Z AUTO 22009KT 9999 -RA OVC006 10/10 A2994 RMK AO2 RAB0646DZE0603B0647E0653 CIG 005V009 SLP144 P0000 T00970095 $=
ETAD,2012,01,01,07,14,SPECI ETAD 010714Z AUTO 22010KT 9999 OVC006 10/10 A2994 RMK AO2 RAE0714 SLP144 $=
ETAD,2012,01,01,07,30,SPECI ETAD 010730Z AUTO 22012KT 9999 OVC007 10/10 A2995 RMK AO2 RAE0714 SLP146 $=
ETAD,2012,01,01,07,36,SPECI ETAD 010736Z AUTO 22009KT 9999 OVC008 10/10 A2995 RMK AO2 RAE0714 CIG 006V010 SLP146 $=
ETAD,2012,01,01,07,51,SPECI ETAD 010751Z AUTO 23010KT 9999 OVC009 10/10 A2995 RMK AO2 RAE0714 CIG 007V010 SLP148 $=
ETAD,2012,01,01,07,55,METAR ETAD 010755Z AUTO 22010KT 9999 OVC009 10/10 A2995 RMK AO2 RAE0714 CIG 007V011 SLP148 P0000 T00990098 $=
ETAD,2012,01,01,08,39,SPECI ETAD 010839Z AUTO 22011KT 9999 OVC010 10/10 A2995 RMK AO2 CIG 008V011 SLP148 $=
ETAD,2012,01,01,08,42,SPECI ETAD 010842Z AUTO 23012KT 9999 OVC009 10/10 A2995 RMK AO2 CIG 008V011 SLP148 $=
ETAD,2012,01,01,08,52,SPECI ETAD 010852Z AUTO 22013KT 9999 OVC008 10/10 A2996 RMK AO2 CIG 007V011 SLP150 $=
ETAD,2012,01,01,08,55,METAR ETAD 010855Z AUTO 22010KT 9999 OVC008 10/10 A2996 RMK AO2 CIG 007V011 SLP150 60000 T01020097 51009 $=
ETAD,2012,01,01,08,56,SPECI ETAD 010856Z AUTO 22011KT 9999 -DZ OVC008 10/10 A2996 RMK AO2 DZB0856 CIG 007V011 SLP150 $=
ETAD,2012,01,01,09,07,SPECI ETAD 010907Z AUTO 22011KT 9999 BKN008 OVC013 10/10 A2995 RMK AO2 DZB0856E0907 SLP149 $=
ETAD,2012,01,01,09,10,SPECI ETAD 010910Z AUTO 22010KT 9999 OVC011 10/10 A2995 RMK AO2 DZB0856E0907 SLP149 $=
ETAD,2012,01,01,09,55,METAR ETAD 010955Z AUTO 22012KT 9999 OVC010 10/10 A2996 RMK AO2 DZB0856E0907 CIG 009V013 SLP148 P0001 T01040098 $=
ETAD,2012,01,01,10,55,METAR ETAD 011055Z AUTO 22011KT 9999 OVC010 11/10 A2995 RMK AO2 CIG 009V012 SLP145 T01060098 $=
ETAD,2012,01,01,11,13,SPECI ETAD 011113Z AUTO 22013KT 9999 OVC009 11/10 A2994 RMK AO2 CIG 009V012 SLP143 $=
ETAD,2012,01,01,11,55,METAR ETAD 011155Z AUTO 23010KT 9999 OVC009 11/10 A2992 RMK AO2 CIG 007V012 SLP137 60001 70006 T01070099 10108 20095 58010 $=
ETAD,2012,01,01,12,55,METAR ETAD 011255Z AUTO 22013KT 9999 OVC009 11/10 A2991 RMK AO2 CIG 008V010 SLP131 T01080100 $=
ETAD,2012,01,01,13,20,SPECI ETAD 011320Z AUTO 22011KT 9999 OVC008 11/10 A2990 RMK AO2 CIG 007V010 SLP127 $=
ETAD,2012,01,01,13,30,SPECI ETAD 011330Z AUTO 22014G20KT 9999 OVC007 11/10 A2990 RMK AO2 SLP127 $=
ETAD,2012,01,01,13,38,SPECI ETAD 011338Z AUTO 23010G20KT 9000 -RA BR OVC007 11/10 A2989 RMK AO2 RAB1338 SLP126 $=
ETAD,2012,01,01,13,47,SPECI ETAD 011347Z AUTO 22013KT 9999 OVC007 11/10 A2989 RMK AO2 RAB1338E1347 SLP126 $=
ETAD,2012,01,01,13,55,METAR ETAD 011355Z AUTO 21012KT 9999 OVC007 11/10 A2989 RMK AO2 RAB1338E1347 SLP126 P0000 T01080103 $=
ETAD,2012,01,01,14,20,SPECI ETAD 011420Z AUTO 22012G18KT 9999 -RA OVC007 11/10 A2990 RMK AO2 RAB1420 CIG 005V009 SLP128 $=
ETAD,2012,01,01,14,30,SPECI ETAD 011430Z AUTO 21013G19KT 9999 OVC007 11/10 A2990 RMK AO2 RAB1420E1430 SLP128 $=
ETAD,2012,01,01,14,39,SPECI ETAD 011439Z AUTO 22010G17KT 9999 OVC006 11/10 A2990 RMK AO2 RAB1420E1430 SLP128 $=
ETAD,2012,01,01,14,45,SPECI ETAD 011445Z AUTO 22013KT 6000 BR OVC006 11/10 A2990 RMK AO2 RAB1420E1430 SLP128 $=
ETAD,2012,01,01,14,47,SPECI ETAD 011447Z AUTO 22011KT 6000 BR OVC005 11/10 A2990 RMK AO2 RAB1420E1430 OVC V BKN SLP129 $=
ETAD,2012,01,01,14,52,SPECI ETAD 011452Z AUTO 22009KT 8000 BR BKN005 OVC011 10/10 A2990 RMK AO2 RAB1420E1430 BKN V OVC SLP128 $=
ETAD,2012,01,01,14,55,METAR ETAD 011455Z AUTO 22011KT 8000 BR BKN005 OVC010 10/10 A2990 RMK AO2 RAB1420E1430 SLP128 P0000 60000 T01050102 55009 $=
ETAD,2012,01,01,15,06,SPECI ETAD 011506Z AUTO 22012KT 9999 OVC006 10/10 A2989 RMK AO2 SLP126 $=
ETAD,2012,01,01,15,10,SPECI ETAD 011510Z AUTO 22010KT 9999 BKN005 OVC009 10/10 A2989 RMK AO2 SLP127 $=
ETAD,2012,01,01,15,19,SPECI ETAD 011519Z AUTO 22013KT 6000 BR BKN005 OVC009 10/10 A2989 RMK AO2 SLP126 $=
ETAD,2012,01,01,15,28,SPECI ETAD 011528Z AUTO 22013KT 8000 BR BKN005 OVC009 10/10 A2989 RMK AO2 SLP126 $=
ETAD,2012,01,01,15,34,SPECI ETAD 011534Z AUTO 21013KT 9999 -RA OVC006 10/10 A2989 RMK AO2 RAB1534 SLP125 $=
ETAD,2012,01,01,15,37,SPECI ETAD 011537Z AUTO 21012KT 9999 -RA BKN005 OVC009 10/10 A2989 RMK AO2 RAB1534 SLP125 $=
ETAD,2012,01,01,15,41,SPECI ETAD 011541Z AUTO 21011KT 9999 BKN005 OVC009 10/10 A2989 RMK AO2 RAB1534E1541 SLP125 $=
ETAD,2012,01,01,15,46,SPECI ETAD 011546Z AUTO 21011KT 9999 OVC007 10/10 A2989 RMK AO2 RAB1534E1541 CIG 003 RWY23 SLP125 $=
ETAD,2012,01,01,15,48,SPECI ETAD 011548Z AUTO 21012KT 9999 BKN005 OVC009 10/10 A2989 RMK AO2 RAB1534E1541 SLP125 $=
ETAD,2012,01,01,15,55,METAR ETAD 011555Z AUTO 22012KT 9999 OVC006 10/10 A2989 RMK AO2 RAB1534E1541 SLP125 P0000 T01030102 $=
ETAD,2012,01,01,16,01,SPECI ETAD 011601Z AUTO 21012KT 9999 BKN005 OVC009 10/10 A2989 RMK AO2 SLP125 $=
ETAD,2012,01,01,16,05,SPECI ETAD 011605Z AUTO 21012KT 9000 -RA BR BKN005 OVC009 10/10 A2989 RMK AO2 RAB1605 SLP124 $=
ETAD,2012,01,01,16,17,SPECI ETAD 011617Z AUTO 21013KT 9999 BKN005 OVC009 10/10 A2988 RMK AO2 RAB1605E1617 SLP122 $=
ETAD,2012,01,01,16,55,METAR ETAD 011655Z AUTO 22013G19KT 9999 OVC005 10/10 A2988 RMK AO2 RAB1605E1617 SLP122 P0000 T01050103 $=
ETAD,2012,01,01,17,04,SPECI ETAD 011704Z AUTO 22012KT 9999 OVC006 11/10 A2988 RMK AO2 SLP121 $=
ETAD,2012,01,01,17,19,SPECI ETAD 011719Z AUTO 23013KT 9000 R05/1200VP1500 -RA BR OVC006 11/10 A2988 RMK AO2 RAB1719 SLP121 $=
ETAD,2012,01,01,17,21,SPECI ETAD 011721Z AUTO 22015G20KT 6000 R05/1100VP1500 -RA BR OVC006 11/10 A2988 RMK AO2 RAB1719 SLP121 $=
ETAD,2012,01,01,17,25,SPECI ETAD 011725Z AUTO 22012G20KT 4800 R05/1100VP1500 -RA BR OVC006 11/10 A2988 RMK AO2 RAB1719 SLP121 $=
ETAD,2012,01,01,17,26,SPECI ETAD 011726Z AUTO 22014G20KT 4800 R05/1100V1400 -RA BR OVC006 11/10 A2988 RMK AO2 RAB1719 SLP121 $=
ETAD,2012,01,01,17,28,SPECI ETAD 011728Z AUTO 21016G20KT 4800 R05/1100VP1500 -RA BR OVC006 11/10 A2988 RMK AO2 RAB1719 SLP121 $=
ETAD,2012,01,01,17,29,SPECI ETAD 011729Z AUTO 22015G20KT 6000 R05/1100VP1500 -RA BR OVC006 11/10 A2988 RMK AO2 RAB1719 SLP121 $=
ETAD,2012,01,01,17,31,SPECI ETAD 011731Z AUTO 22013G19KT 6000 R05/1200VP1500 -RA BR BKN005 OVC009 11/10 A2988 RMK AO2 RAB1719 SLP120 $=
ETAD,2012,01,01,17,32,SPECI ETAD 011732Z AUTO 22013G19KT 6000 R05/1200VP1500 -RA BR OVC007 11/10 A2987 RMK AO2 RAB1719 CIG 003 RWY23 SLP120 $=
ETAD,2012,01,01,17,33,SPECI ETAD 011733Z AUTO 22014G19KT 8000 R05/1200VP1500 -RA BR BKN005 OVC009 11/10 A2987 RMK AO2 RAB1719 SLP120 $=
ETAD,2012,01,01,17,36,SPECI ETAD 011736Z AUTO 22015G18KT 9000 R05/1400VP1500 -RA BR OVC007 11/10 A2987 RMK AO2 RAB1719 CIG 003 RWY23 SLP119 $=
ETAD,2012,01,01,17,38,SPECI ETAD 011738Z AUTO 22013G18KT 9999 -RA BKN005 OVC009 11/10 A2987 RMK AO2 RAB1719 SLP119 $=
ETAD,2012,01,01,17,39,SPECI ETAD 011739Z AUTO 22012G18KT 9999 -RA OVC007 11/10 A2987 RMK AO2 RAB1719 CIG 003 RWY23 SLP119 $=
ETAD,2012,01,01,17,44,SPECI ETAD 011744Z AUTO 22012KT 9999 -RA BKN006 OVC010 11/10 A2987 RMK AO2 RAB1719 SLP118 $=
ETAD,2012,01,01,17,45,SPECI ETAD 011745Z AUTO 22012KT 9999 OVC008 11/10 A2987 RMK AO2 RAB1719E1745 CIG 003 RWY23 SLP118 $=
ETAD,2012,01,01,17,55,METAR ETAD 011755Z AUTO 22012G18KT 9999 OVC008 11/10 A2987 RMK AO2 RAB1719E1745 CIG 004 RWY23 SLP117 P0001 60001 T01060103 10109 20103 58010 $=
ETAD,2012,01,01,18,00,SPECI ETAD 011800Z AUTO 22014G18KT 9999 OVC007 11/10 A2986 RMK AO2 OVC V BKN SLP116 $=
ETAD,2012,01,01,18,02,SPECI ETAD 011802Z AUTO 22013KT 9999 BKN006 OVC011 11/10 A2986 RMK AO2 SLP116 $=
ETAD,2012,01,01,18,06,SPECI ETAD 011806Z AUTO 22014G18KT 9999 OVC008 11/10 A2986 RMK AO2 SLP116 $=
ETAD,2012,01,01,18,15,SPECI ETAD 011815Z AUTO 22015G22KT 9999 OVC009 11/10 A2986 RMK AO2 OVC V BKN SLP115 $=
ETAD,2012,01,01,18,20,SPECI ETAD 011820Z AUTO 22013G22KT 9999 SCT007 BKN012 OVC019 11/10 A2986 RMK AO2 CIG 010V016 CIG 008 RWY23 SLP114 $=
ETAD,2012,01,01,18,24,SPECI ETAD 011824Z AUTO 22013KT 9999 BKN011 OVC019 11/10 A2986 RMK AO2 CIG 006V014 SLP114 $=
ETAD,2012,01,01,18,27,SPECI ETAD 011827Z AUTO 22016G21KT 9999 BKN013 OVC018 11/10 A2985 RMK AO2 CIG 007V016 SLP113 $=
ETAD,2012,01,01,18,36,SPECI ETAD 011836Z AUTO 22016G22KT 9999 -RA OVC012 11/10 A2986 RMK AO2 RAB1836 CIG 008V016 OVC V BKN SLP114 $=
ETAD,2012,01,01,18,37,SPECI ETAD 011837Z AUTO 22017G22KT 9999 -RA BKN011 OVC018 11/10 A2986 RMK AO2 RAB1836 CIG 008V015 SLP114 $=
ETAD,2012,01,01,18,44,SPECI ETAD 011844Z AUTO 22016KT 9999 BKN011 OVC018 11/10 A2985 RMK AO2 RAB1836E1844 CIG 010V015 BKN V OVC SLP113 $=
ETAD,2012,01,01,18,55,METAR ETAD 011855Z AUTO 22014G22KT 9999 OVC010 11/10 A2985 RMK AO2 RAB1836E1844 CIG 009V013 SLP112 P0000 T01070099 $=
ETAD,2012,01,01,19,07,SPECI ETAD 011907Z AUTO 22016KT 9999 OVC009 11/10 A2984 RMK AO2 SLP109 $=
ETAD,2012,01,01,19,32,SPECI ETAD 011932Z AUTO 21014G20KT 9999 OVC008 11/10 A2984 RMK AO2 SLP107 $=
ETAD,2012,01,01,19,38,SPECI ETAD 011938Z AUTO 22018G23KT 9999 OVC009 11/10 A2983 RMK AO2 SLP106 $=
ETAD,2012,01,01,19,47,SPECI ETAD 011947Z AUTO 21016G23KT 9999 OVC008 11/10 A2983 RMK AO2 CIG 007V011 SLP105 $=
ETAD,2012,01,01,19,51,SPECI ETAD 011951Z AUTO 21014G21KT 9999 BKN007 OVC011 11/10 A2983 RMK AO2 CIG 006V010 BKN V OVC SLP103 $=
ETAD,2012,01,01,19,55,METAR ETAD 011955Z AUTO 21017G21KT 9999 OVC007 11/10 A2982 RMK AO2 CIG 006V010 OVC V BKN SLP103 T01050101 $=
ETAD,2012,01,01,20,31,SPECI ETAD 012031Z AUTO 22016G27KT 9999 BKN008 OVC013 11/10 A2981 RMK AO2 PK WND 20027/2024 SLP100 $=
ETAD,2012,01,01,20,36,SPECI ETAD 012036Z AUTO 22020G24KT 9999 BKN007 OVC012 11/10 A2981 RMK AO2 PK WND 20027/2024 SLP099 $=
ETAD,2012,01,01,20,53,SPECI ETAD 012053Z AUTO 21016KT 9999 BKN006 OVC011 11/10 A2981 RMK AO2 PK WND 20027/2024 SLP098 $=
ETAD,2012,01,01,20,55,METAR ETAD 012055Z AUTO 21020G25KT 9999 BKN006 OVC011 11/10 A2981 RMK AO2 PK WND 20027/2024 SLP098 60000 T01050101 57019 $=
ETAD,2012,01,01,21,08,SPECI ETAD 012108Z AUTO 22018G25KT 9999 OVC007 10/10 A2980 RMK AO2 SLP095 $=
ETAD,2012,01,01,21,21,SPECI ETAD 012121Z AUTO 22018G25KT 9999 -RA OVC007 11/10 A2980 RMK AO2 RAB2121 SLP094 $=
ETAD,2012,01,01,21,35,SPECI ETAD 012135Z AUTO 22019G24KT 9999 -RA OVC008 11/10 A2979 RMK AO2 RAB2121 CIG 006V011 SLP093 $=
ETAD,2012,01,01,21,43,SPECI ETAD 012143Z AUTO 22019G23KT 9999 -RA BKN007 OVC012 11/10 A2979 RMK AO2 RAB2121 SLP092 $=
ETAD,2012,01,01,21,45,SPECI ETAD 012145Z AUTO 21017G23KT 9999 BKN007 OVC015 11/10 A2979 RMK AO2 RAB2121E2145 BKN V OVC SLP092 $=
ETAD,2012,01,01,21,47,SPECI ETAD 012147Z AUTO 22016KT 9999 -RA BKN007 BKN012 OVC017 11/10 A2979 RMK AO2 RAB2121 BKN012 V OVC SLP092 $=
ETAD,2012,01,01,21,55,METAR ETAD 012155Z AUTO 21016G26KT 9999 -RA BKN007 BKN011 OVC017 11/10 A2979 RMK AO2 PK WND 21026/2148 RAB2121 SLP091 P0001 T01050101 $=
ETAD,2012,01,01,22,11,SPECI ETAD 012211Z AUTO 22016G23KT 9999 -RA SCT007 BKN012 OVC018 11/10 A2978 RMK AO2 CIG 006 RWY23 SLP086 $=
ETAD,2012,01,01,22,13,SPECI ETAD 012213Z AUTO 21017G26KT 9999 -RA BKN007 BKN012 OVC018 11/10 A2978 RMK AO2 PK WND 21026/2212 BKN007 V SCT SLP087 $=
ETAD,2012,01,01,22,15,SPECI ETAD 012215Z AUTO 21018G26KT 9999 -RA SCT007 BKN012 OVC018 11/10 A2978 RMK AO2 PK WND 21026/2212 SCT V BKN CIG 006 RWY23 SLP086 $=
ETAD,2012,01,01,22,17,SPECI ETAD 012217Z AUTO 21017G26KT 9999 -RA BKN007 BKN012 OVC018 11/10 A2978 RMK AO2 PK WND 21026/2212 SLP086 $=
ETAD,2012,01,01,22,28,SPECI ETAD 012228Z AUTO 22019G26KT 9999 BKN007 OVC014 11/10 A2977 RMK AO2 PK WND 21026/2227 RAE2228 OVC V BKN SLP084 $=
ETAD,2012,01,01,22,30,SPECI ETAD 012230Z AUTO 22020G26KT 9999 BKN009 OVC016 11/10 A2977 RMK AO2 PK WND 21026/2227 RAE2228 OVC V BKN SLP084 $=
ETAD,2012,01,01,22,31,SPECI ETAD 012231Z AUTO 22018G26KT 9999 BKN008 OVC015 11/10 A2977 RMK AO2 PK WND 21026/2227 RAE2228 BKN V SCT SLP084 $=
ETAD,2012,01,01,22,32,SPECI ETAD 012232Z AUTO 21018G26KT 9999 SCT007 OVC015 11/10 A2977 RMK AO2 PK WND 21026/2227 RAE2228 OVC V BKN CIG 006 RWY23 SLP083 $=
ETAD,2012,01,01,22,33,SPECI ETAD 012233Z AUTO 21018G26KT 9999 SCT007 OVC014 11/10 A2977 RMK AO2 PK WND 21026/2227 RAE2228 OVC V BKN CIG 006 RWY23 SLP084 $=
ETAD,2012,01,01,22,34,SPECI ETAD 012234Z AUTO 22018G26KT 9999 SCT009 OVC016 11/10 A2977 RMK AO2 PK WND 21026/2227 RAE2228 CIG 006 RWY23 SLP084 $=
ETAD,2012,01,01,22,37,SPECI ETAD 012237Z AUTO 22018G26KT 9999 SCT007 BKN014 OVC020 11/10 A2977 RMK AO2 PK WND 21026/2227 RAE2228 CIG 007 RWY23 SLP084 $=
ETAD,2012,01,01,22,40,SPECI ETAD 012240Z AUTO 22016G23KT 9999 SCT009 OVC016 11/10 A2977 RMK AO2 PK WND 21026/2227 RAE2228 SLP084 $=
ETAD,2012,01,01,22,44,SPECI ETAD 012244Z AUTO 22019G23KT 9999 FEW007 OVC014 11/10 A2977 RMK AO2 PK WND 21026/2227 RAE2228 OVC V BKN SLP083 $=
ETAD,2012,01,01,22,45,SPECI ETAD 012245Z AUTO 22018G23KT 9999 SCT010 OVC016 11/10 A2977 RMK AO2 PK WND 21026/2227 RAE2228 SLP084 $=
ETAD,2012,01,01,22,50,SPECI ETAD 012250Z AUTO 22019G27KT 9999 SCT010 OVC015 11/10 A2977 RMK AO2 PK WND 22027/2249 RAE2228 SLP082 $=
ETAD,2012,01,01,22,53,SPECI ETAD 012253Z AUTO 22016G27KT 9999 BKN013 OVC018 11/10 A2977 RMK AO2 PK WND 22027/2249 RAE2228 BKN V OVC SLP082 $=
ETAD,2012,01,01,22,55,METAR ETAD 012255Z AUTO 22016G27KT 9999 OVC012 11/10 A2977 RMK AO2 PK WND 22027/2249 RAE2228 CIG 009V017 OVC V BKN SLP082 P0000 T01070099 401090091 $=
ETAR,2012,01,01,00,01,SPECI ETAR 010001Z AUTO 24010KT 9999 BKN013 OVC017 11/09 A2995 RMK AO2 OVC V BKN SLP149=
ETAR,2012,01,01,00,15,SPECI ETAR 010015Z AUTO 24013KT 9999 OVC012 11/09 A2995 RMK AO2 OVC V BKN SLP148=
ETAR,2012,01,01,00,26,SPECI ETAR 010026Z AUTO 24012KT 9999 OVC015 11/09 A2995 RMK AO2 SLP149=
ETAR,2012,01,01,00,28,SPECI ETAR 010028Z AUTO 24015KT 9999 BKN014 OVC020 11/09 A2995 RMK AO2 SLP148=
ETAR,2012,01,01,00,34,SPECI ETAR 010034Z AUTO 24013KT 9999 BKN015 BKN021 OVC039 11/09 A2995 RMK AO2 SLP148=
ETAR,2012,01,01,00,40,SPECI ETAR 010040Z AUTO 25011KT 9999 BKN014 BKN019 OVC039 11/09 A2995 RMK AO2 BKN014 V SCT SLP149=
ETAR,2012,01,01,00,42,SPECI ETAR 010042Z AUTO 24012KT 9999 BKN016 BKN039 11/09 A2995 RMK AO2 SLP149=
ETAR,2012,01,01,00,47,SPECI ETAR 010047Z AUTO 24011KT 9999 BKN015 BKN020 BKN039 11/09 A2995 RMK AO2 SLP149=
ETAR,2012,01,01,00,55,METAR ETAR 010055Z AUTO 24012KT 9999 BKN015 BKN039 11/09 A2995 RMK AO2 CIG 013V018 SLP148 T01060091=
ETAR,2012,01,01,01,07,SPECI ETAR 010107Z AUTO 24010KT 9999 BKN016 11/09 A2996 RMK AO2 CIG 013V020 SLP148=
ETAR,2012,01,01,01,09,SPECI ETAR 010109Z AUTO 24010KT 9999 BKN015 11/09 A2996 RMK AO2 CIG 014V019 SLP148=
ETAR,2012,01,01,01,23,SPECI ETAR 010123Z AUTO 24009KT 9999 BKN017 11/09 A2995 RMK AO2 BKN V OVC SLP148=
ETAR,2012,01,01,01,29,SPECI ETAR 010129Z AUTO 24010G17KT 9999 BKN014 BKN020 11/09 A2995 RMK AO2 BKN020 V OVC SLP148=
ETAR,2012,01,01,01,40,SPECI ETAR 010140Z AUTO 24012KT 9999 BKN016 OVC020 11/09 A2996 RMK AO2 OVC V BKN SLP149=
ETAR,2012,01,01,01,45,SPECI ETAR 010145Z AUTO 23009KT 9999 SCT014 BKN020 11/09 A2995 RMK AO2 SLP148=
ETAR,2012,01,01,01,55,METAR ETAR 010155Z AUTO 22008KT 9999 SCT015 BKN024 11/09 A2995 RMK AO2 CIG 021V027 SLP148 T01100092=
ETAR,2012,01,01,02,16,SPECI ETAR 010216Z AUTO 25009G19KT 9999 SCT015 OVC023 11/09 A2996 RMK AO2 CIG 019V027 CIG 016 RWY08 SLP150=
ETAR,2012,01,01,02,24,SPECI ETAR 010224Z AUTO 24010KT 200V280 9999 BKN013 BKN019 OVC025 11/09 A2996 RMK AO2 SLP151=
ETAR,2012,01,01,02,28,SPECI ETAR 010228Z AUTO 24011KT 9999 SCT013 BKN019 BKN024 OVC044 11/09 A2996 RMK AO2 CIG 017V022 SCT V BKN SLP151=
ETAR,2012,01,01,02,30,SPECI ETAR 010230Z AUTO 24010KT 9999 BKN013 BKN022 OVC044 11/09 A2996 RMK AO2 CIG 012V018 SLP151=
ETAR,2012,01,01,02,33,SPECI ETAR 010233Z AUTO 24009KT 9999 SCT013 BKN022 OVC044 11/09 A2996 RMK AO2 SLP150=
ETAR,2012,01,01,02,41,SPECI ETAR 010241Z AUTO 24012KT 9999 FEW013 BKN019 BKN025 OVC041 11/09 A2996 RMK AO2 BKN019 V SCT SLP150=
ETAR,2012,01,01,02,43,SPECI ETAR 010243Z AUTO 24010KT 9999 FEW013 SCT019 BKN025 OVC041 11/09 A2996 RMK AO2 CIG 023V028 FEW V SCT SLP150=
ETAR,2012,01,01,02,55,METAR ETAR 010255Z AUTO 23009G16KT 9999 FEW013 BKN018 BKN025 OVC041 11/09 A2996 RMK AO2 CIG 017V021 SLP151 T01120092 53003=
ETAR,2012,01,01,02,56,SPECI ETAR 010256Z AUTO 23010G16KT 9999 FEW013 BKN021 BKN041 11/09 A2996 RMK AO2 SLP151=
ETAR,2012,01,01,03,02,SPECI ETAR 010302Z AUTO 23008KT 9999 BKN015 BKN021 OVC039 11/09 A2996 RMK AO2 SLP151=
ETAR,2012,01,01,03,04,SPECI ETAR 010304Z AUTO 23007KT 9999 SCT013 BKN019 OVC025 11/09 A2996 RMK AO2 OVC V BKN CIG 014 RWY08 SLP151=
ETAR,2012,01,01,03,06,SPECI ETAR 010306Z AUTO 23007KT 9999 BKN013 BKN019 OVC025 11/09 A2996 RMK AO2 OVC V BKN SLP151=
ETAR,2012,01,01,03,10,SPECI ETAR 010310Z AUTO 23007KT 9999 BKN015 OVC023 11/09 A2996 RMK AO2 OVC V BKN SLP151=
ETAR,2012,01,01,03,16,SPECI ETAR 010316Z AUTO 23008KT 9999 OVC016 11/09 A2996 RMK AO2 SLP151=
ETAR,2012,01,01,03,20,SPECI ETAR 010320Z AUTO 23010KT 9999 OVC015 11/09 A2996 RMK AO2 SLP151=
ETAR,2012,01,01,03,21,SPECI ETAR 010321Z AUTO 23010KT 9999 -RA OVC015 11/09 A2996 RMK AO2 RAB0321 SLP150=
ETAR,2012,01,01,03,33,SPECI ETAR 010333Z AUTO 23007KT 9999 OVC015 11/10 A2996 RMK AO2 RAB0321E0333 OVC V BKN SLP150=
ETAR,2012,01,01,03,34,SPECI ETAR 010334Z AUTO 24008KT 9999 OVC014 11/10 A2996 RMK AO2 RAB0321E0333 OVC V BKN SLP150=
ETAR,2012,01,01,03,45,SPECI ETAR 010345Z AUTO 22009KT 9999 BKN012 OVC019 11/10 A2996 RMK AO2 RAB0321E0333 SLP148=
ETAR,2012,01,01,03,48,SPECI ETAR 010348Z AUTO 23008KT 9999 BKN014 OVC019 11/10 A2996 RMK AO2 RAB0321E0333 BKN V SCT SLP148=
ETAR,2012,01,01,03,55,METAR ETAR 010355Z AUTO 23007KT 9999 BKN013 OVC018 11/10 A2996 RMK AO2 RAB0321E0333 SLP149 P0000 T01070096=
ETAR,2012,01,01,03,56,SPECI ETAR 010356Z AUTO 23006KT 9999 BKN012 OVC018 11/10 A2996 RMK AO2 SLP148=
ETAR,2012,01,01,04,00,SPECI ETAR 010400Z AUTO 24009KT 9999 BKN011 OVC018 11/10 A2996 RMK AO2 SLP148=
ETAR,2012,01,01,04,13,SPECI ETAR 010413Z AUTO 24009G16KT 9999 BKN010 OVC017 11/10 A2996 RMK AO2 SLP148=
ETAR,2012,01,01,04,28,SPECI ETAR 010428Z AUTO 24011KT 9999 OVC011 11/09 A2996 RMK AO2 CIG 009V013 SLP148=
ETAR,2012,01,01,04,53,SPECI ETAR 010453Z AUTO 24009G18KT 9999 OVC012 11/10 A2997 RMK AO2 CIG 010V015 SLP151=
ETAR,2012,01,01,04,55,METAR ETAR 010455Z AUTO 23012G18KT 9999 OVC012 11/10 A2997 RMK AO2 CIG 010V015 SLP151 T01110095=
ETAR,2012,01,01,04,56,SPECI ETAR 010456Z AUTO 24010G18KT 9999 OVC011 11/09 A2997 RMK AO2 CIG 010V015 SLP151=
ETAR,2012,01,01,05,09,SPECI ETAR 010509Z AUTO 24011G17KT 9999 BKN012 OVC017 11/10 A2997 RMK AO2 SLP151=
ETAR,2012,01,01,05,12,SPECI ETAR 010512Z AUTO 24008G17KT 9999 BKN011 OVC017 11/10 A2997 RMK AO2 SLP151=
ETAR,2012,01,01,05,15,SPECI ETAR 010515Z AUTO 24010G17KT 9999 SCT011 OVC018 11/10 A2997 RMK AO2 CIG 013 RWY08 SLP151=
ETAR,2012,01,01,05,21,SPECI ETAR 010521Z AUTO 23007KT 9999 BKN011 OVC018 11/10 A2996 RMK AO2 BKN V SCT SLP150=
ETAR,2012,01,01,05,55,METAR ETAR 010555Z AUTO 23010G18KT 9999 OVC011 11/10 A2996 RMK AO2 SLP151 60000 T01120096 10112 20106 53001=
ETAR,2012,01,01,06,12,SPECI ETAR 010612Z AUTO 23011KT 9999 OVC013 11/10 A2997 RMK AO2 SLP151=
ETAR,2012,01,01,06,26,SPECI ETAR 010626Z AUTO 23009G15KT 9999 OVC012 11/10 A2997 RMK AO2 SLP152=
ETAR,2012,01,01,06,29,SPECI ETAR 010629Z AUTO 23009G15KT 9999 OVC011 11/10 A2997 RMK AO2 OVC V BKN SLP153=
ETAR,2012,01,01,06,55,METAR ETAR 010655Z AUTO 22011G17KT 9999 OVC011 11/10 A2997 RMK AO2 CIG 010V015 SLP153 T01120096=
ETAR,2012,01,01,07,37,SPECI ETAR 010737Z AUTO 23007G17KT 9999 BKN010 OVC015 11/10 A2999 RMK AO2 SLP157=
ETAR,2012,01,01,07,52,SPECI ETAR 010752Z AUTO 23007KT 9999 OVC011 11/10 A2998 RMK AO2 SLP156=
ETAR,2012,01,01,07,55,METAR ETAR 010755Z AUTO 22007KT 9999 OVC011 11/10 A2998 RMK AO2 SLP155 T01110097=
ETAR,2012,01,01,08,11,SPECI ETAR 010811Z AUTO 23008G16KT 9999 BKN012 BKN017 11/10 A2999 RMK AO2 CIG 010V016 SLP157=
ETAR,2012,01,01,08,34,SPECI ETAR 010834Z AUTO 23011KT 9999 OVC011 11/10 A2999 RMK AO2 OVC V BKN SLP159=
ETAR,2012,01,01,08,47,SPECI ETAR 010847Z AUTO 23008KT 9999 BKN012 OVC017 11/10 A2999 RMK AO2 SLP159=
ETAR,2012,01,01,08,55,METAR ETAR 010855Z AUTO 22006G16KT 9999 SCT011 OVC021 11/10 A2999 RMK AO2 CIG 010 RWY08 SLP159 T01120098 52009=
ETAR,2012,01,01,08,57,SPECI ETAR 010857Z AUTO 22010G16KT 9999 SCT011 OVC019 11/10 A2999 RMK AO2 CIG 010 RWY08 SLP158=
ETAR,2012,01,01,09,05,SPECI ETAR 010905Z AUTO 21009KT 9999 BKN015 OVC022 11/10 A2999 RMK AO2 SLP159=
ETAR,2012,01,01,09,10,SPECI ETAR 010910Z AUTO 21008KT 9999 BKN016 OVC022 11/10 A2999 RMK AO2 SLP159=
ETAR,2012,01,01,09,17,SPECI ETAR 010917Z AUTO 22008KT 9999 BKN018 11/10 A3000 RMK AO2 SLP160=
ETAR,2012,01,01,09,21,SPECI ETAR 010921Z AUTO 22007KT 9999 FEW011 OVC018 11/10 A3000 RMK AO2 SLP160=
ETAR,2012,01,01,09,32,SPECI ETAR 010932Z AUTO 22011G16KT 9999 -RA FEW011 OVC017 11/10 A2999 RMK AO2 RAB0932 SLP159=
ETAR,2012,01,01,09,43,SPECI ETAR 010943Z AUTO 22010G17KT 9999 SCT011 OVC018 11/10 A3000 RMK AO2 RAB0932E0943DZB0933E0934 CIG 013 RWY08 SLP160=
ETAR,2012,01,01,09,52,SPECI ETAR 010952Z AUTO 22010G16KT 9999 BKN011 OVC017 11/10 A3000 RMK AO2 RAB0932E0943DZB0933E0934 SLP160=
ETAR,2012,01,01,09,55,METAR ETAR 010955Z AUTO 22011G16KT 9999 BKN011 OVC017 11/10 A2999 RMK AO2 RAB0932E0943DZB0933E0934 SLP160 P0000 T01130099=
ETAR,2012,01,01,10,02,SPECI ETAR 011002Z AUTO 22010G19KT 9999 -DZ BKN011 OVC017 11/10 A2999 RMK AO2 DZB1002 BKN V SCT SLP160=
ETAR,2012,01,01,10,03,SPECI ETAR 011003Z AUTO 22009G19KT 9000 -DZ BR SCT011 OVC016 11/10 A2999 RMK AO2 DZB1002 SLP159=
ETAR,2012,01,01,10,07,SPECI ETAR 011007Z AUTO 23010G16KT 9000 -RA BR OVC013 11/10 A2999 RMK AO2 RAB1005DZB1002E1005 SLP159=
ETAR,2012,01,01,10,15,SPECI ETAR 011015Z AUTO 22009KT 9999 -RA OVC012 11/10 A2999 RMK AO2 RAB1005DZB1002E1005 SLP159=
ETAR,2012,01,01,10,16,SPECI ETAR 011016Z AUTO 22010KT 9999 OVC012 11/10 A3000 RMK AO2 RAB1005E1016DZB1002E1005 SLP160=
ETAR,2012,01,01,10,22,SPECI ETAR 011022Z AUTO 23011KT 9999 BKN010 OVC015 11/10 A2999 RMK AO2 RAB1005E1016DZB1002E1005 SLP159=
ETAR,2012,01,01,10,31,SPECI ETAR 011031Z AUTO 22012G19KT 9999 OVC012 11/10 A2999 RMK AO2 RAB1005E1016DZB1002E1005 OVC V BKN SLP157=
ETAR,2012,01,01,10,36,SPECI ETAR 011036Z AUTO 23010G17KT 9999 BKN011 OVC017 12/10 A2999 RMK AO2 RAB1005E1016DZB1002E1005 SLP157=
ETAR,2012,01,01,10,45,SPECI ETAR 011045Z AUTO 23009G18KT 9999 BKN013 OVC017 12/10 A2999 RMK AO2 RAB1005E1016DZB1002E1005 SLP158=
ETAR,2012,01,01,10,55,METAR ETAR 011055Z AUTO 24010G16KT 9999 BKN013 OVC018 12/10 A2999 RMK AO2 RAB1005E1016DZB1002E1005 OVC V BKN SLP158 P0000 T01180101=
ETAR,2012,01,01,11,09,SPECI ETAR 011109Z AUTO 23010KT 9999 -RA BKN013 12/10 A2999 RMK AO2 RAB1109 SLP158=
ETAR,2012,01,01,11,19,SPECI ETAR 011119Z AUTO 23011KT 9999 BKN013 12/10 A2999 RMK AO2 RAB1109E1110DZB1110E1119 SLP158=
ETAR,2012,01,01,11,20,SPECI ETAR 011120Z AUTO 23010KT 9999 BKN015 12/10 A2999 RMK AO2 RAB1109E1110DZB1110E1119 SLP157=
ETAR,2012,01,01,11,26,SPECI ETAR 011126Z AUTO 24013KT 9999 BKN014 OVC020 12/10 A2999 RMK AO2 RAB1109E1110DZB1110E1119 OVC V BKN SLP157=
ETAR,2012,01,01,11,45,SPECI ETAR 011145Z AUTO 22007KT 9999 -RA BKN013 OVC020 12/10 A2998 RMK AO2 RAB1109E1110B1145DZB1110E1119 BKN V SCT SLP153=
ETAR,2012,01,01,11,46,SPECI ETAR 011146Z AUTO 22008KT 9999 -RA BKN015 OVC020 12/10 A2997 RMK AO2 RAB1109E1110B1145DZB1110E1119 SLP153=
ETAR,2012,01,01,11,50,SPECI ETAR 011150Z AUTO 22007KT 9999 -RA BKN014 OVC020 12/10 A2997 RMK AO2 RAB1109E1110B1145DZB1110E1119 SLP152=
ETAR,2012,01,01,11,53,SPECI ETAR 011153Z AUTO 22008KT 9999 -RA OVC016 12/10 A2997 RMK AO2 RAB1109E1110B1145DZB1110E1119 SLP151=
ETAR,2012,01,01,11,54,SPECI ETAR 011154Z AUTO 23008KT 9999 OVC016 12/10 A2997 RMK AO2 RAB1109E1110B1145E1154DZB1110E1119 SLP151=
ETAR,2012,01,01,11,56,SPECI ETAR 011156Z AUTO 23010G15KT 9999 BKN014 OVC020 12/10 A2997 RMK AO2 SLP151=
ETAR,2012,01,01,11,59,SPECI ETAR 011159Z AUTO 23012KT 9999 BKN016 OVC025 12/10 A2997 RMK AO2 SLP151=
ETAR,2012,01,01,12,00,ETAR NIL=
ETAR,2012,01,01,12,03,SPECI ETAR 011203Z AUTO 22011G17KT 9999 SCT016 BKN023 OVC028 12/10 A2997 RMK AO2 SLP150=
ETAR,2012,01,01,12,13,SPECI ETAR 011213Z AUTO 22009G17KT 9999 BKN017 OVC025 12/10 A2996 RMK AO2 SLP148=
ETAR,2012,01,01,12,19,SPECI ETAR 011219Z AUTO 23009KT 9999 BKN020 OVC027 12/10 A2996 RMK AO2 CIG 015 RWY08 SLP148=
ETAR,2012,01,01,12,24,SPECI ETAR 011224Z AUTO 22009KT 9999 FEW013 BKN020 OVC027 12/10 A2996 RMK AO2 OVC V BKN CIG 014 RWY08 SLP148=
ETAR,2012,01,01,12,25,SPECI ETAR 011225Z AUTO 22009KT 9999 FEW012 BKN019 OVC026 12/10 A2996 RMK AO2 OVC V BKN CIG 014 RWY08 SLP149=
ETAR,2012,01,01,12,37,SPECI ETAR 011237Z AUTO 22006KT 9999 -DZ FEW010 OVC017 12/10 A2996 RMK AO2 DZB1237 SLP147=
ETAR,2012,01,01,12,40,SPECI ETAR 011240Z AUTO VRB06KT 9000 -DZ BR FEW010 OVC016 12/10 A2996 RMK AO2 DZB1237 SLP147=
ETAR,2012,01,01,12,47,SPECI ETAR 011247Z AUTO 21010KT 9999 FEW011 OVC017 12/10 A2995 RMK AO2 DZB1237E1247 SLP146=
ETAR,2012,01,01,12,55,METAR ETAR 011255Z AUTO 22009KT 9999 SCT010 OVC017 12/10 A2995 RMK AO2 DZB1237E1247 SLP145 P0000 T01180104=
ETAR,2012,01,01,12,56,SPECI ETAR 011256Z AUTO 22009G14KT 9999 OVC015 12/10 A2995 RMK AO2 SLP145=
ETAR,2012,01,01,13,01,SPECI ETAR 011301Z AUTO 23009G14KT 9999 BKN012 OVC017 12/10 A2995 RMK AO2 SLP145=
ETAR,2012,01,01,13,05,SPECI ETAR 011305Z AUTO 22011G16KT 9999 SCT012 OVC018 12/10 A2995 RMK AO2 SCT V BKN CIG 012 RWY08 SLP144=
ETAR,2012,01,01,13,12,SPECI ETAR 011312Z AUTO 22010G16KT 9999 OVC015 12/10 A2995 RMK AO2 SLP144=
ETAR,2012,01,01,13,16,SPECI ETAR 011316Z AUTO 23009G16KT 200V260 9999 OVC014 12/10 A2995 RMK AO2 SLP145=
ETAR,2012,01,01,13,27,SPECI ETAR 011327Z AUTO 22009KT 9999 SCT012 OVC017 12/10 A2995 RMK AO2 SLP144=
ETAR,2012,01,01,13,37,SPECI ETAR 011337Z AUTO 23007G15KT 9999 OVC014 12/10 A2995 RMK AO2 SLP143=
ETAR,2012,01,01,13,47,SPECI ETAR 011347Z AUTO 23007KT 9000 BR SCT011 OVC016 12/10 A2994 RMK AO2 SLP143=
ETAR,2012,01,01,13,51,SPECI ETAR 011351Z AUTO 22010KT 9000 -DZ BR SCT011 OVC016 12/10 A2995 RMK AO2 DZB1351 SLP143=
ETAR,2012,01,01,13,55,METAR ETAR 011355Z AUTO 22010G15KT 8000 -DZ BR SCT011 OVC016 12/10 A2995 RMK AO2 DZB1351 SLP143 P0000 T01180105=
ETAR,2012,01,01,13,58,SPECI ETAR 011358Z AUTO 21008G15KT 8000 -DZ BR OVC014 12/10 A2995 RMK AO2 SLP143=
ETAR,2012,01,01,14,04,SPECI ETAR 011404Z AUTO 23009G16KT 9000 -DZ BR FEW009 SCT013 OVC018 12/10 A2995 RMK AO2 FEW V SCT SLP144=
ETAR,2012,01,01,14,52,SPECI ETAR 011452Z AUTO 21007KT 9000 -RA BR OVC020 12/10 A2994 RMK AO2 RAB1416DZE1438 SLP143=
ETAR,2012,01,01,14,54,SPECI ETAR 011454Z AUTO 22007KT 9000 -RA BR FEW010 OVC020 12/10 A2994 RMK AO2 RAB1416DZE1438 SLP142=
ETAR,2012,01,01,15,00,ETAR NIL=
ETAR,2012,01,01,15,29,SPECI ETAR 011529Z AUTO 21008KT 190V260 9999 -DZ FEW009 OVC019 11/10 A2995 RMK AO2 RAE1522DZB1522 SLP143=
ETAR,2012,01,01,15,32,SPECI ETAR 011532Z AUTO 22007KT 9999 FEW009 OVC018 11/10 A2995 RMK AO2 RAE1522DZB1522E1532 SLP143=
ETAR,2012,01,01,15,47,SPECI ETAR 011547Z AUTO 21007KT 9999 BKN010 OVC016 12/10 A2995 RMK AO2 RAE1522DZB1522E1532 BKN V SCT SLP143=
ETAR,2012,01,01,15,49,SPECI ETAR 011549Z AUTO 22007KT 9999 BKN011 OVC016 12/10 A2994 RMK AO2 RAE1522DZB1522E1532 BKN V SCT SLP143=
ETAR,2012,01,01,15,53,SPECI ETAR 011553Z AUTO 22008KT 190V250 9999 SCT011 OVC016 12/10 A2994 RMK AO2 RAE1522DZB1522E1532 SLP143=
ETAR,2012,01,01,15,55,METAR ETAR 011555Z AUTO 22007KT 9999 SCT011 OVC016 12/10 A2994 RMK AO2 RAE1522DZB1522E1532 SLP143 P0001 T01150104=
ETAR,2012,01,01,15,59,SPECI ETAR 011559Z AUTO 22007KT 9999 OVC013 12/10 A2994 RMK AO2 SLP142=
ETAR,2012,01,01,16,01,SPECI ETAR 011601Z AUTO 21008KT 9999 SCT011 OVC016 12/10 A2994 RMK AO2 SLP142=
ETAR,2012,01,01,16,03,SPECI ETAR 011603Z AUTO 22006KT 9999 OVC013 12/10 A2994 RMK AO2 SLP142=
ETAR,2012,01,01,16,06,SPECI ETAR 011606Z AUTO 21007KT 9999 OVC015 12/10 A2994 RMK AO2 SLP140=
ETAR,2012,01,01,16,15,SPECI ETAR 011615Z AUTO 21009G17KT 9999 FEW011 OVC016 12/10 A2994 RMK AO2 SLP140=
ETAR,2012,01,01,16,18,SPECI ETAR 011618Z AUTO 21008G17KT 9999 OVC014 12/10 A2994 RMK AO2 SLP140=
ETAR,2012,01,01,16,24,SPECI ETAR 011624Z AUTO 22009G16KT 9999 FEW011 OVC016 12/10 A2994 RMK AO2 SLP140=
ETAR,2012,01,01,16,30,SPECI ETAR 011630Z AUTO 21013G19KT 9999 -RA FEW010 OVC016 12/10 A2994 RMK AO2 RAB1630 SLP140=
ETAR,2012,01,01,16,35,SPECI ETAR 011635Z AUTO 22011G19KT 9000 -RA BR OVC015 12/10 A2994 RMK AO2 RAB1630 SLP140=
ETAR,2012,01,01,16,37,SPECI ETAR 011637Z AUTO 22010G19KT 9000 -RA BR OVC014 12/10 A2994 RMK AO2 RAB1630 SLP140=
ETAR,2012,01,01,16,43,SPECI ETAR 011643Z AUTO 21013KT 9999 -DZ FEW010 OVC015 12/10 A2994 RMK AO2 RAB1630E1643DZB1643 SLP140=
ETAR,2012,01,01,16,45,SPECI ETAR 011645Z AUTO 22011KT 9999 SCT010 OVC015 12/10 A2994 RMK AO2 RAB1630E1645DZB1643E1644 SLP140=
ETAR,2012,01,01,16,51,SPECI ETAR 011651Z AUTO 22010KT 9999 BKN010 OVC015 12/10 A2994 RMK AO2 RAB1630E1645DZB1643E1644 SLP140=
ETAR,2012,01,01,16,55,METAR ETAR 011655Z AUTO 22007KT 9999 BKN010 OVC015 12/10 A2994 RMK AO2 RAB1630E1645DZB1643E1644 SLP140 P0000 T01170104=
ETAR,2012,01,01,17,00,SPECI ETAR 011700Z AUTO 22010KT 9999 OVC012 12/10 A2994 RMK AO2 SLP139=
ETAR,2012,01,01,17,05,SPECI ETAR 011705Z AUTO 22010G16KT 200V270 9999 -RA OVC012 12/10 A2993 RMK AO2 RAB1705 SLP139=
ETAR,2012,01,01,17,09,SPECI ETAR 011709Z AUTO 21012G17KT 190V250 9999 -RA OVC011 12/10 A2993 RMK AO2 RAB1705 SLP138=
ETAR,2012,01,01,17,17,SPECI ETAR 011717Z AUTO 22011G20KT 9999 -RA BKN012 OVC019 12/10 A2993 RMK AO2 RAB1705 SLP138=
ETAR,2012,01,01,17,19,SPECI ETAR 011719Z AUTO 21010G20KT 9999 BKN014 OVC021 12/10 A2993 RMK AO2 RAB1705E1719 CIG 009V018 SLP138=
ETAR,2012,01,01,17,35,SPECI ETAR 011735Z AUTO 21011KT 9999 BKN015 OVC021 12/10 A2993 RMK AO2 RAB1705E1719 CIG 011V019 OVC V BKN SLP138=
ETAR,2012,01,01,17,37,SPECI ETAR 011737Z AUTO 21008KT 9999 BKN014 BKN020 12/10 A2993 RMK AO2 RAB1705E1719 CIG 012V018 BKN020 V OVC SLP137=
ETAR,2012,01,01,17,39,SPECI ETAR 011739Z AUTO 21010KT 9999 BKN016 BKN022 12/10 A2993 RMK AO2 RAB1705E1719 CIG 012V019 SLP137=
ETAR,2012,01,01,17,41,SPECI ETAR 011741Z AUTO 21012KT 9999 BKN014 BKN021 12/10 A2993 RMK AO2 RAB1705E1719 CIG 012V018 BKN014 V SCT SLP136=
ETAR,2012,01,01,17,43,SPECI ETAR 011743Z AUTO 21012G18KT 9999 BKN016 BKN021 12/10 A2993 RMK AO2 RAB1705E1719 CIG 012V019 SLP136=
ETAR,2012,01,01,17,46,SPECI ETAR 011746Z AUTO 21011G18KT 9999 SCT015 BKN021 12/10 A2993 RMK AO2 RAB1705E1719 CIG 015 RWY08 SLP136=
ETAR,2012,01,01,17,55,METAR ETAR 011755Z AUTO 21011G21KT 9999 SCT013 BKN020 12/10 A2993 RMK AO2 RAB1705E1719 SLP135 P0000 60002 T01200101 10122 20115 58006=
ETAR,2012,01,01,17,59,SPECI ETAR 011759Z AUTO 21011G21KT 180V240 9999 BKN016 BKN022 12/10 A2992 RMK AO2 SLP135=
ETAR,2012,01,01,18,03,SPECI ETAR 011803Z AUTO 22011G18KT 9999 FEW014 BKN019 12/10 A2992 RMK AO2 SLP134=
ETAR,2012,01,01,18,07,SPECI ETAR 011807Z AUTO 21013G18KT 9999 FEW013 BKN017 12/10 A2992 RMK AO2 SLP134=
ETAR,2012,01,01,18,44,SPECI ETAR 011844Z AUTO 21011G20KT 9999 BKN012 OVC018 12/10 A2991 RMK AO2 BKN V SCT SLP132=
ETAR,2012,01,01,18,51,SPECI ETAR 011851Z AUTO 22010G21KT 9999 SCT012 OVC018 12/10 A2991 RMK AO2 OVC V BKN SLP131=
ETAR,2012,01,01,18,54,SPECI ETAR 011854Z AUTO 22013G21KT 9999 BKN015 12/10 A2991 RMK AO2 BKN V OVC SLP131=
ETAR,2012,01,01,18,59,SPECI ETAR 011859Z AUTO 22013G21KT 9999 BKN014 12/10 A2991 RMK AO2 SLP130=
ETAR,2012,01,01,19,00,ETAR NIL=
ETAR,2012,01,01,19,06,SPECI ETAR 011906Z AUTO 22012G21KT 9999 SCT014 BKN026 12/10 A2991 RMK AO2 SLP130=
ETAR,2012,01,01,19,14,SPECI ETAR 011914Z AUTO 22012G21KT 9999 BKN017 BKN025 12/10 A2991 RMK AO2 SLP130=
ETAR,2012,01,01,19,18,SPECI ETAR 011918Z AUTO 22010G20KT 9999 BKN015 BKN022 BKN027 12/10 A2991 RMK AO2 SLP129=
ETAR,2012,01,01,19,31,SPECI ETAR 011931Z AUTO 22012G20KT 9999 BKN014 BKN021 OVC027 12/10 A2990 RMK AO2 CIG 012V018 BKN021 V OVC SLP128=
ETAR,2012,01,01,19,37,SPECI ETAR 011937Z AUTO 22011G21KT 9999 BKN015 12/10 A2990 RMK AO2 CIG 012V019 SLP127=
ETAR,2012,01,01,19,53,SPECI ETAR 011953Z AUTO 22011G20KT 9999 BKN014 BKN020 12/10 A2989 RMK AO2 CIG 012V018 SLP124=
ETAR,2012,01,01,19,55,METAR ETAR 011955Z AUTO 21013G20KT 9999 BKN016 BKN023 12/10 A2989 RMK AO2 CIG 012V019 SLP123 T01220100=
ETAR,2012,01,01,20,00,SPECI ETAR 012000Z AUTO 21011G19KT 180V240 9999 BKN017 BKN023 12/10 A2989 RMK AO2 CIG 012V021 SLP123=
ETAR,2012,01,01,20,05,SPECI ETAR 012005Z AUTO 21011G19KT 9999 BKN016 BKN021 12/10 A2989 RMK AO2 CIG 014V019 BKN016 V SCT SLP124=
ETAR,2012,01,01,20,20,SPECI ETAR 012020Z AUTO 22014G20KT 170V240 9999 BKN018 12/10 A2989 RMK AO2 CIG 014V022 SLP124=
ETAR,2012,01,01,20,44,SPECI ETAR 012044Z AUTO 21010G19KT 9999 BKN020 OVC024 12/10 A2989 RMK AO2 CIG 015V024 SLP122=
ETAR,2012,01,01,20,47,SPECI ETAR 012047Z AUTO 21009G19KT 170V240 9999 BKN018 OVC024 12/10 A2989 RMK AO2 CIG 016V022 SLP121=
ETAR,2012,01,01,20,55,METAR ETAR 012055Z AUTO 21011G21KT 9999 SCT018 BKN024 12/10 A2988 RMK AO2 BKN V OVC CIG 018 RWY08 SLP120 T01240098 57015=
ETAR,2012,01,01,21,42,SPECI ETAR 012142Z AUTO 21012G15KT 9999 OVC019 12/10 A2987 RMK AO2 PK WND 21027/2107 CIG 018V023 SLP116=
ETAR,2012,01,01,21,48,SPECI ETAR 012148Z AUTO 21011G18KT 9999 OVC020 12/10 A2987 RMK AO2 PK WND 21027/2107 CIG 018V023 SLP116=
ETAR,2012,01,01,21,53,SPECI ETAR 012153Z AUTO 21014G21KT 9999 OVC019 12/10 A2987 RMK AO2 PK WND 21027/2107 CIG 017V023 OVC V BKN SLP115=
ETAR,2012,01,01,21,55,METAR ETAR 012155Z AUTO 21012G21KT 9999 OVC019 12/10 A2987 RMK AO2 PK WND 21027/2107 CIG 017V023 SLP115 T01250095=
ETAR,2012,01,01,22,55,METAR ETAR 012255Z AUTO 21012G19KT 9999 OVC019 13/09 A2985 RMK AO2 CIG 017V022 SLP108 T01250094 401260104=
ETEB,2012,01,01,00,00,SPECI ETEB 010000Z AUTO 26009KT 4000 -RA BR OVC004 07/07 A2995 RMK AO2 SLP156=
ETEB,2012,01,01,00,17,SPECI ETEB 010017Z AUTO 25006KT 6000 -DZ BR OVC003 07/07 A2995 RMK AO2 RAE0011DZB0011 SLP156=
ETEB,2012,01,01,00,22,SPECI ETEB 010022Z AUTO 26007KT 8000 BR OVC003 07/07 A2995 RMK AO2 RAE0011DZB0011E0022 SLP156=
ETEB,2012,01,01,00,34,SPECI ETEB 010034Z AUTO 24007KT 9000 -DZ BR OVC003 07/07 A2995 RMK AO2 RAE0011DZB0011 SLP156=
ETEB,2012,01,01,00,42,SPECI ETEB 010042Z AUTO 24006KT 4800 -RA BR OVC003 07/07 A2994 RMK AO2 RAE0011B0036DZB0011E0036 SLP156=
ETEB,2012,01,01,00,55,METAR ETEB 010055Z AUTO 24005KT 4800 -RA BR OVC003 07/07 A2995 RMK AO2 RAE0011B0036DZB0011E0036 SLP156 P0003 T00730071=
ETEB,2012,01,01,01,17,SPECI ETEB 010117Z AUTO 25005KT 8000 BR OVC003 07/07 A2995 RMK AO2 RAE0101DZB0101E0117 SLP159=
ETEB,2012,01,01,01,23,SPECI ETEB 010123Z AUTO 24006KT 6000 -DZ BR OVC003 07/07 A2995 RMK AO2 RAE0101DZB0101 SLP159=
ETEB,2012,01,01,01,25,SPECI ETEB 010125Z AUTO 23005KT 4800 -DZ BR OVC003 07/07 A2995 RMK AO2 RAE0101DZB0101 SLP159=
ETEB,2012,01,01,01,55,METAR ETEB 010155Z AUTO 23005KT 4000 -DZ BR OVC003 07/07 A2996 RMK AO2 RAE0101DZB0101 SLP161 P0000 T00720071=
ETEB,2012,01,01,02,07,SPECI ETEB 010207Z AUTO 21005KT 2800 -DZ BR OVC003 07/07 A2996 RMK AO2 SLP161=
ETEB,2012,01,01,02,11,SPECI ETEB 010211Z AUTO 22005KT 3200 DZ BR OVC003 07/07 A2996 RMK AO2 SLP161=
ETEB,2012,01,01,02,26,SPECI ETEB 010226Z AUTO 23004KT 2800 DZ BR OVC004 07/07 A2996 RMK AO2 SLP161=
ETEB,2012,01,01,02,34,SPECI ETEB 010234Z AUTO 21004KT 3200 -RA BR OVC004 07/07 A2996 RMK AO2 RAB0231DZE0231 SLP161=
ETEB,2012,01,01,02,55,METAR ETEB 010255Z AUTO 20004KT 4000 -RA BR OVC004 07/07 A2996 RMK AO2 RAB0231DZE0250 SLP160 P0004 60007 T00720071 50003=
ETEB,2012,01,01,03,02,SPECI ETEB 010302Z AUTO 20004KT 6000 -RA BR OVC004 07/07 A2996 RMK AO2 SLP160=
ETEB,2012,01,01,03,19,SPECI ETEB 010319Z AUTO 19005KT 4800 -RA BR OVC003 07/07 A2996 RMK AO2 DZB0304E0313 SLP160=
ETEB,2012,01,01,03,32,SPECI ETEB 010332Z AUTO 20004KT 6000 -RA BR OVC004 07/07 A2996 RMK AO2 DZB0304E0313 SLP161=
ETEB,2012,01,01,03,55,METAR ETEB 010355Z AUTO 21005KT 9000 -DZ BR OVC004 08/08 A2997 RMK AO2 RAE0335DZB0304E0313B0335 SLP161 P0003 T00770075=
ETEB,2012,01,01,03,57,SPECI ETEB 010357Z AUTO 22005KT 9999 OVC004 08/08 A2997 RMK AO2 DZE0357 SLP162=
ETEB,2012,01,01,04,29,SPECI ETEB 010429Z AUTO 23004KT 9999 OVC005 08/08 A2997 RMK AO2 DZE0357 CIG 003V007 SLP163=
ETEB,2012,01,01,04,40,SPECI ETEB 010440Z AUTO 25009KT 9999 -DZ OVC005 08/08 A2997 RMK AO2 DZE0357B0440 CIG 003V006 SLP163=
ETEB,2012,01,01,04,55,METAR ETEB 010455Z AUTO 25009KT 9999 -DZ OVC005 08/08 A2997 RMK AO2 DZE0357B0440 CIG 004V008 SLP163 P0000 T00840083=
ETEB,2012,01,01,05,10,SPECI ETEB 010510Z AUTO 25006KT 9000 -DZ BR OVC004 08/08 A2998 RMK AO2 CIG 003V007 SLP165=
ETEB,2012,01,01,05,22,SPECI ETEB 010522Z AUTO 24007KT 9999 OVC004 08/08 A2997 RMK AO2 DZE0522 SLP164=
ETEB,2012,01,01,05,30,SPECI ETEB 010530Z AUTO 24007KT 9000 -RA BR OVC004 08/08 A2998 RMK AO2 RAB0530DZE0522 SLP164=
ETEB,2012,01,01,05,43,SPECI ETEB 010543Z AUTO 24009KT 9000 -DZ BR OVC005 08/08 A2998 RMK AO2 RAB0530E0543DZE0522B0543 SLP165=
ETEB,2012,01,01,05,55,METAR ETEB 010555Z AUTO 24008KT 9999 -DZ BKN005 OVC012 08/08 A2997 RMK AO2 RAB0530E0543DZE0522B0543 SLP162 P0003 60013 T00840081 10085 20069 51006=
ETEB,2012,01,01,05,58,SPECI ETEB 010558Z AUTO 24008KT 9999 SCT006 BKN010 BKN013 08/08 A2998 RMK AO2 DZE0552 SLP163=
ETEB,2012,01,01,06,05,SPECI ETEB 010605Z AUTO 24008KT 9999 BKN009 BKN014 08/08 A2998 RMK AO2 DZE0552 BKN014 V OVC SLP164=
ETEB,2012,01,01,06,55,METAR ETEB 010655Z AUTO 24007KT 9999 OVC008 08/08 A2998 RMK AO2 DZE0552 CIG 007V011 SLP164 P0000 T00840080=
ETEB,2012,01,01,07,08,SPECI ETEB 010708Z AUTO 24008KT 9999 -DZ OVC007 08/08 A2999 RMK AO2 DZB0708 CIG 005V010 SLP166=
ETEB,2012,01,01,07,12,SPECI ETEB 010712Z AUTO 23007KT 9999 -DZ OVC006 08/08 A2999 RMK AO2 DZB0708 CIG 005V009 SLP167=
ETEB,2012,01,01,07,23,SPECI ETEB 010723Z AUTO 23008KT 6000 -DZ BR OVC005 09/08 A2999 RMK AO2 DZB0708 CIG 005V007 SLP168=
ETEB,2012,01,01,07,41,SPECI ETEB 010741Z AUTO 23008KT 8000 -DZ BR OVC004 09/08 A3000 RMK AO2 DZB0708 SLP167=
ETEB,2012,01,01,07,55,METAR ETEB 010755Z AUTO 23008KT 9000 -DZ BR OVC004 09/08 A3000 RMK AO2 DZB0708 SLP168 P0000 T00860083=
ETEB,2012,01,01,08,10,SPECI ETEB 010810Z AUTO 24009KT 9999 OVC004 09/08 A3000 RMK AO2 DZE0810 SLP169=
ETEB,2012,01,01,08,15,SPECI ETEB 010815Z AUTO 24009KT 9999 -DZ OVC004 09/08 A3000 RMK AO2 CIG 004V007 SLP169=
ETEB,2012,01,01,08,24,SPECI ETEB 010824Z AUTO 25012KT 9000 BR OVC004 09/09 A3001 RMK AO2 DZE0824 CIG 004V006 SLP171=
ETEB,2012,01,01,08,36,SPECI ETEB 010836Z AUTO 25011KT 9999 OVC005 09/09 A3001 RMK AO2 DZE0824 SLP171=
ETEB,2012,01,01,08,55,METAR ETEB 010855Z AUTO 25012KT 9999 OVC005 09/09 A3001 RMK AO2 DZE0824 SLP171 P0001 60001 T00890086 52010=
ETEB,2012,01,01,08,58,SPECI ETEB 010858Z AUTO 25012KT 9999 OVC006 09/09 A3000 RMK AO2 SLP170=
ETEB,2012,01,01,09,21,SPECI ETEB 010921Z AUTO 24012KT 9999 OVC007 09/09 A3001 RMK AO2 CIG 005V008 SLP172=
ETEB,2012,01,01,09,40,SPECI ETEB 010940Z AUTO 24011G18KT 9999 OVC006 09/09 A3001 RMK AO2 CIG 006V008 SLP170=
ETEB,2012,01,01,09,55,METAR ETEB 010955Z AUTO 23010G18KT 9999 OVC006 09/09 A3000 RMK AO2 SLP168 T00920086=
ETEB,2012,01,01,10,13,SPECI ETEB 011013Z AUTO 24011KT 9999 OVC007 09/09 A3001 RMK AO2 CIG 006V010 SLP168=
ETEB,2012,01,01,10,47,SPECI ETEB 011047Z AUTO 23011KT 9999 -RA OVC007 09/09 A3001 RMK AO2 RAB1047 CIG 005V010 SLP169=
ETEB,2012,01,01,10,55,METAR ETEB 011055Z AUTO 23012KT 9999 -DZ OVC006 09/09 A3001 RMK AO2 RAB1047E1048DZB1048 CIG 005V009 SLP169 P0000 T00940088=
ETEB,2012,01,01,11,06,SPECI ETEB 011106Z AUTO 23009KT 9999 OVC006 09/09 A3001 RMK AO2 DZE1106 CIG 005V009 SLP169=
ETEB,2012,01,01,11,29,SPECI ETEB 011129Z AUTO 24012KT 9999 OVC007 09/09 A3000 RMK AO2 DZE1106 CIG 005V010 SLP167=
ETEB,2012,01,01,11,55,METAR ETEB 011155Z AUTO 24012KT 9999 OVC007 10/09 A3000 RMK AO2 DZE1106 CIG 007V009 SLP166 P0000 60001 70030 T00960088 10096 20083 58002=
ETEB,2012,01,01,12,10,SPECI ETEB 011210Z AUTO 24010KT 9999 OVC006 10/09 A3000 RMK AO2 CIG 005V009 SLP166=
ETEB,2012,01,01,12,12,SPECI ETEB 011212Z AUTO 24011KT 9999 -DZ OVC006 10/09 A3000 RMK AO2 DZB1212 CIG 005V009 SLP166=
ETEB,2012,01,01,12,22,SPECI ETEB 011222Z AUTO 23009KT 9000 -DZ BR OVC005 10/09 A3000 RMK AO2 DZB1212 SLP166=
ETEB,2012,01,01,12,29,SPECI ETEB 011229Z AUTO 23009KT 9999 OVC005 10/09 A3000 RMK AO2 DZB1212E1229 SLP165=
ETEB,2012,01,01,12,49,SPECI ETEB 011249Z AUTO 23008KT 9999 -RA OVC005 10/09 A3000 RMK AO2 RAB1249DZB1212E1229 OVC V BKN SLP165=
ETEB,2012,01,01,12,55,METAR ETEB 011255Z AUTO 23008KT 9999 -RA BKN005 OVC012 10/09 A3000 RMK AO2 RAB1249DZB1212E1229 BKN V OVC SLP165 P0000 T00950091=
ETEB,2012,01,01,12,56,SPECI ETEB 011256Z AUTO 22008KT 9000 -DZ BR BKN006 OVC012 10/09 A2999 RMK AO2 RAE1251DZB1251 SLP164=
ETEB,2012,01,01,13,02,SPECI ETEB 011302Z AUTO 23008KT 9999 -DZ BKN005 OVC009 10/09 A2999 RMK AO2 RAE1251DZB1251 SLP163=
ETEB,2012,01,01,13,04,SPECI ETEB 011304Z AUTO 23009KT 9999 BKN005 OVC014 10/09 A2999 RMK AO2 RAE1251DZB1251E1304 BKN V OVC SLP164=
ETEB,2012,01,01,13,09,SPECI ETEB 011309Z AUTO 23007KT 9999 BKN006 OVC012 10/09 A2999 RMK AO2 RAE1251DZB1251E1304 SLP163=
ETEB,2012,01,01,13,15,SPECI ETEB 011315Z AUTO 23009KT 9999 -DZ BKN006 OVC012 10/09 A2999 RMK AO2 RAE1251DZB1251 SLP163=
ETEB,2012,01,01,13,19,SPECI ETEB 011319Z AUTO 24010KT 9999 -DZ BKN007 OVC012 10/09 A2999 RMK AO2 RAE1251DZB1251 BKN V OVC SLP163=
ETEB,2012,01,01,13,23,SPECI ETEB 011323Z AUTO 23008KT 9999 OVC007 10/09 A2999 RMK AO2 RAE1251DZB1251E1323 OVC V BKN SLP162=
ETEB,2012,01,01,13,31,SPECI ETEB 011331Z AUTO 22008KT 9999 OVC010 10/09 A2999 RMK AO2 RAE1251DZB1251E1323 CIG 005V013 SLP161=
ETEB,2012,01,01,13,55,METAR ETEB 011355Z AUTO 23008KT 9999 OVC010 10/09 A2998 RMK AO2 RAE1251DZB1251E1323 CIG 008V013 SLP159 P0000 T00990093=
ETEB,2012,01,01,14,06,SPECI ETEB 011406Z AUTO 22009KT 9999 OVC009 10/09 A2999 RMK AO2 CIG 008V012 SLP159=
ETEB,2012,01,01,14,22,SPECI ETEB 011422Z AUTO 22008KT 9999 OVC011 10/09 A2999 RMK AO2 CIG 008V015 SLP159=
ETEB,2012,01,01,14,55,METAR ETEB 011455Z AUTO 22007KT 9999 BKN011 OVC023 10/09 A2999 RMK AO2 CIG 008V013 OVC V BKN SLP160 60000 T00990091 55003=
ETEB,2012,01,01,15,08,SPECI ETEB 011508Z AUTO 21007KT 9999 -DZ FEW007 SCT012 BKN023 OVC037 10/09 A2999 RMK AO2 DZB1508 CIG 020V025 FEW V SCT SLP160=
ETEB,2012,01,01,15,21,SPECI ETEB 011521Z AUTO 20009KT 9999 FEW007 BKN014 BKN021 OVC026 10/09 A2999 RMK AO2 RAB1519E1521DZB1508E1519 CIG 012V018 SLP160=
ETEB,2012,01,01,15,55,METAR ETEB 011555Z AUTO 22006KT 9999 BKN015 BKN019 OVC035 10/09 A3000 RMK AO2 RAB1519E1521DZB1508E1519 CIG 009V018 BKN019 V OVC SLP163 P0000 T00960088=
ETEB,2012,01,01,16,04,SPECI ETEB 011604Z AUTO 23008KT 9999 -DZ FEW009 SCT015 BKN021 BKN027 OVC034 10/09 A3000 RMK AO2 DZB1604 FEW V SCT SLP164=
ETEB,2012,01,01,16,13,SPECI ETEB 011613Z AUTO 22009KT 9999 SCT015 BKN021 BKN027 OVC036 09/09 A3000 RMK AO2 DZB1604E1613 SLP163=
ETEB,2012,01,01,16,55,METAR ETEB 011655Z AUTO 23007KT 9999 FEW021 OVC036 09/09 A3000 RMK AO2 DZB1604E1613 SLP163 P0000 T00930085=
ETEB,2012,01,01,17,55,METAR ETEB 011755Z AUTO 20008KT 9999 FEW024 SCT030 SCT060 BKN075 BKN090 09/08 A2999 RMK AO2 SLP161 60000 T00890080 10099 20089 50000=
ETEB,2012,01,01,18,55,METAR ETEB 011855Z AUTO 21007KT 9999 FEW090 08/07 A2998 RMK AO2 SLP160 T00820073=
ETEB,2012,01,01,19,55,METAR ETEB 011955Z AUTO 21010KT 9999 FEW041 SCT055 08/07 A2997 RMK AO2 SLP154 T00850071=
ETEB,2012,01,01,20,55,METAR ETEB 012055Z AUTO 21010KT 9999 FEW055 09/07 A2996 RMK AO2 SLP149 T00860070 58011=
ETEB,2012,01,01,21,55,METAR ETEB 012155Z AUTO 19009KT 9999 SCT029 SCT060 08/07 A2994 RMK AO2 SLP147 T00760067=
ETEB,2012,01,01,22,55,METAR ETEB 012255Z AUTO 20004KT 9999 FEW070 07/07 A2993 RMK AO2 SLP144 T00740065 400990063=
ETGG,2012,01,01,00,00,METAR ETGG NIL=
ETGG,2012,01,01,00,20,METAR ETGG 010020Z 18010KT 0400 FG VV001 04/04 Q1005 RED=
ETGG,2012,01,01,01,00,METAR ETGG NIL=
ETGG,2012,01,01,01,20,METAR ETGG 010120Z 17010KT 0400 FG VV001 04/04 Q1005 RED=
ETGG,2012,01,01,02,00,METAR ETGG NIL=
ETGG,2012,01,01,02,20,METAR ETGG 010220Z 17013KT 0400 -DZ FG VV000 05/05 Q1004 RED=
ETGG,2012,01,01,02,52,SPECI ETGG 010252Z 17014KT 2000 -DZRA BR BKN004 BKN015 05/05 Q1004 YLO=
ETGG,2012,01,01,03,00,METAR ETGG NIL=
ETGG,2012,01,01,03,20,METAR ETGG 010320Z 18015KT 2200 -RADZ BR SCT009 BKN017 06/06 Q1003 YLO=
ETGG,2012,01,01,04,00,METAR ETGG NIL=
ETGG,2012,01,01,04,20,METAR ETGG 010420Z 18012KT 2000 -DZ BR BKN004 07/07 Q1002 YLO=
ETGG,2012,01,01,04,53,SPECI ETGG 010453Z 19012KT 1200 -DZ BR OVC003 07/07 Q1002 AMB=
ETGG,2012,01,01,05,00,METAR ETGG NIL=
ETGG,2012,01,01,05,20,METAR ETGG 010520Z 19012KT 1200 -DZRA BR OVC005 07/07 Q1002 AMB=
ETGG,2012,01,01,05,47,SPECI ETGG 010547Z 21011KT 3500 -DZRA BR OVC005 08/08 Q1002 YLO=
ETGG,2012,01,01,06,00,METAR ETGG NIL=
ETGG,2012,01,01,06,20,METAR ETGG 010620Z 22016KT 2500 DZRA BR BKN004 09/09 Q1002 RERA YLO=
ETGG,2012,01,01,07,00,METAR ETGG NIL=
ETGG,2012,01,01,07,20,METAR ETGG 010720Z 24017G27KT 2000 -DZRA BR BKN004 09/09 Q1002 RERA YLO=
ETGG,2012,01,01,08,00,METAR ETGG NIL=
ETGG,2012,01,01,08,20,METAR ETGG 010820Z 24014KT 2500 -DZRA BR BKN004 09/09 Q1002 YLO=
ETGG,2012,01,01,09,00,METAR ETGG NIL=
ETGG,2012,01,01,09,20,METAR ETGG 010920Z 24016KT 2500 -DZ BR BKN003 09/09 Q1003 YLO=
ETGG,2012,01,01,10,00,METAR ETGG NIL=
ETGG,2012,01,01,10,20,METAR ETGG 011020Z 24016KT 3500 -DZ BR BKN004 09/09 Q1003 YLO=
ETGG,2012,01,01,11,00,METAR ETGG NIL=
ETGG,2012,01,01,11,20,METAR ETGG 011120Z 25020KT 3500 BR BKN005 09/09 Q1003 YLO=
ETGG,2012,01,01,12,00,METAR ETGG NIL=
ETGG,2012,01,01,12,20,METAR ETGG 011220Z 24016KT 4400 BR BKN006 09/08 Q1003 YLO=
ETGG,2012,01,01,13,00,METAR ETGG NIL=
ETGG,2012,01,01,13,20,METAR ETGG 011320Z 25019KT 6000 BKN005 09/08 Q1003 YLO=
ETGG,2012,01,01,14,00,METAR ETGG NIL=
ETGG,2012,01,01,14,20,METAR ETGG 011420Z 26018KT 7000 BKN007 09/08 Q1003 GRN=
ETGG,2012,01,01,15,00,METAR ETGG NIL=
ETGG,2012,01,01,15,20,METAR ETGG 011520Z 23012KT 9000 BKN006 09/08 Q1003 YLO=
ETGG,2012,01,01,15,51,SPECI ETGG 011551Z 23012KT 9000 BKN004 09/08 Q1003 YLO=
ETGG,2012,01,01,16,00,METAR ETGG NIL=
ETGG,2012,01,01,16,20,METAR ETGG 011620Z 23012KT 9000 BKN006 09/08 Q1003 YLO=
ETGG,2012,01,01,16,54,SPECI ETGG 011654Z 22012KT 9999 BKN007 BKN020 09/09 Q1003 GRN=
ETGG,2012,01,01,17,00,METAR ETGG NIL=
ETGG,2012,01,01,17,20,METAR ETGG 011720Z 22012KT 9999 BKN008 09/08 Q1003 GRN=
ETGG,2012,01,01,18,00,METAR ETGG NIL=
ETGG,2012,01,01,18,20,METAR ETGG 011820Z 19009KT 9999 BKN008 09/08 Q1002 GRN=
ETGG,2012,01,01,19,00,METAR ETGG NIL=
ETGG,2012,01,01,19,20,METAR ETGG 011920Z 18010KT 9999 BKN006 10/09 Q1001 YLO=
ETGG,2012,01,01,20,00,METAR ETGG NIL=
ETGG,2012,01,01,20,20,METAR ETGG 012020Z 20010KT 9999 -RA BKN006 10/09 Q1000 YLO=
ETGG,2012,01,01,21,00,METAR ETGG NIL=
ETGG,2012,01,01,21,20,METAR ETGG 012120Z 18008KT 4000 RA BR BKN005 10/09 Q0998 YLO=
ETGG,2012,01,01,22,00,METAR ETGG NIL=
ETGG,2012,01,01,22,20,METAR ETGG 012220Z 22007KT 4000 RA BR SCT005 BKN012 10/10 Q0997 GRN=
ETGG,2012,01,01,23,00,METAR ETGG NIL=
ETGY,2012,01,01,00,00,METAR ETGY NIL=
ETGY,2012,01,01,00,20,METAR ETGY 010020Z 22007KT 7000 BKN006 11/09 Q1010 YLO=
ETGY,2012,01,01,01,00,METAR ETGY NIL=
ETGY,2012,01,01,01,20,METAR ETGY 010120Z 22009KT 7000 BKN006 11/09 Q1009 YLO=
ETGY,2012,01,01,01,46,SPECI ETGY 010146Z 22008KT 2000 DZ BR BKN004 11/10 Q1009 YLO=
ETGY,2012,01,01,02,00,METAR ETGY NIL=
ETGY,2012,01,01,02,20,METAR ETGY 010220Z 22008KT 2500 -DZ BR BKN002 10/10 Q1009 REDZ AMB=
ETGY,2012,01,01,03,00,METAR ETGY NIL=
ETGY,2012,01,01,03,20,METAR ETGY 010320Z 22009KT 8000 BKN005 11/10 Q1009 YLO=
ETGY,2012,01,01,04,00,METAR ETGY NIL=
ETGY,2012,01,01,04,20,METAR ETGY 010420Z 22011KT 8000 BKN005 11/10 Q1009 YLO=
ETGY,2012,01,01,05,00,METAR ETGY NIL=
ETGY,2012,01,01,05,20,METAR ETGY 010520Z 23009KT 2500 DZ BR BKN003 11/10 Q1009 YLO=
ETGY,2012,01,01,06,00,METAR ETGY NIL=
ETGY,2012,01,01,06,20,METAR ETGY 010620Z 22010KT 4000 -DZ BR BKN003 11/10 Q1009 YLO=
ETGY,2012,01,01,07,00,METAR ETGY NIL=
ETGY,2012,01,01,07,20,METAR ETGY 010720Z 22011KT 4000 -DZ BR BKN003 11/10 Q1009 YLO=
ETGY,2012,01,01,08,00,METAR ETGY NIL=
ETGY,2012,01,01,08,20,METAR ETGY 010820Z 23008KT 2500 RADZ BR BKN003 11/11 Q1010 YLO=
ETGY,2012,01,01,09,00,METAR ETGY NIL=
ETGY,2012,01,01,09,20,METAR ETGY 010920Z 24008KT 2500 -RADZ BR BKN003 12/11 Q1010 RERA YLO=
ETGY,2012,01,01,10,00,METAR ETGY NIL=
ETGY,2012,01,01,10,20,METAR ETGY 011020Z 24008KT 2500 -DZ BR BKN004 12/11 Q1010 YLO=
ETGY,2012,01,01,11,00,METAR ETGY NIL=
ETGY,2012,01,01,11,20,METAR ETGY 011120Z 23009KT 2400 -DZ BR BKN004 12/11 Q1009 YLO=
ETGY,2012,01,01,11,44,SPECI ETGY 011144Z 23008KT 3300 -DZ BR BKN006 12/11 Q1009 YLO=
ETGY,2012,01,01,12,00,METAR ETGY NIL=
ETGY,2012,01,01,12,20,METAR ETGY 011220Z 23008KT 3000 -DZ BR BKN005 BKN008 12/11 Q1009 YLO=
ETGY,2012,01,01,13,00,METAR ETGY NIL=
ETGY,2012,01,01,13,02,SPECI ETGY 011302Z 23007KT 7000 -RA BKN008 12/11 Q1008 GRN=
ETGY,2012,01,01,13,20,METAR ETGY 011320Z 22008KT 5000 RADZ BR BKN007 12/11 Q1008 GRN=
ETGY,2012,01,01,14,00,METAR ETGY NIL=
ETGY,2012,01,01,14,20,METAR ETGY 011420Z 22011KT 9999 FEW007 BKN009 BKN012 12/11 Q1008 RERA GRN=
ETGY,2012,01,01,14,31,SPECI ETGY 011431Z 22011KT 2400 RADZ BR BKN006 BKN012 12/11 Q1008 YLO=
ETGY,2012,01,01,15,00,METAR ETGY NIL=
ETGY,2012,01,01,15,06,SPECI ETGY 011506Z 22011KT 8000 BKN007 BKN012 12/11 Q1007 RERA GRN=
ETGY,2012,01,01,15,20,METAR ETGY 011520Z 22011KT 8000 BKN007 BKN012 12/11 Q1007 RERA GRN=
ETGY,2012,01,01,16,00,METAR ETGY NIL=
ETGY,2012,01,01,16,20,METAR ETGY 011620Z 21011KT 9999 -DZ BKN007 BKN022 12/11 Q1007 GRN=
ETGY,2012,01,01,17,00,METAR ETGY NIL=
ETGY,2012,01,01,17,20,METAR ETGY 011720Z 20011KT 9999 BKN008 BKN016 12/11 Q1006 GRN=
ETGY,2012,01,01,18,00,METAR ETGY NIL=
ETGY,2012,01,01,18,20,METAR ETGY 011820Z 21015KT 7000 RA BKN008 BKN016 13/11 Q1005 GRN=
ETGY,2012,01,01,19,00,METAR ETGY NIL=
ETGY,2012,01,01,19,20,METAR ETGY 011920Z 20014KT 9999 BKN011 BKN017 12/11 Q1003 RERA GRN=
ETGY,2012,01,01,20,00,METAR ETGY NIL=
ETGY,2012,01,01,20,20,METAR ETGY 012020Z 20014KT 9999 -RA BKN019 BKN023 13/11 Q1002 WHT=
ETGY,2012,01,01,21,00,METAR ETGY NIL=
ETGY,2012,01,01,21,20,METAR ETGY 012120Z 21018KT 9999 -RA BKN019 BKN023 14/10 Q1002 WHT=
ETGY,2012,01,01,22,00,METAR ETGY NIL=
ETGY,2012,01,01,22,20,METAR ETGY 012220Z 22021KT 9999 -RA BKN016 BKN023 13/11 Q1001 WHT=
ETGY,2012,01,01,23,00,METAR ETGY NIL=
ETGY,2012,01,01,23,00,SPECI ETGY 012300Z 23019G33KT 4000 +RA BKN012 BKN017 13/11 Q1002 GRN=
ETGZ,2012,01,01,00,00,METAR ETGZ NIL=
ETGZ,2012,01,01,00,20,METAR ETGZ 010020Z 25006KT 3000 BR FEW001 BKN005 06/06 Q1016 YLO=
ETGZ,2012,01,01,01,00,METAR ETGZ NIL=
ETGZ,2012,01,01,01,20,METAR ETGZ 010120Z 26007KT 2000 BR FEW001 BKN005 06/06 Q1016 YLO=
ETGZ,2012,01,01,02,00,METAR ETGZ NIL=
ETGZ,2012,01,01,02,20,METAR ETGZ 010220Z 25006KT 5000 BR FEW006 BKN018 BKN045 06/06 Q1017 WHT=
ETGZ,2012,01,01,03,00,METAR ETGZ NIL=
ETGZ,2012,01,01,03,20,METAR ETGZ 010320Z 24006KT 5000 BR FEW008 BKN024 BKN045 05/05 Q1017 WHT=
ETGZ,2012,01,01,04,00,METAR ETGZ NIL=
ETGZ,2012,01,01,04,20,METAR ETGZ 010420Z 25005KT 4000 BR FEW006 BKN012 BKN029 06/06 Q1017 GRN=
ETGZ,2012,01,01,05,00,METAR ETGZ NIL=
ETGZ,2012,01,01,05,20,METAR ETGZ 010520Z 26007KT 9999 FEW/// SCT005 BKN012 06/06 Q1017 GRN=
ETGZ,2012,01,01,06,00,METAR ETGZ NIL=
ETGZ,2012,01,01,06,20,METAR ETGZ 010620Z 24004KT 3000 BR FEW/// SCT006 BKN027 06/06 Q1017 YLO=
ETGZ,2012,01,01,06,38,SPECI ETGZ 010638Z 21005KT 0800 BCFG BKN002 BKN042 05/05 Q1018 AMB=
ETGZ,2012,01,01,06,46,SPECI ETGZ 010646Z 21005KT 0200 FG VV001 05/05 Q1017 RED=
ETGZ,2012,01,01,07,00,METAR ETGZ NIL=
ETGZ,2012,01,01,07,20,METAR ETGZ 010720Z 22006KT 0100 FG VV000 05/05 Q1018 RED=
ETGZ,2012,01,01,08,00,METAR ETGZ NIL=
ETGZ,2012,01,01,08,20,METAR ETGZ 010820Z 23005KT 0300 -RA FG VV001 05/05 Q1018 RED=
ETGZ,2012,01,01,09,00,METAR ETGZ NIL=
ETGZ,2012,01,01,09,20,METAR ETGZ 010920Z 21005KT 0150 FG VV000 05/05 Q1018 RED=
ETGZ,2012,01,01,10,00,METAR ETGZ NIL=
ETGZ,2012,01,01,10,20,METAR ETGZ 011020Z 21006KT 0100 FG VV001 05/05 Q1018 RED=
ETGZ,2012,01,01,11,00,METAR ETGZ NIL=
ETGZ,2012,01,01,11,12,SPECI ETGZ 011112Z 22006KT 0600 -DZ FG VV001 06/06 Q1018 RED=
ETGZ,2012,01,01,11,20,METAR ETGZ 011120Z 22006KT 1200 -DZ BR FEW000 OVC002 06/06 Q1018 AMB=
ETGZ,2012,01,01,11,49,SPECI ETGZ 011149Z 23005KT 3000 DZ BR FEW000 BKN003 BKN008 06/06 Q1018 YLO=
ETGZ,2012,01,01,12,00,METAR ETGZ NIL=
ETGZ,2012,01,01,12,20,METAR ETGZ 011220Z 24005KT 7000 -DZ FEW000 BKN003 BKN010 07/07 Q1018 REDZ YLO=
ETGZ,2012,01,01,13,00,METAR ETGZ NIL=
ETGZ,2012,01,01,13,20,METAR ETGZ 011320Z 23005KT 9999 FEW/// BKN004 BKN011 07/07 Q1017 YLO=
ETGZ,2012,01,01,14,00,METAR ETGZ NIL=
ETGZ,2012,01,01,14,20,METAR ETGZ 011420Z 21006KT 9999 FEW/// BKN004 BKN012 07/07 Q1017 YLO=
ETGZ,2012,01,01,15,00,METAR ETGZ NIL=
ETGZ,2012,01,01,15,20,METAR ETGZ 011520Z 22006KT 9999 FEW000 SCT004 BKN009 07/07 Q1017 GRN=
ETGZ,2012,01,01,16,00,METAR ETGZ NIL=
ETGZ,2012,01,01,16,20,METAR ETGZ 011620Z 23005KT 9999 FEW000 SCT009 BKN250 07/07 Q1017 BLU/=
ETGZ,2012,01,01,17,00,METAR ETGZ NIL=
ETGZ,2012,01,01,17,20,METAR ETGZ 011720Z 24004KT 9999 FEW004 SCT150 BKN250 07/07 Q1017 BLU/=
ETGZ,2012,01,01,18,00,METAR ETGZ NIL=
ETGZ,2012,01,01,18,20,METAR ETGZ 011820Z 22006KT 9999 FEW000 SCT009 BKN240 07/06 Q1017 BLU/=
ETGZ,2012,01,01,19,00,METAR ETGZ NIL=
ETGZ,2012,01,01,19,20,METAR ETGZ 011920Z 21006KT 9999 FEW000 SCT019 BKN230 06/06 Q1017 BLU/=
ETGZ,2012,01,01,20,00,METAR ETGZ NIL=
ETGZ,2012,01,01,20,20,METAR ETGZ 012020Z 24008KT 9999 FEW003 SCT016 BKN200 07/06 Q1016 BLU/=
ETGZ,2012,01,01,21,00,METAR ETGZ NIL=
ETGZ,2012,01,01,21,20,METAR ETGZ 012120Z 25005KT 9999 FEW018 BKN210 07/06 Q1016 BLU/=
ETGZ,2012,01,01,22,00,METAR ETGZ NIL=
ETGZ,2012,01,01,22,20,METAR ETGZ 012220Z 24007KT 9999 FEW020 BKN170 07/06 Q1015 BLU=
ETGZ,2012,01,01,23,00,METAR ETGZ NIL=
ETHA,2012,01,01,00,00,METAR ETHA NIL=
ETHA,2012,01,01,00,20,METAR ETHA NIL=
ETHA,2012,01,01,01,00,METAR ETHA NIL=
ETHA,2012,01,01,01,20,METAR ETHA NIL=
ETHA,2012,01,01,02,00,METAR ETHA NIL=
ETHA,2012,01,01,02,20,METAR ETHA NIL=
ETHA,2012,01,01,03,00,METAR ETHA NIL=
ETHA,2012,01,01,03,20,METAR ETHA NIL=
ETHA,2012,01,01,04,00,METAR ETHA NIL=
ETHA,2012,01,01,04,20,METAR ETHA NIL=
ETHA,2012,01,01,05,00,METAR ETHA NIL=
ETHA,2012,01,01,05,20,METAR ETHA NIL=
ETHA,2012,01,01,06,00,METAR ETHA NIL=
ETHA,2012,01,01,06,20,METAR ETHA NIL=
ETHA,2012,01,01,07,00,METAR ETHA NIL=
ETHA,2012,01,01,07,20,METAR ETHA NIL=
ETHA,2012,01,01,08,00,METAR ETHA NIL=
ETHA,2012,01,01,08,20,METAR ETHA NIL=
ETHA,2012,01,01,09,00,METAR ETHA NIL=
ETHA,2012,01,01,09,20,METAR ETHA NIL=
ETHA,2012,01,01,10,00,METAR ETHA NIL=
ETHA,2012,01,01,10,20,METAR ETHA NIL=
ETHA,2012,01,01,11,00,METAR ETHA NIL=
ETHA,2012,01,01,11,20,METAR ETHA NIL=
ETHA,2012,01,01,12,00,METAR ETHA NIL=
ETHA,2012,01,01,12,20,METAR ETHA NIL=
ETHA,2012,01,01,13,00,METAR ETHA NIL=
ETHA,2012,01,01,13,20,METAR ETHA NIL=
ETHA,2012,01,01,14,00,METAR ETHA NIL=
ETHA,2012,01,01,14,20,METAR ETHA NIL=
ETHA,2012,01,01,15,00,METAR ETHA NIL=
ETHA,2012,01,01,15,20,METAR ETHA NIL=
ETHA,2012,01,01,16,00,METAR ETHA NIL=
ETHA,2012,01,01,16,20,METAR ETHA NIL=
ETHA,2012,01,01,17,00,METAR ETHA NIL=
ETHA,2012,01,01,17,20,METAR ETHA NIL=
ETHA,2012,01,01,18,00,METAR ETHA NIL=
ETHA,2012,01,01,18,20,METAR ETHA NIL=
ETHA,2012,01,01,19,00,METAR ETHA NIL=
ETHA,2012,01,01,19,20,METAR ETHA NIL=
ETHA,2012,01,01,20,00,METAR ETHA NIL=
ETHA,2012,01,01,20,20,METAR ETHA NIL=
ETHA,2012,01,01,21,00,METAR ETHA NIL=
ETHA,2012,01,01,21,20,METAR ETHA NIL=
ETHA,2012,01,01,22,00,METAR ETHA NIL=
ETHA,2012,01,01,22,20,METAR ETHA NIL=
ETHA,2012,01,01,23,00,METAR ETHA NIL=
ETHB,2012,01,01,00,00,METAR ETHB NIL=
ETHB,2012,01,01,01,00,METAR ETHB NIL=
ETHB,2012,01,01,02,00,METAR ETHB NIL=
ETHB,2012,01,01,03,00,METAR ETHB NIL=
ETHB,2012,01,01,04,00,METAR ETHB NIL=
ETHB,2012,01,01,05,00,METAR ETHB NIL=
ETHB,2012,01,01,06,00,METAR ETHB NIL=
ETHB,2012,01,01,07,00,METAR ETHB NIL=
ETHB,2012,01,01,08,00,METAR ETHB NIL=
ETHB,2012,01,01,09,00,METAR ETHB NIL=
ETHB,2012,01,01,10,00,METAR ETHB NIL=
ETHB,2012,01,01,11,00,METAR ETHB NIL=
ETHB,2012,01,01,12,00,METAR ETHB NIL=
ETHB,2012,01,01,13,00,METAR ETHB NIL=
ETHB,2012,01,01,14,00,METAR ETHB NIL=
ETHB,2012,01,01,15,00,METAR ETHB NIL=
ETHB,2012,01,01,16,00,METAR ETHB NIL=
ETHB,2012,01,01,17,00,METAR ETHB NIL=
ETHB,2012,01,01,18,00,METAR ETHB NIL=
ETHB,2012,01,01,19,00,METAR ETHB NIL=
ETHB,2012,01,01,19,20,METAR ETHB 011920Z 20012G22KT 9999 FEW012 BKN018 13/10 Q1005 WHT=
ETHB,2012,01,01,20,00,METAR ETHB NIL=
ETHB,2012,01,01,20,20,METAR ETHB 012020Z 20014KT 9999 -RA FEW012 BKN022 13/10 Q1004 WHT=
ETHB,2012,01,01,21,00,METAR ETHB NIL=
ETHB,2012,01,01,21,20,METAR ETHB 012120Z 20015KT 9999 -RA FEW020 BKN031 13/10 Q1002 BLU=
ETHB,2012,01,01,22,00,METAR ETHB NIL=
ETHB,2012,01,01,22,20,METAR ETHB 012220Z 21017KT 9999 BKN030 BKN042 14/10 Q1001 BLU=
ETHB,2012,01,01,23,00,METAR ETHB NIL=
ETHC,2012,01,01,00,00,METAR ETHC NIL=
ETHC,2012,01,01,01,00,METAR ETHC NIL=
ETHC,2012,01,01,02,00,METAR ETHC NIL=
ETHC,2012,01,01,03,00,METAR ETHC NIL=
ETHC,2012,01,01,04,00,METAR ETHC NIL=
ETHC,2012,01,01,05,00,METAR ETHC NIL=
ETHC,2012,01,01,06,00,METAR ETHC NIL=
ETHC,2012,01,01,07,00,METAR ETHC NIL=
ETHC,2012,01,01,08,00,METAR ETHC NIL=
ETHC,2012,01,01,09,00,METAR ETHC NIL=
ETHC,2012,01,01,10,00,METAR ETHC NIL=
ETHC,2012,01,01,11,00,METAR ETHC NIL=
ETHC,2012,01,01,12,00,METAR ETHC NIL=
ETHC,2012,01,01,13,00,METAR ETHC NIL=
ETHC,2012,01,01,14,00,METAR ETHC NIL=
ETHC,2012,01,01,15,00,METAR ETHC NIL=
ETHC,2012,01,01,16,00,METAR ETHC NIL=
ETHC,2012,01,01,17,00,METAR ETHC NIL=
ETHC,2012,01,01,18,00,METAR ETHC NIL=
ETHC,2012,01,01,19,00,METAR ETHC NIL=
ETHC,2012,01,01,20,00,METAR ETHC NIL=
ETHC,2012,01,01,20,20,METAR ETHC 012020Z 17006KT 9999 BKN025 11/10 Q1005 BLU=
ETHC,2012,01,01,21,00,METAR ETHC NIL=
ETHC,2012,01,01,21,20,METAR ETHC 012120Z 19009KT 9999 -RA BKN025 12/10 Q1004 BLU=
ETHC,2012,01,01,22,00,METAR ETHC NIL=
ETHC,2012,01,01,22,20,METAR ETHC 012220Z 19008KT 9999 BKN030 12/10 Q1002 BLU=
ETHC,2012,01,01,23,00,METAR ETHC NIL=
ETHE,2012,01,01,00,00,METAR ETHE NIL=
ETHE,2012,01,01,01,00,METAR ETHE NIL=
ETHE,2012,01,01,02,00,METAR ETHE NIL=
ETHE,2012,01,01,03,00,METAR ETHE NIL=
ETHE,2012,01,01,04,00,METAR ETHE NIL=
ETHE,2012,01,01,05,00,METAR ETHE NIL=
ETHE,2012,01,01,06,00,METAR ETHE NIL=
ETHE,2012,01,01,07,00,METAR ETHE NIL=
ETHE,2012,01,01,08,00,METAR ETHE NIL=
ETHE,2012,01,01,09,00,METAR ETHE NIL=
ETHE,2012,01,01,10,00,METAR ETHE NIL=
ETHE,2012,01,01,11,00,METAR ETHE NIL=
ETHE,2012,01,01,12,00,METAR ETHE NIL=
ETHE,2012,01,01,13,00,METAR ETHE NIL=
ETHE,2012,01,01,14,00,METAR ETHE NIL=
ETHE,2012,01,01,15,00,METAR ETHE NIL=
ETHE,2012,01,01,16,00,METAR ETHE NIL=
ETHE,2012,01,01,17,00,METAR ETHE NIL=
ETHE,2012,01,01,18,00,METAR ETHE NIL=
ETHE,2012,01,01,19,00,METAR ETHE NIL=
ETHE,2012,01,01,20,00,METAR ETHE NIL=
ETHE,2012,01,01,21,00,METAR ETHE NIL=
ETHE,2012,01,01,22,00,METAR ETHE NIL=
ETHE,2012,01,01,23,00,METAR ETHE NIL=
ETHF,2012,01,01,00,00,METAR ETHF NIL=
ETHF,2012,01,01,01,00,METAR ETHF NIL=
ETHF,2012,01,01,02,00,METAR ETHF NIL=
ETHF,2012,01,01,03,00,METAR ETHF NIL=
ETHF,2012,01,01,04,00,METAR ETHF NIL=
ETHF,2012,01,01,05,00,METAR ETHF NIL=
ETHF,2012,01,01,06,00,METAR ETHF NIL=
ETHF,2012,01,01,07,00,METAR ETHF NIL=
ETHF,2012,01,01,08,00,METAR ETHF NIL=
ETHF,2012,01,01,09,00,METAR ETHF NIL=
ETHF,2012,01,01,10,00,METAR ETHF NIL=
ETHF,2012,01,01,11,00,METAR ETHF NIL=
ETHF,2012,01,01,12,00,METAR ETHF NIL=
ETHF,2012,01,01,13,00,METAR ETHF NIL=
ETHF,2012,01,01,14,00,METAR ETHF NIL=
ETHF,2012,01,01,15,00,METAR ETHF NIL=
ETHF,2012,01,01,16,00,METAR ETHF NIL=
ETHF,2012,01,01,17,00,METAR ETHF NIL=
ETHF,2012,01,01,18,00,METAR ETHF NIL=
ETHF,2012,01,01,19,00,METAR ETHF NIL=
ETHF,2012,01,01,20,00,METAR ETHF NIL=
ETHF,2012,01,01,21,00,METAR ETHF NIL=
ETHF,2012,01,01,22,00,METAR ETHF NIL=
ETHF,2012,01,01,23,00,METAR ETHF NIL=
ETHL,2012,01,01,00,00,METAR ETHL NIL=
ETHL,2012,01,01,00,20,METAR ETHL NIL=
ETHL,2012,01,01,01,00,METAR ETHL NIL=
ETHL,2012,01,01,01,20,METAR ETHL NIL=
ETHL,2012,01,01,02,00,METAR ETHL NIL=
ETHL,2012,01,01,02,20,METAR ETHL NIL=
ETHL,2012,01,01,03,00,METAR ETHL NIL=
ETHL,2012,01,01,03,20,METAR ETHL NIL=
ETHL,2012,01,01,04,00,METAR ETHL NIL=
ETHL,2012,01,01,04,20,METAR ETHL NIL=
ETHL,2012,01,01,05,00,METAR ETHL NIL=
ETHL,2012,01,01,05,20,METAR ETHL NIL=
ETHL,2012,01,01,06,00,METAR ETHL NIL=
ETHL,2012,01,01,06,20,METAR ETHL NIL=
ETHL,2012,01,01,07,00,METAR ETHL NIL=
ETHL,2012,01,01,07,20,METAR ETHL NIL=
ETHL,2012,01,01,08,00,METAR ETHL NIL=
ETHL,2012,01,01,08,20,METAR ETHL NIL=
ETHL,2012,01,01,09,00,METAR ETHL NIL=
ETHL,2012,01,01,09,20,METAR ETHL NIL=
ETHL,2012,01,01,10,00,METAR ETHL NIL=
ETHL,2012,01,01,10,20,METAR ETHL NIL=
ETHL,2012,01,01,11,00,METAR ETHL NIL=
ETHL,2012,01,01,11,20,METAR ETHL NIL=
ETHL,2012,01,01,12,00,METAR ETHL NIL=
ETHL,2012,01,01,12,20,METAR ETHL NIL=
ETHL,2012,01,01,13,00,METAR ETHL NIL=
ETHL,2012,01,01,13,20,METAR ETHL NIL=
ETHL,2012,01,01,14,00,METAR ETHL NIL=
ETHL,2012,01,01,14,20,METAR ETHL NIL=
ETHL,2012,01,01,15,00,METAR ETHL NIL=
ETHL,2012,01,01,15,20,METAR ETHL NIL=
ETHL,2012,01,01,16,00,METAR ETHL NIL=
ETHL,2012,01,01,16,20,METAR ETHL NIL=
ETHL,2012,01,01,17,00,METAR ETHL NIL=
ETHL,2012,01,01,17,20,METAR ETHL NIL=
ETHL,2012,01,01,18,00,METAR ETHL NIL=
ETHL,2012,01,01,18,20,METAR ETHL NIL=
ETHL,2012,01,01,19,00,METAR ETHL NIL=
ETHL,2012,01,01,19,20,METAR ETHL 011920Z 21008KT 9999 FEW060 SCT260 08/06 Q1017 BLU/=
ETHL,2012,01,01,20,00,METAR ETHL NIL=
ETHL,2012,01,01,20,20,METAR ETHL 012020Z 23010KT 9999 FEW020 BKN250 08/06 Q1017 BLU/=
ETHL,2012,01,01,21,00,METAR ETHL NIL=
ETHL,2012,01,01,21,20,METAR ETHL 012120Z 23011KT 9999 SCT013 BKN240 08/06 Q1016 BLU/=
ETHL,2012,01,01,22,00,METAR ETHL NIL=
ETHL,2012,01,01,22,20,METAR ETHL 012220Z 22008KT 9999 FEW020 BKN250 07/06 Q1016 BLU/=
ETHL,2012,01,01,23,00,METAR ETHL NIL=
ETHM,2012,01,01,00,00,METAR ETHM NIL=
ETHM,2012,01,01,01,00,METAR ETHM NIL=
ETHM,2012,01,01,02,00,METAR ETHM NIL=
ETHM,2012,01,01,03,00,METAR ETHM NIL=
ETHM,2012,01,01,04,00,METAR ETHM NIL=
ETHM,2012,01,01,05,00,METAR ETHM NIL=
ETHM,2012,01,01,06,00,METAR ETHM NIL=
ETHM,2012,01,01,07,00,METAR ETHM NIL=
ETHM,2012,01,01,08,00,METAR ETHM NIL=
ETHM,2012,01,01,09,00,METAR ETHM NIL=
ETHM,2012,01,01,10,00,METAR ETHM NIL=
ETHM,2012,01,01,11,00,METAR ETHM NIL=
ETHM,2012,01,01,12,00,METAR ETHM NIL=
ETHM,2012,01,01,13,00,METAR ETHM NIL=
ETHM,2012,01,01,14,00,METAR ETHM NIL=
ETHM,2012,01,01,15,00,METAR ETHM NIL=
ETHM,2012,01,01,16,00,METAR ETHM NIL=
ETHM,2012,01,01,17,00,METAR ETHM NIL=
ETHM,2012,01,01,18,00,METAR ETHM NIL=
ETHM,2012,01,01,19,00,METAR ETHM NIL=
ETHM,2012,01,01,20,00,METAR ETHM NIL=
ETHM,2012,01,01,21,00,METAR ETHM NIL=
ETHM,2012,01,01,22,00,METAR ETHM NIL=
ETHM,2012,01,01,23,00,METAR ETHM NIL=
ETHN,2012,01,01,00,00,METAR ETHN NIL=
ETHN,2012,01,01,00,20,METAR ETHN NIL=
ETHN,2012,01,01,01,00,METAR ETHN NIL=
ETHN,2012,01,01,01,20,METAR ETHN NIL=
ETHN,2012,01,01,02,00,METAR ETHN NIL=
ETHN,2012,01,01,02,20,METAR ETHN NIL=
ETHN,2012,01,01,03,00,METAR ETHN NIL=
ETHN,2012,01,01,03,20,METAR ETHN NIL=
ETHN,2012,01,01,04,00,METAR ETHN NIL=
ETHN,2012,01,01,04,20,METAR ETHN NIL=
ETHN,2012,01,01,05,00,METAR ETHN NIL=
ETHN,2012,01,01,05,20,METAR ETHN NIL=
ETHN,2012,01,01,06,00,METAR ETHN NIL=
ETHN,2012,01,01,06,20,METAR ETHN NIL=
ETHN,2012,01,01,07,00,METAR ETHN NIL=
ETHN,2012,01,01,07,20,METAR ETHN NIL=
ETHN,2012,01,01,08,00,METAR ETHN NIL=
ETHN,2012,01,01,08,20,METAR ETHN NIL=
ETHN,2012,01,01,09,00,METAR ETHN NIL=
ETHN,2012,01,01,09,20,METAR ETHN NIL=
ETHN,2012,01,01,10,00,METAR ETHN NIL=
ETHN,2012,01,01,10,20,METAR ETHN NIL=
ETHN,2012,01,01,11,00,METAR ETHN NIL=
ETHN,2012,01,01,11,20,METAR ETHN NIL=
ETHN,2012,01,01,12,00,METAR ETHN NIL=
ETHN,2012,01,01,12,20,METAR ETHN NIL=
ETHN,2012,01,01,13,00,METAR ETHN NIL=
ETHN,2012,01,01,13,20,METAR ETHN NIL=
ETHN,2012,01,01,14,00,METAR ETHN NIL=
ETHN,2012,01,01,14,20,METAR ETHN NIL=
ETHN,2012,01,01,15,00,METAR ETHN NIL=
ETHN,2012,01,01,15,20,METAR ETHN NIL=
ETHN,2012,01,01,16,00,METAR ETHN NIL=
ETHN,2012,01,01,16,20,METAR ETHN NIL=
ETHN,2012,01,01,17,00,METAR ETHN NIL=
ETHN,2012,01,01,17,20,METAR ETHN NIL=
ETHN,2012,01,01,18,00,METAR ETHN NIL=
ETHN,2012,01,01,18,20,METAR ETHN NIL=
ETHN,2012,01,01,19,00,METAR ETHN NIL=
ETHN,2012,01,01,19,20,METAR ETHN NIL=
ETHN,2012,01,01,20,00,METAR ETHN NIL=
ETHN,2012,01,01,20,20,METAR ETHN NIL=
ETHN,2012,01,01,21,00,METAR ETHN NIL=
ETHN,2012,01,01,21,20,METAR ETHN NIL=
ETHN,2012,01,01,22,00,METAR ETHN NIL=
ETHN,2012,01,01,22,20,METAR ETHN NIL=
ETHN,2012,01,01,23,00,METAR ETHN NIL=
ETHR,2012,01,01,00,00,METAR ETHR NIL=
ETHR,2012,01,01,00,20,METAR ETHR NIL=
ETHR,2012,01,01,01,00,METAR ETHR NIL=
ETHR,2012,01,01,01,20,METAR ETHR NIL=
ETHR,2012,01,01,02,00,METAR ETHR NIL=
ETHR,2012,01,01,02,20,METAR ETHR NIL=
ETHR,2012,01,01,03,00,METAR ETHR NIL=
ETHR,2012,01,01,03,20,METAR ETHR NIL=
ETHR,2012,01,01,04,00,METAR ETHR NIL=
ETHR,2012,01,01,04,20,METAR ETHR NIL=
ETHR,2012,01,01,05,00,METAR ETHR NIL=
ETHR,2012,01,01,05,20,METAR ETHR NIL=
ETHR,2012,01,01,06,00,METAR ETHR NIL=
ETHR,2012,01,01,06,20,METAR ETHR NIL=
ETHR,2012,01,01,07,00,METAR ETHR NIL=
ETHR,2012,01,01,07,20,METAR ETHR NIL=
ETHR,2012,01,01,08,00,METAR ETHR NIL=
ETHR,2012,01,01,08,20,METAR ETHR NIL=
ETHR,2012,01,01,09,00,METAR ETHR NIL=
ETHR,2012,01,01,09,20,METAR ETHR NIL=
ETHR,2012,01,01,10,00,METAR ETHR NIL=
ETHR,2012,01,01,10,20,METAR ETHR NIL=
ETHR,2012,01,01,11,00,METAR ETHR NIL=
ETHR,2012,01,01,11,20,METAR ETHR NIL=
ETHR,2012,01,01,12,00,METAR ETHR NIL=
ETHR,2012,01,01,12,20,METAR ETHR NIL=
ETHR,2012,01,01,13,00,METAR ETHR NIL=
ETHR,2012,01,01,13,20,METAR ETHR NIL=
ETHR,2012,01,01,14,00,METAR ETHR NIL=
ETHR,2012,01,01,14,20,METAR ETHR NIL=
ETHR,2012,01,01,15,00,METAR ETHR NIL=
ETHR,2012,01,01,15,20,METAR ETHR NIL=
ETHR,2012,01,01,16,00,METAR ETHR NIL=
ETHR,2012,01,01,16,20,METAR ETHR NIL=
ETHR,2012,01,01,17,00,METAR ETHR NIL=
ETHR,2012,01,01,17,20,METAR ETHR NIL=
ETHR,2012,01,01,18,00,METAR ETHR NIL=
ETHR,2012,01,01,18,20,METAR ETHR NIL=
ETHR,2012,01,01,19,00,METAR ETHR NIL=
ETHR,2012,01,01,19,20,METAR ETHR NIL=
ETHR,2012,01,01,20,00,METAR ETHR NIL=
ETHR,2012,01,01,20,20,METAR ETHR NIL=
ETHR,2012,01,01,21,00,METAR ETHR NIL=
ETHR,2012,01,01,21,20,METAR ETHR NIL=
ETHR,2012,01,01,22,00,METAR ETHR NIL=
ETHR,2012,01,01,22,20,METAR ETHR NIL=
ETHR,2012,01,01,23,00,METAR ETHR NIL=
ETHS,2012,01,01,00,00,METAR ETHS NIL=
ETHS,2012,01,01,01,00,METAR ETHS NIL=
ETHS,2012,01,01,02,00,METAR ETHS NIL=
ETHS,2012,01,01,03,00,METAR ETHS NIL=
ETHS,2012,01,01,04,00,METAR ETHS NIL=
ETHS,2012,01,01,05,00,METAR ETHS NIL=
ETHS,2012,01,01,06,00,METAR ETHS NIL=
ETHS,2012,01,01,07,00,METAR ETHS NIL=
ETHS,2012,01,01,08,00,METAR ETHS NIL=
ETHS,2012,01,01,09,00,METAR ETHS NIL=
ETHS,2012,01,01,10,00,METAR ETHS NIL=
ETHS,2012,01,01,11,00,METAR ETHS NIL=
ETHS,2012,01,01,12,00,METAR ETHS NIL=
ETHS,2012,01,01,13,00,METAR ETHS NIL=
ETHS,2012,01,01,14,00,METAR ETHS NIL=
ETHS,2012,01,01,15,00,METAR ETHS NIL=
ETHS,2012,01,01,16,00,METAR ETHS NIL=
ETHS,2012,01,01,17,00,METAR ETHS NIL=
ETHS,2012,01,01,18,00,METAR ETHS NIL=
ETHS,2012,01,01,19,00,METAR ETHS NIL=
ETHS,2012,01,01,20,00,METAR ETHS NIL=
ETHS,2012,01,01,21,00,METAR ETHS NIL=
ETHS,2012,01,01,22,00,METAR ETHS NIL=
ETHS,2012,01,01,23,00,METAR ETHS NIL=
ETIC,2012,01,01,00,00,SPECI ETIC 010000Z AUTO 09003KT 3200 BR OVC003 01/01 A2992 RMK AO2 SLP154=
ETIC,2012,01,01,00,06,SPECI ETIC 010006Z AUTO 09003KT 4000 BR OVC004 01/01 A2992 RMK AO2 SLP154=
ETIC,2012,01,01,00,17,SPECI ETIC 010017Z AUTO 00000KT 3200 BR OVC004 01/01 A2993 RMK AO2 DZB0008E0017 SLP155=
ETIC,2012,01,01,00,23,SPECI ETIC 010023Z AUTO 00000KT 2800 BR OVC003 01/01 A2993 RMK AO2 DZB0008E0017 SLP155=
ETIC,2012,01,01,00,29,SPECI ETIC 010029Z AUTO 00000KT 2000 -DZ BR OVC003 01/01 A2993 RMK AO2 DZB0008 SLP155=
ETIC,2012,01,01,00,38,SPECI ETIC 010038Z AUTO 00000KT 2000 BR OVC003 01/01 A2993 RMK AO2 DZB0008E0038 SLP156=
ETIC,2012,01,01,00,47,SPECI ETIC 010047Z AUTO 00000KT 1600 -DZ BR VV002 01/01 A2993 RMK AO2 DZB0008 SLP156=
ETIC,2012,01,01,00,56,METAR ETIC 010056Z AUTO 00000KT 1600 -DZ BR VV002 01/01 A2993 RMK AO2 DZB0008 SLP155 P0001 T00140011=
ETIC,2012,01,01,00,56,SPECI ETIC 010056Z AUTO 09003KT 1600 BR VV002 01/01 A2993 RMK AO2 DZE0056 SLP155=
ETIC,2012,01,01,01,06,SPECI ETIC 010106Z AUTO 00000KT 2000 BR VV002 01/01 A2993 RMK AO2 DZE0056 SLP156=
ETIC,2012,01,01,01,27,SPECI ETIC 010127Z AUTO 00000KT 2400 BR OVC002 01/01 A2993 RMK AO2 DZE0056 SLP157=
ETIC,2012,01,01,01,47,SPECI ETIC 010147Z AUTO 00000KT 3200 BR OVC003 02/01 A2993 RMK AO2 DZE0056 SLP157=
ETIC,2012,01,01,01,56,METAR ETIC 010156Z AUTO 00000KT 3200 BR OVC003 02/01 A2993 RMK AO2 DZE0056 SLP157 P0000 T00150013=
ETIC,2012,01,01,02,18,SPECI ETIC 010218Z AUTO 00000KT 2800 BR OVC004 02/01 A2993 RMK AO2 SLP156=
ETIC,2012,01,01,02,22,SPECI ETIC 010222Z AUTO 00000KT 3200 BR OVC004 02/01 A2993 RMK AO2 SLP157=
ETIC,2012,01,01,02,30,SPECI ETIC 010230Z AUTO 00000KT 2800 BR OVC003 02/01 A2993 RMK AO2 SLP157=
ETIC,2012,01,01,02,44,SPECI ETIC 010244Z AUTO 00000KT 3200 BR OVC003 02/02 A2993 RMK AO2 SLP157=
ETIC,2012,01,01,02,56,METAR ETIC 010256Z AUTO 00000KT 3200 BR OVC003 02/02 A2993 RMK AO2 SLP157 P0001 60002 T00170016 51003=
ETIC,2012,01,01,02,57,SPECI ETIC 010257Z AUTO 00000KT 3200 -DZ BR OVC003 02/02 A2993 RMK AO2 DZB0257 SLP157=
ETIC,2012,01,01,03,12,SPECI ETIC 010312Z AUTO 00000KT 4000 -DZ BR OVC004 02/02 A2993 RMK AO2 DZB0257 SLP157=
ETIC,2012,01,01,03,22,SPECI ETIC 010322Z AUTO 00000KT 3200 -RA BR OVC004 02/02 A2994 RMK AO2 RAB0321DZB0257E0321 SLP157=
ETIC,2012,01,01,03,39,SPECI ETIC 010339Z AUTO 00000KT 4000 -RA BR OVC004 02/02 A2993 RMK AO2 RAB0321DZB0257E0321 SLP156=
ETIC,2012,01,01,03,46,SPECI ETIC 010346Z AUTO 00000KT 3200 -DZ BR OVC004 02/02 A2993 RMK AO2 RAB0321E0341DZB0257E0321B0341 SLP157=
ETIC,2012,01,01,03,56,METAR ETIC 010356Z AUTO 00000KT 3200 -DZ BR OVC004 02/02 A2993 RMK AO2 RAB0321E0341DZB0257E0321B0341 SLP156 P0003 T00190017=
ETIC,2012,01,01,03,59,SPECI ETIC 010359Z AUTO 00000KT 2800 BR OVC004 02/02 A2993 RMK AO2 DZE0359 SLP156=
ETIC,2012,01,01,04,21,SPECI ETIC 010421Z AUTO 00000KT 2800 -DZ BR OVC004 02/02 A2994 RMK AO2 DZE0359B0421 SLP158=
ETIC,2012,01,01,04,33,SPECI ETIC 010433Z AUTO 00000KT 2400 BR OVC004 02/02 A2994 RMK AO2 DZE0359B0421E0433 SLP159=
ETIC,2012,01,01,04,45,SPECI ETIC 010445Z AUTO 00000KT 2400 -DZ BR OVC003 02/02 A2994 RMK AO2 DZE0359B0421 SLP159=
ETIC,2012,01,01,04,56,METAR ETIC 010456Z AUTO 00000KT 2400 -DZ BR OVC003 02/02 A2994 RMK AO2 DZE0359B0421 SLP159 P0001 T00210018=
ETIC,2012,01,01,04,56,SPECI ETIC 010456Z AUTO 00000KT 2800 BR OVC004 02/02 A2994 RMK AO2 DZE0456 SLP160=
ETIC,2012,01,01,04,57,SPECI ETIC 010457Z AUTO 00000KT 3200 BR OVC004 02/02 A2994 RMK AO2 DZE0456 SLP160=
ETIC,2012,01,01,05,28,SPECI ETIC 010528Z AUTO 00000KT 4000 BR OVC004 02/02 A2994 RMK AO2 DZE0456 SLP160=
ETIC,2012,01,01,05,32,SPECI ETIC 010532Z AUTO 00000KT 3200 BR OVC004 02/02 A2994 RMK AO2 DZE0456 SLP161=
ETIC,2012,01,01,05,33,SPECI ETIC 010533Z AUTO 00000KT 3200 -DZ BR OVC004 02/02 A2994 RMK AO2 DZE0456B0533 SLP161=
ETIC,2012,01,01,05,37,SPECI ETIC 010537Z AUTO 00000KT 2800 -DZ BR OVC004 02/02 A2995 RMK AO2 DZE0456B0533 SLP161=
ETIC,2012,01,01,05,40,SPECI ETIC 010540Z AUTO 00000KT 2800 -DZ BR OVC005 02/02 A2995 RMK AO2 DZE0456B0533 SLP161=
ETIC,2012,01,01,05,43,SPECI ETIC 010543Z AUTO 00000KT 3200 -DZ BR OVC005 02/02 A2995 RMK AO2 DZE0456B0533 SLP161=
ETIC,2012,01,01,05,48,SPECI ETIC 010548Z AUTO 00000KT 3200 -DZ BR OVC006 02/02 A2995 RMK AO2 DZE0456B0533 SLP162=
ETIC,2012,01,01,05,56,METAR ETIC 010556Z AUTO 00000KT 3200 -DZ BR OVC006 02/02 A2995 RMK AO2 DZE0456B0533 SLP161 P0001 60007 T00220021 10023 20014 53005=
ETIC,2012,01,01,05,57,SPECI ETIC 010557Z AUTO 00000KT 2800 DZ BR OVC007 02/02 A2995 RMK AO2 SLP162=
ETIC,2012,01,01,06,01,SPECI ETIC 010601Z AUTO 00000KT 3200 -DZ BR OVC007 02/02 A2995 RMK AO2 SLP160=
ETIC,2012,01,01,06,03,SPECI ETIC 010603Z AUTO 00000KT 3200 -DZ BR OVC006 02/02 A2995 RMK AO2 SLP160=
ETIC,2012,01,01,06,07,SPECI ETIC 010607Z AUTO 00000KT 5000 -DZ BR OVC006 02/02 A2995 RMK AO2 SLP160=
ETIC,2012,01,01,06,08,SPECI ETIC 010608Z AUTO 00000KT 5000 BR OVC006 02/02 A2995 RMK AO2 DZE0608 SLP160=
ETIC,2012,01,01,06,27,SPECI ETIC 010627Z AUTO 00000KT 8000 BR OVC005 02/02 A2995 RMK AO2 DZE0608 SLP160=
ETIC,2012,01,01,06,33,SPECI ETIC 010633Z AUTO 00000KT 6000 BR OVC006 02/02 A2995 RMK AO2 DZE0608 OVC V BKN SLP159=
ETIC,2012,01,01,06,44,SPECI ETIC 010644Z AUTO 00000KT 6000 BR OVC007 03/03 A2995 RMK AO2 DZE0608 SLP160=
ETIC,2012,01,01,06,56,METAR ETIC 010656Z AUTO 00000KT 6000 BR OVC007 03/03 A2995 RMK AO2 DZE0608 SLP161 P0001 T00280026=
ETIC,2012,01,01,06,56,SPECI ETIC 010656Z AUTO 00000KT 6000 BR OVC006 03/03 A2995 RMK AO2 OVC V BKN SLP161=
ETIC,2012,01,01,07,22,SPECI ETIC 010722Z AUTO 00000KT 6000 BR OVC007 03/03 A2996 RMK AO2 OVC V BKN SLP162=
ETIC,2012,01,01,07,41,SPECI ETIC 010741Z AUTO 00000KT 6000 BR OVC008 03/03 A2996 RMK AO2 SLP165=
ETIC,2012,01,01,07,56,METAR ETIC 010756Z AUTO 00000KT 6000 BR OVC008 03/03 A2996 RMK AO2 SLP164 T00330032=
ETIC,2012,01,01,08,56,METAR ETIC 010856Z AUTO 00000KT 5000 BR OVC009 05/05 A2997 RMK AO2 CIG 008V010 SLP164 60001 T00510049 53006=
ETIC,2012,01,01,08,58,SPECI ETIC 010858Z AUTO 00000KT 2800 -DZ BR OVC008 05/05 A2997 RMK AO2 DZB0856 CIG 006V010 SLP165=
ETIC,2012,01,01,09,00,SPECI ETIC 010900Z AUTO 00000KT 2400 -DZ BR OVC007 05/04 A2997 RMK AO2 DZB0856 CIG 006V010 SLP165=
ETIC,2012,01,01,09,09,SPECI ETIC 010909Z AUTO 00000KT 2400 -DZ BR OVC006 05/05 A2997 RMK AO2 DZB0856 CIG 006V009 SLP164=
ETIC,2012,01,01,09,13,SPECI ETIC 010913Z AUTO 00000KT 2400 BR OVC006 05/05 A2997 RMK AO2 DZB0856E0913 CIG 005V009 SLP165=
ETIC,2012,01,01,09,26,SPECI ETIC 010926Z AUTO 00000KT 2800 BR OVC005 06/06 A2997 RMK AO2 DZB0856E0913 SLP164=
ETIC,2012,01,01,09,30,SPECI ETIC 010930Z AUTO 00000KT 3200 BR OVC005 06/06 A2997 RMK AO2 DZB0856E0913 SLP164=
ETIC,2012,01,01,09,37,SPECI ETIC 010937Z AUTO 00000KT 4000 BR OVC005 06/06 A2998 RMK AO2 DZB0856E0913 SLP167=
ETIC,2012,01,01,09,40,SPECI ETIC 010940Z AUTO 00000KT 5000 BR OVC005 06/06 A2997 RMK AO2 DZB0856E0913 SLP165=
ETIC,2012,01,01,09,41,SPECI ETIC 010941Z AUTO 00000KT 5000 BR OVC006 07/06 A2997 RMK AO2 DZB0856E0913 SLP165=
ETIC,2012,01,01,09,47,SPECI ETIC 010947Z AUTO 00000KT 9000 BR OVC007 07/07 A2997 RMK AO2 DZB0856E0913 SLP165=
ETIC,2012,01,01,09,56,METAR ETIC 010956Z AUTO 22003KT 9999 OVC007 07/07 A2997 RMK AO2 DZB0856E0913 SLP164 P0000 T00730072=
ETIC,2012,01,01,10,15,SPECI ETIC 011015Z AUTO 21004KT 4000 BR OVC007 08/08 A2997 RMK AO2 SLP161=
ETIC,2012,01,01,10,23,SPECI ETIC 011023Z AUTO 21004KT 5000 BR OVC007 08/08 A2997 RMK AO2 SLP160=
ETIC,2012,01,01,10,37,SPECI ETIC 011037Z AUTO 21003KT 8000 BR OVC006 08/08 A2996 RMK AO2 SLP160=
ETIC,2012,01,01,10,56,METAR ETIC 011056Z AUTO VRB03KT 9999 OVC006 09/08 A2996 RMK AO2 CIG 005V008 SLP159 T00860083=
ETIC,2012,01,01,11,56,METAR ETIC 011156Z AUTO 22003KT 6000 BR OVC006 09/09 A2996 RMK AO2 SLP157 60001 70013 T00930088 10093 20023 58003=
ETIC,2012,01,01,12,19,SPECI ETIC 011219Z AUTO 23004KT 9000 BR OVC007 09/09 A2996 RMK AO2 SLP157=
ETIC,2012,01,01,12,24,SPECI ETIC 011224Z AUTO 23004KT 9999 OVC006 09/09 A2996 RMK AO2 SLP157=
ETIC,2012,01,01,12,32,SPECI ETIC 011232Z AUTO 24006KT 9000 -DZ BR OVC006 09/09 A2996 RMK AO2 DZB1232 SLP157=
ETIC,2012,01,01,12,38,SPECI ETIC 011238Z AUTO VRB04KT 4000 -DZ BR OVC006 09/09 A2996 RMK AO2 DZB1232 SLP157=
ETIC,2012,01,01,12,56,METAR ETIC 011256Z AUTO 23004KT 4000 -DZ BR OVC006 09/09 A2996 RMK AO2 DZB1232 SLP157 P0001 T00940090=
ETIC,2012,01,01,12,57,SPECI ETIC 011257Z AUTO 23005KT 5000 -DZ BR OVC006 09/09 A2996 RMK AO2 SLP157=
ETIC,2012,01,01,13,04,SPECI ETIC 011304Z AUTO 23004KT 4000 -DZ BR OVC006 09/09 A2996 RMK AO2 SLP157=
ETIC,2012,01,01,13,12,SPECI ETIC 011312Z AUTO VRB03KT 5000 -DZ BR BKN006 OVC012 09/09 A2996 RMK AO2 SLP157=
ETIC,2012,01,01,13,33,SPECI ETIC 011333Z AUTO VRB03KT 4000 -DZ BR BKN006 OVC011 09/09 A2996 RMK AO2 SLP159=
ETIC,2012,01,01,13,37,SPECI ETIC 011337Z AUTO 23004KT 5000 -DZ BR BKN006 OVC011 09/09 A2996 RMK AO2 SLP159=
ETIC,2012,01,01,13,56,METAR ETIC 011356Z AUTO 22004KT 6000 -DZ BR OVC006 09/09 A2997 RMK AO2 SLP160 P0001 T00920088=
ETIC,2012,01,01,14,00,SPECI ETIC 011400Z AUTO 23003KT 4000 -DZ BR OVC006 09/09 A2996 RMK AO2 OVC V BKN SLP160=
ETIC,2012,01,01,14,03,SPECI ETIC 011403Z AUTO VRB03KT 3200 -DZ BR BKN006 OVC012 09/09 A2996 RMK AO2 SLP160=
ETIC,2012,01,01,14,04,SPECI ETIC 011404Z AUTO 23003KT 3200 -DZ BR BKN007 OVC012 09/09 A2996 RMK AO2 SLP160=
ETIC,2012,01,01,14,11,SPECI ETIC 011411Z AUTO 00000KT 5000 -DZ BR OVC007 09/09 A2996 RMK AO2 OVC V BKN SLP159=
ETIC,2012,01,01,14,16,SPECI ETIC 011416Z AUTO 00000KT 6000 BR BKN007 OVC012 09/09 A2996 RMK AO2 DZE1416 SLP159=
ETIC,2012,01,01,14,21,SPECI ETIC 011421Z AUTO 00000KT 6000 -DZ BR BKN006 OVC012 09/09 A2996 RMK AO2 SLP159=
ETIC,2012,01,01,14,29,SPECI ETIC 011429Z AUTO 00000KT 8000 BR BKN006 OVC012 09/09 A2996 RMK AO2 DZE1429 SLP159=
ETIC,2012,01,01,14,56,METAR ETIC 011456Z AUTO 20004KT 9000 BR BKN006 OVC012 09/09 A2996 RMK AO2 DZE1429 SLP159 P0001 60003 T00920089 50002=
ETIC,2012,01,01,14,58,SPECI ETIC 011458Z AUTO 20004KT 9999 OVC007 09/09 A2996 RMK AO2 SLP158=
ETIC,2012,01,01,15,06,SPECI ETIC 011506Z AUTO 20005KT 9999 BKN006 OVC012 09/09 A2996 RMK AO2 SLP156=
ETIC,2012,01,01,15,14,SPECI ETIC 011514Z AUTO 20003KT 9999 BKN008 OVC027 09/09 A2996 RMK AO2 SLP157=
ETIC,2012,01,01,15,26,SPECI ETIC 011526Z AUTO 21005KT 9999 SCT008 OVC017 09/09 A2996 RMK AO2 SLP157=
ETIC,2012,01,01,15,30,SPECI ETIC 011530Z AUTO VRB04KT 9999 SCT007 OVC016 09/09 A2996 RMK AO2 SLP157=
ETIC,2012,01,01,15,33,SPECI ETIC 011533Z AUTO 22003KT 9999 DZ FEW007 OVC016 09/09 A2997 RMK AO2 DZB1533 SLP158=
ETIC,2012,01,01,15,48,SPECI ETIC 011548Z AUTO 21004KT 9999 FEW009 BKN016 OVC021 09/09 A2996 RMK AO2 DZB1533E1548 SLP155=
ETIC,2012,01,01,15,56,METAR ETIC 011556Z AUTO 21004KT 9999 SCT009 BKN016 OVC021 09/09 A2996 RMK AO2 DZB1533E1548 SLP155 P0001 T00920088=
ETIC,2012,01,01,16,01,SPECI ETIC 011601Z AUTO 23004KT 9000 -DZ BR SCT008 OVC016 09/09 A2996 RMK AO2 DZB1553 SLP156=
ETIC,2012,01,01,16,04,SPECI ETIC 011604Z AUTO VRB04KT 9999 SCT008 OVC018 09/09 A2996 RMK AO2 DZB1553E1604 SLP157=
ETIC,2012,01,01,16,05,SPECI ETIC 011605Z AUTO 22005KT 9999 SCT007 SCT011 OVC018 09/09 A2996 RMK AO2 DZB1553E1604 SLP157=
ETIC,2012,01,01,16,15,SPECI ETIC 011615Z AUTO 21006KT 9999 FEW007 BKN015 OVC020 09/09 A2996 RMK AO2 DZB1553E1604 SLP158=
ETIC,2012,01,01,16,56,METAR ETIC 011656Z AUTO 21004KT 9999 OVC016 09/09 A2997 RMK AO2 DZB1553E1604 CIG 011V020 OVC V BKN SLP160 P0000 T00920086=
ETIC,2012,01,01,16,57,SPECI ETIC 011657Z AUTO 21003KT 9999 OVC015 09/09 A2997 RMK AO2 CIG 011V019 SLP160=
ETIC,2012,01,01,17,02,SPECI ETIC 011702Z AUTO 21004KT 9999 BKN014 BKN021 OVC027 09/09 A2997 RMK AO2 CIG 011V016 SLP159=
ETIC,2012,01,01,17,15,SPECI ETIC 011715Z AUTO 22003KT 9999 -DZ BKN014 OVC025 09/09 A2997 RMK AO2 DZB1715 SLP160=
ETIC,2012,01,01,17,29,SPECI ETIC 011729Z AUTO VRB03KT 9999 BKN012 OVC020 09/09 A2998 RMK AO2 DZB1715E1729 BKN V OVC SLP162=
ETIC,2012,01,01,17,56,METAR ETIC 011756Z AUTO VRB03KT 9999 OVC011 09/09 A2998 RMK AO2 DZB1715E1729 CIG 009V016 SLP164 P0000 60004 T00910087 10094 20091 53006=
ETIC,2012,01,01,18,20,SPECI ETIC 011820Z AUTO 21003KT 9999 SCT014 OVC038 09/08 A2998 RMK AO2 SLP162=
ETIC,2012,01,01,18,27,SPECI ETIC 011827Z AUTO 21004KT 9999 SCT014 BKN029 OVC038 09/08 A2998 RMK AO2 BKN V SCT SLP162=
ETIC,2012,01,01,18,34,SPECI ETIC 011834Z AUTO 20004KT 9999 BKN013 BKN028 OVC038 09/08 A2997 RMK AO2 CIG 013V017 SLP159=
ETIC,2012,01,01,18,56,METAR ETIC 011856Z AUTO 21004KT 9999 SCT013 OVC026 09/08 A2997 RMK AO2 CIG 021V030 SLP159 T00890084=
ETIC,2012,01,01,19,12,SPECI ETIC 011912Z AUTO 20003KT 9999 SCT025 OVC033 09/08 A2996 RMK AO2 SCT V BKN SLP158=
ETIC,2012,01,01,19,56,METAR ETIC 011956Z AUTO 17004KT 9999 BKN025 BKN037 OVC065 09/08 A2996 RMK AO2 CIG 022V027 SLP156 T00900083=
ETIC,2012,01,01,20,56,METAR ETIC 012056Z AUTO 14003KT 9999 SCT013 OVC020 09/08 A2994 RMK AO2 SLP149 T00900081 58012=
ETIC,2012,01,01,21,56,METAR ETIC 012156Z AUTO 13003KT 9999 BKN024 OVC060 08/08 A2993 RMK AO2 CIG 023V028 SLP142 T00790077=
ETIC,2012,01,01,22,56,METAR ETIC 012256Z AUTO 00000KT 9999 BKN060 07/07 A2991 RMK AO2 SLP136 T00730072 400940013=
ETIE,2012,01,01,00,55,METAR ETIE 010055Z AUTO 16004KT 1 1/2SM -SHRA BR SCT005 BKN017 10/09 A2996 RMK AO2 RAB0041RAE0043SHRAB0043 SLP148 P0000 T00960093=
ETIE,2012,01,01,01,55,METAR ETIE 010155Z AUTO 17006KT 3SM -SHRA BR FEW006 BKN020 10/10 A2996 RMK AO2 SLP149 T00970095=
ETIE,2012,01,01,02,55,METAR ETIE 010255Z AUTO 22008KT 4SM -SHRA BR BKN023 10/10 A2997 RMK AO2 SHRAE0240SHRAB0241SHRAE0251DZB0251DZE0254SHRAB0254 SLP151 P0000 60002 T00970095 52005=
ETIE,2012,01,01,03,55,METAR ETIE 010355Z AUTO 19007KT 7SM BR BKN005 BKN028 BKN047 10/10 A2997 RMK AO2 SHRAE0340 SLP151 P0000 T01000099=
ETIE,2012,01,01,04,55,METAR ETIE 010455Z AUTO 21008KT 4SM -SHRA BR SCT006 BKN023 10/10 A2997 RMK AO2 SHRAB0440 SLP152 P0000 T00990097=
ETIE,2012,01,01,05,55,METAR ETIE 010555Z AUTO 21008KT 10SM -SHRA OVC006 10/10 A2998 RMK AO2 SLP154 P0000 60003 T01010099 10097 20085 52003=
ETIE,2012,01,01,06,55,METAR ETIE 010655Z AUTO 22010KT 10SM -SHRA BKN006 OVC018 10/10 A2999 RMK AO2 SLP156 T01030100=
ETIE,2012,01,01,07,55,METAR ETIE 010755Z AUTO 21011KT 10SM OVC020 11/10 A3000 RMK AO2 SHRAE0741 SLP161 T01050099=
ETIE,2012,01,01,08,55,METAR ETIE 010855Z AUTO 21012KT 10SM SCT008 OVC024 11/10 A3000 RMK AO2 SLP162 60002 T01070102 52009=
ETIE,2012,01,01,09,55,METAR ETIE 010955Z AUTO 21011KT 10SM FEW009 BKN029 BKN060 BKN080 BKN130 11/11 A3001 RMK AO2 SLP163 T01130105=
ETIE,2012,01,01,10,55,METAR ETIE 011055Z AUTO 22013G17KT 10SM OVC010 12/11 A3000 RMK AO2 SLP161 T01150105=
ETIE,2012,01,01,11,55,METAR ETIE 011155Z AUTO 22012KT 7SM BKN025 12/11 A2999 RMK AO2 SLP157 60002 70036 T01170107 10109 20095 58005=
ETIE,2012,01,01,12,55,METAR ETIE 011255Z AUTO 21012KT 10SM BKN023 12/11 A2996 RMK AO2 SHRAB1241SHRAE1249 SLP146 P0000 T01200109=
ETIE,2012,01,01,13,55,METAR ETIE 011355Z AUTO 20009KT 10SM BKN015 13/11 A2996 RMK AO2 SLP146 T01250108=
ETIE,2012,01,01,14,55,METAR ETIE 011455Z AUTO 21013G17KT 10SM BKN014 12/11 A2996 RMK AO2 SLP146 T01220106 56009=
ETIE,2012,01,01,15,55,METAR ETIE 011555Z AUTO 21012KT 10SM OVC017 12/10 A2996 RMK AO2 SLP146 T01220104=
ETIE,2012,01,01,16,55,METAR ETIE 011655Z AUTO 20011G20KT 10SM BKN012 12/11 A2996 RMK AO2 SLP146 T01200106=
ETIE,2012,01,01,17,55,METAR ETIE 011755Z AUTO 20010KT 10SM BKN018 12/11 A2995 RMK AO2 SLP143 60001 T01200107 10125 20109 57002=
ETIE,2012,01,01,18,55,METAR ETIE 011855Z AUTO 19007KT 10SM OVC030 12/10 A2994 RMK AO2 SLP139 T01210104=
ETIE,2012,01,01,19,55,METAR ETIE 011955Z AUTO 22015G21KT 10SM OVC031 13/10 A2992 RMK AO2 SLP135 T01260100=
ETIE,2012,01,01,20,55,METAR ETIE 012055Z AUTO 20010G18KT 10SM BKN032 13/10 A2991 RMK AO2 SLP129 T01270100 57014=
ETIE,2012,01,01,21,55,METAR ETIE 012155Z AUTO 20009KT 10SM BKN031 13/10 A2990 RMK AO2 SLP124 T01260100=
ETIE,2012,01,01,22,55,METAR ETIE 012255Z AUTO 20010KT 10SM OVC031 12/10 A2987 RMK AO2 SLP117 T01240099=
ETIH,2012,01,01,00,03,SPECI ETIH 010003Z AUTO 00000KT 1600 UP BR VV003 02/02 A2996 RMK AO2 SLP167=
ETIH,2012,01,01,00,13,SPECI ETIH 010013Z AUTO 00000KT 2000 BR OVC003 02/02 A2996 RMK AO2 UPE0013 SLP168=
ETIH,2012,01,01,00,24,SPECI ETIH 010024Z AUTO 00000KT 2800 UP BR OVC003 02/02 A2996 RMK AO2 SLP167=
ETIH,2012,01,01,00,47,SPECI ETIH 010047Z AUTO 00000KT 2800 BR OVC004 02/02 A2996 RMK AO2 UPE0047 SLP168=
ETIH,2012,01,01,00,55,METAR ETIH 010055Z AUTO 00000KT 2800 BR OVC004 02/02 A2996 RMK AO2 UPE0047 SLP165 P0001 T00210020=
ETIH,2012,01,01,01,00,SPECI ETIH 010100Z AUTO 00000KT 2000 BR OVC005 02/02 A2996 RMK AO2 SLP168=
ETIH,2012,01,01,01,04,SPECI ETIH 010104Z AUTO 00000KT 1600 UP BR VV005 02/02 A2996 RMK AO2 UPB0104 SLP169=
ETIH,2012,01,01,01,07,SPECI ETIH 010107Z AUTO 00000KT 1200 UP BR VV004 02/02 A2996 RMK AO2 UPB0104 SLP169=
ETIH,2012,01,01,01,33,SPECI ETIH 010133Z AUTO 00000KT 1200 -DZ BR VV005 02/02 A2997 RMK AO2 UPB0104E0116DZB0116 SLP171=
ETIH,2012,01,01,01,37,SPECI ETIH 010137Z AUTO 00000KT 1600 -DZ BR VV005 02/02 A2997 RMK AO2 UPB0104E0116DZB0116 SLP171=
ETIH,2012,01,01,01,55,METAR ETIH 010155Z AUTO 00000KT 2400 -DZ BR OVC005 02/02 A2997 RMK AO2 UPB0104E0116DZB0116 SLP171 P0002 T00230022=
ETIH,2012,01,01,02,01,SPECI ETIH 010201Z AUTO 00000KT 3200 -RA BR OVC005 02/02 A2997 RMK AO2 RAB0151DZE0151 SLP171=
ETIH,2012,01,01,02,18,SPECI ETIH 010218Z AUTO 27003KT 6000 -DZ BR BKN005 OVC009 04/03 A2997 RMK AO2 RAB0151E0211DZE0151B0211 SLP168=
ETIH,2012,01,01,02,42,SPECI ETIH 010242Z AUTO 00000KT 8000 BR BKN005 OVC020 04/04 A2997 RMK AO2 RAB0151E0240DZE0151B0211E0221B0240E0242 SLP168=
ETIH,2012,01,01,02,55,METAR ETIH 010255Z AUTO 00000KT 4800 BR BKN005 OVC023 05/04 A2997 RMK AO2 RAB0151E0240DZE0151B0211E0221B0240E0242 SLP168 P0002 60005 T00450044 50003=
ETIH,2012,01,01,02,56,SPECI ETIH 010256Z AUTO 00000KT 6000 -RA BR BKN005 OVC021 05/04 A2997 RMK AO2 RAB0256DZB0253E0254 SLP169=
ETIH,2012,01,01,03,11,SPECI ETIH 010311Z AUTO 00000KT 9999 BKN005 OVC014 05/05 A2997 RMK AO2 RAB0256E0311DZB0253E0254 SLP169=
ETIH,2012,01,01,03,24,SPECI ETIH 010324Z AUTO 00000KT 6000 -RA BR BKN005 OVC022 05/05 A2997 RMK AO2 RAB0256DZB0253E0254 BKN V OVC SLP168=
ETIH,2012,01,01,03,31,SPECI ETIH 010331Z AUTO 00000KT 4800 -RA BR BKN005 OVC021 05/05 A2997 RMK AO2 RAB0256DZB0253E0254 SLP168=
ETIH,2012,01,01,03,34,SPECI ETIH 010334Z AUTO 00000KT 6000 -RA BR BKN005 OVC024 05/05 A2997 RMK AO2 RAB0256DZB0253E0254 BKN V OVC SLP168=
ETIH,2012,01,01,03,37,SPECI ETIH 010337Z AUTO 00000KT 4800 -RA BR OVC005 05/05 A2997 RMK AO2 RAB0256DZB0253E0254 SLP168=
ETIH,2012,01,01,03,41,SPECI ETIH 010341Z AUTO 00000KT 4800 BR OVC005 05/05 A2997 RMK AO2 RAB0256E0341DZB0253E0254 SLP168=
ETIH,2012,01,01,03,45,SPECI ETIH 010345Z AUTO 00000KT 4800 -RA BR OVC005 05/05 A2997 RMK AO2 RAB0256DZB0253E0254 SLP168=
ETIH,2012,01,01,03,48,SPECI ETIH 010348Z AUTO 00000KT 4800 -RA BR BKN005 BKN010 OVC018 05/05 A2997 RMK AO2 RAB0256DZB0253E0254 BKN010 V OVC SLP168=
ETIH,2012,01,01,03,55,METAR ETIH 010355Z AUTO 00000KT 4800 -RA BR BKN005 BKN010 OVC018 05/05 A2997 RMK AO2 RAB0256DZB0253E0254 BKN010 V OVC SLP168 P0001 T00510050=
ETIH,2012,01,01,04,03,SPECI ETIH 010403Z AUTO 00000KT 6000 BR OVC005 05/05 A2997 RMK AO2 RAE0403 OVC V BKN SLP168=
ETIH,2012,01,01,04,04,SPECI ETIH 010404Z AUTO 00000KT 6000 -RA BR OVC005 05/05 A2997 RMK AO2 OVC V BKN SLP168=
ETIH,2012,01,01,04,15,SPECI ETIH 010415Z AUTO 26003KT 9000 BR OVC006 05/05 A2998 RMK AO2 RAE0410DZB0410E0415 SLP169=
ETIH,2012,01,01,04,27,SPECI ETIH 010427Z AUTO 00000KT 6000 -DZ BR OVC005 05/05 A2998 RMK AO2 RAE0410DZB0410 CIG 004V007 SLP170=
ETIH,2012,01,01,04,55,METAR ETIH 010455Z AUTO 00000KT 6000 -RA BR BKN005 OVC016 06/05 A2998 RMK AO2 RAE0410B0440DZB0410E0440 SLP172 P0001 T00560053=
ETIH,2012,01,01,04,58,SPECI ETIH 010458Z AUTO 00000KT 4800 -RA BR SCT005 OVC024 06/05 A2998 RMK AO2 SLP171=
ETIH,2012,01,01,05,03,SPECI ETIH 010503Z AUTO 00000KT 6000 -RA BR SCT005 SCT013 OVC024 06/06 A2998 RMK AO2 SLP171=
ETIH,2012,01,01,05,14,SPECI ETIH 010514Z AUTO 00000KT 9000 -RA BR BKN006 BKN010 OVC022 06/06 A2998 RMK AO2 SLP172=
ETIH,2012,01,01,05,26,SPECI ETIH 010526Z AUTO 00000KT 9999 BKN006 OVC011 06/06 A2999 RMK AO2 RAE0526 OVC V BKN SLP172=
ETIH,2012,01,01,05,55,METAR ETIH 010555Z AUTO 00000KT 9999 OVC006 06/06 A2999 RMK AO2 RAE0526 CIG 005V007 SLP173 P0001 60008 T00580055 10060 20019 52007=
ETIH,2012,01,01,06,55,METAR ETIH 010655Z AUTO 00000KT 8000 -DZ BR OVC006 06/06 A2999 RMK AO2 DZB0650 CIG 005V009 SLP175 P0001 T00580056=
ETIH,2012,01,01,06,56,SPECI ETIH 010656Z AUTO 00000KT 4800 -DZ BR OVC006 06/06 A3000 RMK AO2 CIG 005V009 SLP176=
ETIH,2012,01,01,07,04,SPECI ETIH 010704Z AUTO 00000KT 2800 -DZ BR OVC006 06/06 A3000 RMK AO2 CIG 006V009 SLP176=
ETIH,2012,01,01,07,18,SPECI ETIH 010718Z AUTO 00000KT 3200 -DZ BR OVC006 06/06 A3000 RMK AO2 CIG 005V010 SLP177=
ETIH,2012,01,01,07,20,SPECI ETIH 010720Z AUTO 00000KT 4800 BR OVC007 06/06 A3000 RMK AO2 DZE0720 CIG 005V010 SLP177=
ETIH,2012,01,01,07,55,METAR ETIH 010755Z AUTO 00000KT 9999 OVC008 07/07 A3001 RMK AO2 DZE0720 SLP179 P0000 T00720068=
ETIH,2012,01,01,08,42,SPECI ETIH 010842Z AUTO 00000KT 6000 BR OVC006 07/07 A3002 RMK AO2 CIG 005V008 SLP182=
ETIH,2012,01,01,08,43,SPECI ETIH 010843Z AUTO 00000KT 4800 BR OVC006 07/07 A3002 RMK AO2 CIG 005V008 SLP182=
ETIH,2012,01,01,08,55,METAR ETIH 010855Z AUTO 22003KT 3200 BR OVC006 07/07 A3002 RMK AO2 CIG 005V009 SLP182 60001 T00730070 53011=
ETIH,2012,01,01,09,31,SPECI ETIH 010931Z AUTO VRB04KT 9999 OVC007 08/07 A3002 RMK AO2 CIG 006V008 SLP181=
ETIH,2012,01,01,09,55,METAR ETIH 010955Z AUTO 24003KT 9000 BR OVC007 08/07 A3002 RMK AO2 CIG 006V008 SLP181 T00790074=
ETIH,2012,01,01,10,05,SPECI ETIH 011005Z AUTO VRB03KT 6000 BR OVC006 08/07 A3002 RMK AO2 CIG 006V008 SLP181=
ETIH,2012,01,01,10,12,SPECI ETIH 011012Z AUTO VRB06KT 9000 BR OVC007 08/07 A3002 RMK AO2 CIG 006V008 SLP180=
ETIH,2012,01,01,10,55,METAR ETIH 011055Z AUTO VRB06KT 9999 OVC008 09/08 A3001 RMK AO2 CIG 007V010 SLP178 T00860079=
ETIH,2012,01,01,11,55,METAR ETIH 011155Z AUTO 24005KT 9999 OVC008 09/08 A3001 RMK AO2 CIG 007V011 SLP175 60001 70015 T00920083 10092 20056 57003=
ETIH,2012,01,01,12,55,METAR ETIH 011255Z AUTO VRB05KT 9999 OVC009 09/08 A3001 RMK AO2 CIG 008V011 SLP174 T00930084=
ETIH,2012,01,01,13,55,METAR ETIH 011355Z AUTO 26005KT 9999 OVC008 09/08 A3001 RMK AO2 CIG 007V011 SLP175 T00940085=
ETIH,2012,01,01,14,09,SPECI ETIH 011409Z AUTO 23006KT 4800 BR BKN008 OVC017 09/09 A3002 RMK AO2 SLP176=
ETIH,2012,01,01,14,12,SPECI ETIH 011412Z AUTO VRB05KT 4000 -RA BR BKN008 OVC016 09/09 A3002 RMK AO2 RAB1412 BKN V OVC SLP176=
ETIH,2012,01,01,14,21,SPECI ETIH 011421Z AUTO VRB05KT 4800 BR BKN007 BKN011 OVC017 09/09 A3002 RMK AO2 RAB1412E1421 BKN011 V OVC SLP176=
ETIH,2012,01,01,14,26,SPECI ETIH 011426Z AUTO 22004KT 6000 -DZ BR BKN007 OVC016 09/09 A3001 RMK AO2 RAB1412E1421DZB1426 SLP174=
ETIH,2012,01,01,14,35,SPECI ETIH 011435Z AUTO 00000KT 9999 BKN007 OVC013 09/09 A3001 RMK AO2 RAB1412E1421DZB1426E1435 SLP173=
ETIH,2012,01,01,14,55,METAR ETIH 011455Z AUTO VRB03KT 9999 BKN007 OVC012 09/09 A3002 RMK AO2 RAB1412E1421DZB1426E1435 SLP174 P0001 60001 T00920086 53001=
ETIH,2012,01,01,14,56,SPECI ETIH 011456Z AUTO 24003KT 9999 -DZ BKN007 OVC011 09/09 A3002 RMK AO2 DZB1456 SLP175=
ETIH,2012,01,01,15,08,SPECI ETIH 011508Z AUTO 22003KT 8000 BR BKN007 OVC013 09/09 A3002 RMK AO2 DZB1456E1508 SLP174=
ETIH,2012,01,01,15,09,SPECI ETIH 011509Z AUTO 23003KT 9000 BR OVC010 09/09 A3002 RMK AO2 DZB1456E1508 SLP174=
ETIH,2012,01,01,15,18,SPECI ETIH 011518Z AUTO 23004KT 9999 BKN009 OVC013 09/09 A3002 RMK AO2 DZB1456E1508 SLP175=
ETIH,2012,01,01,15,23,SPECI ETIH 011523Z AUTO 23005KT 9999 OVC011 09/09 A3001 RMK AO2 DZB1456E1508 SLP174=
ETIH,2012,01,01,15,28,SPECI ETIH 011528Z AUTO 23004KT 9999 OVC011 09/09 A3002 RMK AO2 DZB1456E1508 SLP174=
ETIH,2012,01,01,15,36,SPECI ETIH 011536Z AUTO VRB03KT 9999 BKN009 OVC013 09/09 A3002 RMK AO2 DZB1456E1508 SLP174=
ETIH,2012,01,01,15,55,METAR ETIH 011555Z AUTO 23003KT 9000 BR BKN009 OVC019 09/09 A3001 RMK AO2 DZB1456E1508 BKN V OVC SLP173 P0000 T00900086=
ETIH,2012,01,01,16,06,SPECI ETIH 011606Z AUTO 24003KT 9999 SCT008 BKN012 BKN019 OVC035 09/08 A3002 RMK AO2 SLP174=
ETIH,2012,01,01,16,15,SPECI ETIH 011615Z AUTO 24005KT 9999 FEW007 SCT012 SCT019 OVC038 09/08 A3002 RMK AO2 FEW V SCT SLP176=
ETIH,2012,01,01,16,55,METAR ETIH 011655Z AUTO VRB03KT 9999 SCT036 OVC049 09/08 A3002 RMK AO2 SLP176 T00920083=
ETIH,2012,01,01,17,55,METAR ETIH 011755Z AUTO 23004KT 9999 SCT028 BKN038 BKN047 09/08 A3003 RMK AO2 SLP177 60001 T00890083 10094 20087 53003=
ETIH,2012,01,01,18,55,METAR ETIH 011855Z AUTO 00000KT 9999 FEW035 08/08 A3001 RMK AO2 SLP173 T00830077=
ETIH,2012,01,01,18,58,SPECI ETIH 011858Z AUTO 00000KT 2800 BR FEW035 08/07 A3001 RMK AO2 SLP173=
ETIH,2012,01,01,19,13,SPECI ETIH 011913Z AUTO 00000KT 6000 BR FEW035 07/07 A3001 RMK AO2 SLP172=
ETIH,2012,01,01,19,19,SPECI ETIH 011919Z AUTO 00000KT 2800 BR CLR 07/07 A3001 RMK AO2 VIS 1200V8000 SLP174=
ETIH,2012,01,01,19,55,METAR ETIH 011955Z AUTO 00000KT 2400 BR SCT042 06/06 A3001 RMK AO2 VIS 1200V8000 SLP172 T00620060=
ETIH,2012,01,01,19,58,SPECI ETIH 011958Z AUTO 00000KT 1200 BR FEW043 06/06 A3001 RMK AO2 SLP172=
ETIH,2012,01,01,20,37,SPECI ETIH 012037Z AUTO 00000KT 1600 BR FEW055 06/06 A3000 RMK AO2 SLP169=
ETIH,2012,01,01,20,46,SPECI ETIH 012046Z AUTO 00000KT 3200 BR FEW050 06/06 A3000 RMK AO2 SLP168=
ETIH,2012,01,01,20,55,METAR ETIH 012055Z AUTO 12003KT 6000 BR FEW050 06/06 A2999 RMK AO2 SLP167 T00610060 57010=
ETIH,2012,01,01,21,55,METAR ETIH 012155Z AUTO 23007KT 9999 FEW080 08/07 A2998 RMK AO2 SLP160 P0001 T00790072=
ETIH,2012,01,01,22,55,METAR ETIH 012255Z AUTO 24005KT 9999 CLR 08/07 A2996 RMK AO2 SLP154 T00770070 400940017=
ETIK,2012,01,01,00,10,SPECI ETIK 010010Z AUTO 25010KT 9999 SCT008 SCT013 SCT026 OVC032 09/09 A2995 RMK AO2 DZE0010 SLP148=
ETIK,2012,01,01,00,12,SPECI ETIK 010012Z AUTO 25010KT 9999 SCT008 SCT013 BKN019 OVC032 09/09 A2995 RMK AO2 DZE0010 BKN V SCT SLP148=
ETIK,2012,01,01,00,16,SPECI ETIK 010016Z AUTO 25011KT 9999 -DZ SCT008 SCT013 BKN019 OVC030 09/09 A2995 RMK AO2 SLP148=
ETIK,2012,01,01,00,22,SPECI ETIK 010022Z AUTO 25010KT 9999 -RA SCT010 BKN014 BKN019 OVC030 09/09 A2995 RMK AO2 RAB0020DZE0020 BKN014 V SCT SLP148=
ETIK,2012,01,01,00,26,SPECI ETIK 010026Z AUTO 25010KT 9999 -RA SCT009 SCT014 BKN019 OVC040 09/09 A2995 RMK AO2 RAB0020DZE0020 SLP148=
ETIK,2012,01,01,00,30,SPECI ETIK 010030Z AUTO 24009KT 9000 RA BR SCT009 SCT013 SCT019 OVC050 09/09 A2995 RMK AO2 RAB0020DZE0020 SCT019 V BKN SLP148=
ETIK,2012,01,01,00,40,SPECI ETIK 010040Z AUTO 25009KT 9999 -RA FEW006 SCT015 OVC049 09/09 A2995 RMK AO2 RAB0020DZE0020 FEW V SCT SLP148=
ETIK,2012,01,01,00,41,SPECI ETIK 010041Z AUTO 25010KT 9999 -RA FEW006 BKN015 OVC049 09/09 A2995 RMK AO2 RAB0020DZE0020 BKN V SCT SLP148=
ETIK,2012,01,01,00,45,SPECI ETIK 010045Z AUTO 25010KT 9999 -RA SCT006 BKN014 OVC047 09/09 A2995 RMK AO2 RAB0020DZE0020 BKN V SCT SLP148=
ETIK,2012,01,01,00,46,SPECI ETIK 010046Z AUTO 25010KT 9000 -RA BR SCT006 SCT014 OVC047 09/09 A2995 RMK AO2 RAB0020DZE0020 SCT014 V BKN SLP148=
ETIK,2012,01,01,00,55,METAR ETIK 010055Z AUTO 25011KT 9999 -RA FEW006 BKN012 OVC044 09/09 A2995 RMK AO2 RAB0020DZE0020 SLP148 P0002 T00860086=
ETIK,2012,01,01,01,01,SPECI ETIK 010101Z AUTO 25011KT 9999 FEW006 BKN012 OVC039 09/09 A2995 RMK AO2 RAE0058DZB0058E0101 SLP148=
ETIK,2012,01,01,01,09,SPECI ETIK 010109Z AUTO 25010KT 9999 FEW006 BKN011 OVC032 09/09 A2995 RMK AO2 RAE0058DZB0058E0101 SLP149=
ETIK,2012,01,01,01,18,SPECI ETIK 010118Z AUTO 25010KT 9999 BKN012 BKN019 BKN024 OVC029 09/09 A2996 RMK AO2 RAE0058DZB0058E0101 SLP150=
ETIK,2012,01,01,01,22,SPECI ETIK 010122Z AUTO 25011KT 9999 SCT012 BKN019 OVC026 09/09 A2996 RMK AO2 RAE0058DZB0058E0101 SLP150=
ETIK,2012,01,01,01,31,SPECI ETIK 010131Z AUTO 25010KT 9999 BKN012 BKN023 OVC028 09/09 A2996 RMK AO2 RAE0058DZB0058E0101 BKN012 V SCT SLP151=
ETIK,2012,01,01,01,34,SPECI ETIK 010134Z AUTO 25010KT 9999 BKN011 OVC025 09/09 A2996 RMK AO2 RAE0058DZB0058E0101 SLP151=
ETIK,2012,01,01,01,39,SPECI ETIK 010139Z AUTO 25009KT 9999 BKN010 BKN023 OVC028 09/09 A2996 RMK AO2 RAE0058DZB0058E0101 SLP151=
ETIK,2012,01,01,01,45,SPECI ETIK 010145Z AUTO 25008KT 9999 BKN009 OVC025 09/09 A2996 RMK AO2 RAE0058DZB0058E0101 SLP151=
ETIK,2012,01,01,01,55,METAR ETIK 010155Z AUTO 25009KT 9999 OVC008 09/09 A2996 RMK AO2 RAE0058DZB0058E0101 OVC V BKN SLP151 P0000 T00870087=
ETIK,2012,01,01,02,11,SPECI ETIK 010211Z AUTO 25009KT 9999 OVC007 09/09 A2996 RMK AO2 CIG 006V010 SLP152=
ETIK,2012,01,01,02,12,SPECI ETIK 010212Z AUTO 25009KT 9999 -DZ OVC007 09/09 A2996 RMK AO2 DZB0212 CIG 006V010 SLP152=
ETIK,2012,01,01,02,29,SPECI ETIK 010229Z AUTO 25010KT 6000 -DZ BR BKN006 OVC011 09/09 A2996 RMK AO2 DZB0212 SLP152=
ETIK,2012,01,01,02,32,SPECI ETIK 010232Z AUTO 25009KT 6000 BR BKN005 OVC010 09/09 A2996 RMK AO2 DZB0212E0232 SLP152=
ETIK,2012,01,01,02,36,SPECI ETIK 010236Z AUTO 25008KT 6000 -DZ BR BKN004 OVC010 09/09 A2996 RMK AO2 DZB0212 SLP152=
ETIK,2012,01,01,02,42,SPECI ETIK 010242Z AUTO 25008KT 8000 -DZ BR SCT004 OVC009 09/09 A2996 RMK AO2 DZB0212 SLP152=
ETIK,2012,01,01,02,55,METAR ETIK 010255Z AUTO 26006KT 9999 -DZ FEW004 OVC009 09/09 A2996 RMK AO2 DZB0212 CIG 008V010 SLP151 P0001 60003 T00890089 52003=
ETIK,2012,01,01,02,56,SPECI ETIK 010256Z AUTO 26006KT 9999 FEW004 OVC008 09/09 A2996 RMK AO2 DZE0256 CIG 008V010 SLP151=
ETIK,2012,01,01,03,03,SPECI ETIK 010303Z AUTO 25006KT 9999 -DZ OVC008 09/09 A2996 RMK AO2 CIG 006V010 SLP152=
ETIK,2012,01,01,03,07,SPECI ETIK 010307Z AUTO 25007KT 9999 -DZ OVC007 09/09 A2996 RMK AO2 CIG 006V010 SLP152=
ETIK,2012,01,01,03,13,SPECI ETIK 010313Z AUTO 24007KT 9999 OVC007 09/09 A2996 RMK AO2 DZE0313 CIG 006V010 SLP151=
ETIK,2012,01,01,03,14,SPECI ETIK 010314Z AUTO 24008KT 9999 OVC008 09/09 A2996 RMK AO2 DZE0313 CIG 006V011 SLP151=
ETIK,2012,01,01,03,18,SPECI ETIK 010318Z AUTO 24009KT 9999 -DZ BKN008 OVC012 09/09 A2996 RMK AO2 CIG 006V011 BKN V OVC SLP152=
ETIK,2012,01,01,03,22,SPECI ETIK 010322Z AUTO 25008KT 9000 -DZ BR BKN007 OVC012 09/09 A2996 RMK AO2 CIG 006V010 SLP152=
ETIK,2012,01,01,03,28,SPECI ETIK 010328Z AUTO 25008KT 9999 -DZ BKN008 OVC012 09/09 A2996 RMK AO2 CIG 006V010 SLP152=
ETIK,2012,01,01,03,41,SPECI ETIK 010341Z AUTO 24009KT 9999 -DZ SCT008 OVC013 09/09 A2996 RMK AO2 CIG 012V017 OVC V BKN SLP151=
ETIK,2012,01,01,03,43,SPECI ETIK 010343Z AUTO 24009KT 9999 SCT008 BKN013 OVC044 09/09 A2996 RMK AO2 DZE0343 CIG 012V017 SLP152=
ETIK,2012,01,01,03,51,SPECI ETIK 010351Z AUTO 25009KT 9999 SCT008 SCT013 OVC048 09/09 A2997 RMK AO2 DZE0343 SLP153=
ETIK,2012,01,01,03,55,METAR ETIK 010355Z AUTO 25009KT 9999 FEW008 SCT013 OVC048 09/09 A2997 RMK AO2 DZE0343 FEW V SCT SLP154 P0001 T00930093=
ETIK,2012,01,01,03,57,SPECI ETIK 010357Z AUTO 25009KT 9999 FEW008 BKN013 OVC048 09/09 A2997 RMK AO2 CIG 012V017 SLP155=
ETIK,2012,01,01,04,08,SPECI ETIK 010408Z AUTO 25009KT 9999 BKN015 OVC048 09/09 A2997 RMK AO2 CIG 012V019 SLP155=
ETIK,2012,01,01,04,09,SPECI ETIK 010409Z AUTO 25011KT 9999 BKN014 OVC048 09/09 A2997 RMK AO2 CIG 012V019 SLP156=
ETIK,2012,01,01,04,22,SPECI ETIK 010422Z AUTO 25013KT 9999 -DZ OVC014 10/10 A2997 RMK AO2 DZB0422 CIG 012V018 OVC V BKN SLP156=
ETIK,2012,01,01,04,31,SPECI ETIK 010431Z AUTO 24013KT 9999 BKN014 BKN019 OVC034 10/10 A2997 RMK AO2 DZB0422E0431 CIG 012V016 SLP155=
ETIK,2012,01,01,04,35,SPECI ETIK 010435Z AUTO 24012KT 9999 -DZ BKN013 BKN027 OVC034 10/10 A2998 RMK AO2 DZB0422 CIG 010V015 SLP155=
ETIK,2012,01,01,04,42,SPECI ETIK 010442Z AUTO 24009KT 9999 -DZ SCT012 BKN022 OVC034 10/10 A2998 RMK AO2 DZB0422 CIG 019V025 SLP155=
ETIK,2012,01,01,04,44,SPECI ETIK 010444Z AUTO 24009KT 9999 -DZ FEW009 SCT012 BKN021 BKN026 OVC034 09/09 A2998 RMK AO2 DZB0422 FEW V SCT SLP155=
ETIK,2012,01,01,04,46,SPECI ETIK 010446Z AUTO 24009KT 9999 SCT012 BKN021 BKN026 OVC034 09/09 A2998 RMK AO2 DZB0422E0446 SLP155=
ETIK,2012,01,01,04,47,SPECI ETIK 010447Z AUTO 25009KT 9999 FEW010 SCT015 BKN021 BKN026 OVC034 09/09 A2998 RMK AO2 DZB0422E0446 FEW V SCT SLP155=
ETIK,2012,01,01,04,53,SPECI ETIK 010453Z AUTO 24010KT 9999 FEW010 SCT021 BKN025 BKN034 OVC055 09/09 A2998 RMK AO2 DZB0422E0446 FEW V SCT SLP155=
ETIK,2012,01,01,04,55,METAR ETIK 010455Z AUTO 24010KT 9999 FEW015 BKN025 BKN034 OVC055 09/09 A2998 RMK AO2 DZB0422E0446 CIG 025V030 SLP155 P0000 T00940094=
ETIK,2012,01,01,04,56,SPECI ETIK 010456Z AUTO 24010KT 9999 FEW014 SCT025 BKN033 OVC055 09/09 A2998 RMK AO2 FEW V SCT SLP155=
ETIK,2012,01,01,04,59,SPECI ETIK 010459Z AUTO 24010KT 9999 FEW014 SCT021 BKN027 OVC055 09/09 A2998 RMK AO2 CIG 025V030 FEW V SCT SLP156=
ETIK,2012,01,01,05,06,SPECI ETIK 010506Z AUTO 24008KT 9999 BKN014 BKN021 BKN026 OVC055 09/09 A2998 RMK AO2 SLP156=
ETIK,2012,01,01,05,23,SPECI ETIK 010523Z AUTO 24011KT 9999 FEW005 OVC012 10/10 A2998 RMK AO2 CIG 009V015 SLP157=
ETIK,2012,01,01,05,26,SPECI ETIK 010526Z AUTO 24010KT 9999 -DZ FEW005 OVC012 10/10 A2998 RMK AO2 DZB0526 CIG 009V015 SLP156=
ETIK,2012,01,01,05,31,SPECI ETIK 010531Z AUTO 22011KT 9999 -DZ FEW006 BKN011 OVC036 10/10 A2998 RMK AO2 DZB0526 CIG 009V015 SLP155=
ETIK,2012,01,01,05,37,SPECI ETIK 010537Z AUTO 23012KT 9999 -DZ FEW006 SCT011 OVC039 10/10 A2998 RMK AO2 DZB0526 FEW V SCT SLP155=
ETIK,2012,01,01,05,42,SPECI ETIK 010542Z AUTO 23011KT 9999 FEW006 SCT011 BKN040 BKN055 09/09 A2998 RMK AO2 DZB0526E0542 FEW V SCT SLP155=
ETIK,2012,01,01,05,55,METAR ETIK 010555Z AUTO 24012KT 9999 FEW014 SCT039 BKN049 09/09 A2998 RMK AO2 DZB0526E0542 SLP156 P0000 60004 T00930093 10096 20085 51006=
ETIK,2012,01,01,06,38,SPECI ETIK 010638Z AUTO 25010KT 9999 SCT014 BKN024 OVC047 10/10 A2998 RMK AO2 BKN V SCT SLP158=
ETIK,2012,01,01,06,41,SPECI ETIK 010641Z AUTO 25009KT 9999 BKN014 BKN024 OVC048 10/10 A2998 RMK AO2 CIG 013V018 SLP158=
ETIK,2012,01,01,06,55,METAR ETIK 010655Z AUTO 24009KT 9999 BKN013 OVC024 10/10 A2999 RMK AO2 CIG 012V016 OVC V BKN SLP157 T00960096=
ETIK,2012,01,01,07,32,SPECI ETIK 010732Z AUTO 24012KT 9999 -DZ OVC012 10/10 A3000 RMK AO2 DZB0732 CIG 007V017 SLP161=
ETIK,2012,01,01,07,41,SPECI ETIK 010741Z AUTO 23012KT 9999 OVC011 10/10 A3000 RMK AO2 DZB0732E0741 CIG 007V015 SLP162=
ETIK,2012,01,01,07,44,SPECI ETIK 010744Z AUTO 23011KT 9999 BKN010 OVC014 10/10 A3000 RMK AO2 DZB0732E0741 CIG 007V013 SLP163=
ETIK,2012,01,01,07,55,METAR ETIK 010755Z AUTO 23011KT 9999 OVC011 10/10 A3001 RMK AO2 DZB0732E0741 CIG 007V015 SLP164 P0000 T01010101=
ETIK,2012,01,01,08,13,SPECI ETIK 010813Z AUTO 24013KT 9999 OVC012 10/10 A3001 RMK AO2 CIG 010V014 OVC V BKN SLP165=
ETIK,2012,01,01,08,22,SPECI ETIK 010822Z AUTO 24012KT 9999 SCT012 OVC031 10/10 A3001 RMK AO2 SLP164=
ETIK,2012,01,01,08,38,SPECI ETIK 010838Z AUTO 23009KT 9999 BKN015 OVC032 10/10 A3001 RMK AO2 BKN V SCT SLP164=
ETIK,2012,01,01,08,40,SPECI ETIK 010840Z AUTO 23010KT 9999 BKN014 OVC032 10/10 A3001 RMK AO2 SLP164=
ETIK,2012,01,01,08,51,SPECI ETIK 010851Z AUTO 23014G19KT 9999 BKN010 BKN016 OVC032 10/10 A3001 RMK AO2 SLP165=
ETIK,2012,01,01,08,55,METAR ETIK 010855Z AUTO 24012G19KT 9999 BKN010 OVC016 10/10 A3001 RMK AO2 SLP165 60000 T01040104 51011=
ETIK,2012,01,01,09,34,SPECI ETIK 010934Z AUTO 23014KT 9999 -RA OVC010 11/11 A3000 RMK AO2 RAB0934 CIG 009V013 SLP162=
ETIK,2012,01,01,09,44,SPECI ETIK 010944Z AUTO 23011G18KT 9999 -DZ OVC012 11/11 A3001 RMK AO2 RAB0934E0942DZB0942 CIG 009V015 SLP164=
ETIK,2012,01,01,09,46,SPECI ETIK 010946Z AUTO 23012G18KT 9999 OVC011 10/10 A3001 RMK AO2 RAB0934E0942DZB0942E0946 CIG 009V015 SLP164=
ETIK,2012,01,01,09,55,METAR ETIK 010955Z AUTO 23013G19KT 9999 OVC011 11/11 A3001 RMK AO2 RAB0934E0942DZB0942E0946 CIG 010V015 SLP163 P0000 T01060106=
ETIK,2012,01,01,10,00,SPECI ETIK 011000Z AUTO 24013KT 9999 OVC012 11/11 A3001 RMK AO2 CIG 010V015 SLP164=
ETIK,2012,01,01,10,55,METAR ETIK 011055Z AUTO 24014KT 9999 OVC013 11/11 A3000 RMK AO2 CIG 011V015 SLP160 T01100110=
ETIK,2012,01,01,11,55,METAR ETIK 011155Z AUTO 24013KT 9999 OVC012 11/11 A3000 RMK AO2 CIG 010V014 SLP159 60000 70014 T01110111 10111 20093 56003=
ETIK,2012,01,01,11,59,SPECI ETIK 011159Z AUTO 24012KT 9999 OVC011 11/11 A3000 RMK AO2 CIG 009V014 SLP160=
ETIK,2012,01,01,12,55,METAR ETIK 011255Z AUTO 22007KT 9999 OVC011 11/11 A3000 RMK AO2 CIG 009V014 SLP157 T01100110=
ETIK,2012,01,01,13,06,SPECI ETIK 011306Z AUTO 23010KT 9999 OVC012 11/11 A2999 RMK AO2 CIG 010V016 SLP156=
ETIK,2012,01,01,13,40,SPECI ETIK 011340Z AUTO 21011KT 9999 OVC011 11/11 A2999 RMK AO2 CIG 010V014 SLP155=
ETIK,2012,01,01,13,55,METAR ETIK 011355Z AUTO 22009KT 9999 BKN011 OVC018 11/11 A2998 RMK AO2 CIG 009V014 SLP153 T01080108=
ETIK,2012,01,01,13,57,SPECI ETIK 011357Z AUTO 21009KT 9999 BKN012 OVC018 11/11 A2998 RMK AO2 CIG 009V014 SLP153=
ETIK,2012,01,01,14,00,SPECI ETIK 011400Z AUTO 22010KT 9999 SCT012 OVC019 11/11 A2998 RMK AO2 CIG 017V022 SLP153=
ETIK,2012,01,01,14,05,SPECI ETIK 011405Z AUTO 22008KT 9999 FEW010 BKN019 OVC026 11/11 A2999 RMK AO2 CIG 013V022 BKN V OVC SLP154=
ETIK,2012,01,01,14,50,SPECI ETIK 011450Z AUTO 22008KT 9999 FEW015 SCT023 BKN030 OVC035 11/11 A2999 RMK AO2 FEW V SCT SLP155=
ETIK,2012,01,01,14,55,METAR ETIK 011455Z AUTO 22009KT 9999 FEW015 SCT023 SCT030 OVC035 11/11 A2999 RMK AO2 FEW V SCT SLP155 T01100109 55005=
ETIK,2012,01,01,15,13,SPECI ETIK 011513Z AUTO 22009KT 9999 -DZ SCT024 BKN033 OVC042 11/11 A2999 RMK AO2 DZB1513 SLP155=
ETIK,2012,01,01,15,19,SPECI ETIK 011519Z AUTO 23011KT 9999 -DZ FEW009 SCT024 BKN030 BKN035 OVC042 11/11 A2999 RMK AO2 DZB1513 FEW V SCT SLP156=
ETIK,2012,01,01,15,22,SPECI ETIK 011522Z AUTO 23010KT 9999 FEW008 SCT027 BKN032 OVC041 11/11 A2999 RMK AO2 DZB1513E1522 FEW V SCT SLP155=
ETIK,2012,01,01,15,33,SPECI ETIK 011533Z AUTO 22011KT 9999 FEW009 SCT025 BKN034 OVC043 11/10 A2999 RMK AO2 DZB1513E1522 FEW V SCT SLP157=
ETIK,2012,01,01,15,39,SPECI ETIK 011539Z AUTO 22009KT 9999 FEW009 BKN025 BKN034 OVC044 11/10 A2999 RMK AO2 DZB1513E1522 BKN025 V SCT SLP157=
ETIK,2012,01,01,15,40,SPECI ETIK 011540Z AUTO 22009KT 9999 FEW023 SCT028 BKN036 OVC044 11/11 A2999 RMK AO2 DZB1513E1522 FEW V SCT SLP157=
ETIK,2012,01,01,15,51,SPECI ETIK 011551Z AUTO 22009KT 9999 BKN026 OVC039 11/10 A3000 RMK AO2 DZB1513E1522 SLP159=
ETIK,2012,01,01,15,55,METAR ETIK 011555Z AUTO 22008KT 9999 BKN025 OVC037 11/11 A3000 RMK AO2 DZB1513E1522 CIG 023V028 SLP158 P0000 T01100105=
ETIK,2012,01,01,16,24,SPECI ETIK 011624Z AUTO 22009KT 9999 SCT025 BKN032 OVC039 11/11 A2999 RMK AO2 SLP155=
ETIK,2012,01,01,16,25,SPECI ETIK 011625Z AUTO 22009KT 9999 BKN027 OVC039 11/11 A2999 RMK AO2 CIG 021V030 SLP155=
ETIK,2012,01,01,16,55,METAR ETIK 011655Z AUTO 22009KT 9999 OVC027 11/11 A3000 RMK AO2 CIG 021V030 SLP157 T01100107=
ETIK,2012,01,01,17,24,SPECI ETIK 011724Z AUTO 22010KT 9999 SCT028 BKN047 BKN075 OVC090 11/10 A2999 RMK AO2 SLP156=
ETIK,2012,01,01,17,55,METAR ETIK 011755Z AUTO 21010KT 9999 SCT042 BKN050 BKN070 OVC090 11/10 A2999 RMK AO2 SLP154 60000 T01100100 10113 20107 58001=
ETIK,2012,01,01,18,55,METAR ETIK 011855Z AUTO 22009KT 9999 CLR 10/10 A2998 RMK AO2 SLP152 T01050101=
ETIK,2012,01,01,19,55,METAR ETIK 011955Z AUTO 20007KT 9999 CLR 11/09 A2996 RMK AO2 SLP146 T01060094=
ETIK,2012,01,01,20,55,METAR ETIK 012055Z AUTO 21010KT 9999 SCT070 SCT160 11/09 A2995 RMK AO2 SLP141 T01050088 58012=
ETIK,2012,01,01,21,33,SPECI ETIK 012133Z AUTO 21011KT 9999 BKN028 BKN160 11/09 A2994 RMK AO2 BKN028 V SCT SLP137=
ETIK,2012,01,01,21,55,METAR ETIK 012155Z AUTO 21012KT 9999 OVC028 11/09 A2993 RMK AO2 SLP133 T01130087=
ETIK,2012,01,01,22,16,SPECI ETIK 012216Z AUTO 21014G19KT 9999 BKN030 11/08 A2993 RMK AO2 SLP133=
ETIK,2012,01,01,22,55,METAR ETIK 012255Z AUTO 22014G18KT 9999 BKN035 11/08 A2993 RMK AO2 SLP132 T01150084 401150082=
ETME,2012,01,01,00,00,METAR ETME NIL=
ETME,2012,01,01,01,00,METAR ETME NIL=
ETME,2012,01,01,02,00,METAR ETME NIL=
ETME,2012,01,01,03,00,METAR ETME NIL=
ETME,2012,01,01,04,00,METAR ETME NIL=
ETME,2012,01,01,05,00,METAR ETME NIL=
ETME,2012,01,01,06,00,METAR ETME NIL=
ETME,2012,01,01,07,00,METAR ETME NIL=
ETME,2012,01,01,08,00,METAR ETME NIL=
ETME,2012,01,01,09,00,METAR ETME NIL=
ETME,2012,01,01,10,00,METAR ETME NIL=
ETME,2012,01,01,11,00,METAR ETME NIL=
ETME,2012,01,01,12,00,METAR ETME NIL=
ETME,2012,01,01,13,00,METAR ETME NIL=
ETME,2012,01,01,14,00,METAR ETME NIL=
ETME,2012,01,01,15,00,METAR ETME NIL=
ETME,2012,01,01,16,00,METAR ETME NIL=
ETME,2012,01,01,17,00,METAR ETME NIL=
ETME,2012,01,01,18,00,METAR ETME NIL=
ETME,2012,01,01,19,00,METAR ETME NIL=
ETME,2012,01,01,20,00,METAR ETME NIL=
ETME,2012,01,01,21,00,METAR ETME NIL=
ETME,2012,01,01,22,00,METAR ETME NIL=
ETME,2012,01,01,23,00,METAR ETME NIL=
ETMN,2012,01,01,00,00,METAR ETMN NIL=
ETMN,2012,01,01,00,20,METAR ETMN 010020Z 21007KT 0500 FG VV002 07/07 Q1006 RED=
ETMN,2012,01,01,00,52,SPECI ETMN 010052Z 21008KT 1000 -DZ BR OVC003 08/08 Q1006 AMB=
ETMN,2012,01,01,01,00,METAR ETMN NIL=
ETMN,2012,01,01,01,20,METAR ETMN 010120Z 22009KT 1600 -DZ BR OVC002 08/08 Q1006 AMB=
ETMN,2012,01,01,02,00,METAR ETMN NIL=
ETMN,2012,01,01,02,20,METAR ETMN 010220Z 22011KT 1000 -DZ BR OVC002 09/09 Q1005 AMB=
ETMN,2012,01,01,03,00,METAR ETMN NIL=
ETMN,2012,01,01,03,20,METAR ETMN 010320Z 23010KT 1600 -DZ BR OVC003 09/09 Q1005 YLO=
ETMN,2012,01,01,04,00,METAR ETMN NIL=
ETMN,2012,01,01,04,20,METAR ETMN 010420Z 23010KT 1600 -DZ BR OVC003 09/09 Q1004 YLO=
ETMN,2012,01,01,05,00,METAR ETMN NIL=
ETMN,2012,01,01,05,20,METAR ETMN 010520Z 23011KT 1500 -RADZ BR OVC003 09/09 Q1004 AMB=
ETMN,2012,01,01,05,48,SPECI ETMN 010548Z 23013KT 2000 -RADZ BR OVC003 09/09 Q1004 YLO=
ETMN,2012,01,01,06,00,METAR ETMN NIL=
ETMN,2012,01,01,06,20,METAR ETMN 010620Z 24013KT 1500 -DZRA BR OVC002 10/10 Q1004 AMB=
ETMN,2012,01,01,07,00,METAR ETMN NIL=
ETMN,2012,01,01,07,20,METAR ETMN 010720Z 24011KT 1500 -DZRA BR OVC002 09/09 Q1004 AMB=
ETMN,2012,01,01,08,00,METAR ETMN NIL=
ETMN,2012,01,01,08,20,METAR ETMN 010820Z 24012KT 1000 -DZRA BR OVC002 10/10 Q1005 AMB=
ETMN,2012,01,01,09,00,METAR ETMN NIL=
ETMN,2012,01,01,09,20,METAR ETMN 010920Z 24012KT 2000 -DZRA BR OVC002 10/10 Q1005 AMB=
ETMN,2012,01,01,09,45,SPECI ETMN 010945Z 25013KT 3500 BR BKN003 10/10 Q1006 YLO=
ETMN,2012,01,01,10,00,METAR ETMN NIL=
ETMN,2012,01,01,10,05,SPECI ETMN 011005Z 25012KT 5000 BR BKN004 BKN016 10/10 Q1006 YLO=
ETMN,2012,01,01,10,20,METAR ETMN 011020Z 25012KT 9000 SCT005 BKN015 10/10 Q1005 WHT=
ETMN,2012,01,01,10,44,SPECI ETMN 011044Z 26013KT 9999 FEW006 BKN013 10/10 Q1006 GRN=
ETMN,2012,01,01,11,00,METAR ETMN NIL=
ETMN,2012,01,01,11,20,METAR ETMN 011120Z 25012KT 9999 FEW018 BKN150 10/10 Q1005 BLU=
ETMN,2012,01,01,12,00,METAR ETMN NIL=
ETMN,2012,01,01,12,20,METAR ETMN 011220Z 24011KT 9999 FEW020 BKN160 10/09 Q1005 BLU=
ETMN,2012,01,01,13,00,METAR ETMN NIL=
ETMN,2012,01,01,13,20,METAR ETMN 011320Z 24010KT 9999 FEW015 BKN230 10/09 Q1005 BLU/=
ETMN,2012,01,01,14,00,METAR ETMN NIL=
ETMN,2012,01,01,14,20,METAR ETMN 011420Z 24008KT 9999 SCT015 BKN200 10/09 Q1005 BLU/=
ETMN,2012,01,01,15,00,METAR ETMN NIL=
ETMN,2012,01,01,15,20,METAR ETMN 011520Z 22007KT 9999 SCT015 SCT025 BKN140 10/09 Q1005 BLU=
ETMN,2012,01,01,16,00,METAR ETMN NIL=
ETMN,2012,01,01,16,20,METAR ETMN 011620Z 21009KT 9999 -DZ SCT015 BKN028 11/09 Q1004 BLU=
ETMN,2012,01,01,17,00,METAR ETMN NIL=
ETMN,2012,01,01,17,20,METAR ETMN 011720Z 21009KT 8000 -RADZ BKN013 BKN020 11/09 Q1004 GRN=
ETMN,2012,01,01,18,00,METAR ETMN NIL=
ETMN,2012,01,01,18,20,METAR ETMN 011820Z 21010KT 9999 BKN008 BKN014 11/10 Q1003 GRN=
ETMN,2012,01,01,19,00,METAR ETMN NIL=
ETMN,2012,01,01,19,02,SPECI ETMN 011902Z 20009KT 9999 -RA SCT008 BKN018 BKN043 11/10 Q1002 WHT=
ETMN,2012,01,01,19,20,METAR ETMN 011920Z 20008KT 7000 -RA BKN005 BKN030 11/10 Q1002 YLO=
ETMN,2012,01,01,19,38,SPECI ETMN 011938Z 20008KT 2500 RA BR BKN005 BKN010 11/10 Q1001 YLO=
ETMN,2012,01,01,20,00,METAR ETMN NIL=
ETMN,2012,01,01,20,20,METAR ETMN 012020Z 18007KT 2500 RA BR BKN003 11/11 Q1000 YLO=
ETMN,2012,01,01,20,46,SPECI ETMN 012046Z 19014G26KT 4000 RA BR BKN005 OVC020 11/11 Q0999 YLO=
ETMN,2012,01,01,21,00,METAR ETMN NIL=
ETMN,2012,01,01,21,20,METAR ETMN 012120Z 21014KT 5000 RA BR BKN006 OVC018 12/11 Q0998 YLO=
ETMN,2012,01,01,22,00,METAR ETMN NIL=
ETMN,2012,01,01,22,20,METAR ETMN 012220Z 22013KT 4000 RA BR BKN006 OVC025 11/11 Q0997 YLO=
ETMN,2012,01,01,23,00,METAR ETMN NIL=
ETND,2012,01,01,00,00,METAR ETND NIL=
ETND,2012,01,01,01,00,METAR ETND NIL=
ETND,2012,01,01,02,00,METAR ETND NIL=
ETND,2012,01,01,03,00,METAR ETND NIL=
ETND,2012,01,01,04,00,METAR ETND NIL=
ETND,2012,01,01,05,00,METAR ETND NIL=
ETND,2012,01,01,06,00,METAR ETND NIL=
ETND,2012,01,01,07,00,METAR ETND NIL=
ETND,2012,01,01,08,00,METAR ETND NIL=
ETND,2012,01,01,09,00,METAR ETND NIL=
ETND,2012,01,01,10,00,METAR ETND NIL=
ETND,2012,01,01,11,00,METAR ETND NIL=
ETND,2012,01,01,12,00,METAR ETND NIL=
ETND,2012,01,01,13,00,METAR ETND NIL=
ETND,2012,01,01,14,00,METAR ETND NIL=
ETND,2012,01,01,15,00,METAR ETND NIL=
ETND,2012,01,01,16,00,METAR ETND NIL=
ETND,2012,01,01,17,00,METAR ETND NIL=
ETND,2012,01,01,18,00,METAR ETND NIL=
ETND,2012,01,01,19,00,METAR ETND NIL=
ETND,2012,01,01,20,00,METAR ETND NIL=
ETND,2012,01,01,21,00,METAR ETND NIL=
ETND,2012,01,01,22,00,METAR ETND NIL=
ETND,2012,01,01,23,00,METAR ETND NIL=
ETNH,2012,01,01,00,00,METAR ETNH NIL=
ETNH,2012,01,01,01,00,METAR ETNH NIL=
ETNH,2012,01,01,02,00,METAR ETNH NIL=
ETNH,2012,01,01,03,00,METAR ETNH NIL=
ETNH,2012,01,01,04,00,METAR ETNH NIL=
ETNH,2012,01,01,05,00,METAR ETNH NIL=
ETNH,2012,01,01,06,00,METAR ETNH NIL=
ETNH,2012,01,01,07,00,METAR ETNH NIL=
ETNH,2012,01,01,08,00,METAR ETNH NIL=
ETNH,2012,01,01,09,00,METAR ETNH NIL=
ETNH,2012,01,01,10,00,METAR ETNH NIL=
ETNH,2012,01,01,11,00,METAR ETNH NIL=
ETNH,2012,01,01,12,00,METAR ETNH NIL=
ETNH,2012,01,01,13,00,METAR ETNH NIL=
ETNH,2012,01,01,14,00,METAR ETNH NIL=
ETNH,2012,01,01,15,00,METAR ETNH NIL=
ETNH,2012,01,01,16,00,METAR ETNH NIL=
ETNH,2012,01,01,17,00,METAR ETNH NIL=
ETNH,2012,01,01,18,00,METAR ETNH NIL=
ETNH,2012,01,01,18,20,METAR ETNH 011820Z 19008KT 8000 SCT007 BKN023 BKN080 10/09 Q1003 WHT=
ETNH,2012,01,01,19,00,METAR ETNH NIL=
ETNH,2012,01,01,19,20,METAR ETNH 011920Z 18008KT 8000 BKN008 10/09 Q1002 GRN=
ETNH,2012,01,01,20,00,METAR ETNH NIL=
ETNH,2012,01,01,20,20,METAR ETNH 012020Z 20006KT 5000 -RADZ BR BKN006 10/09 Q1001 YLO=
ETNH,2012,01,01,21,00,METAR ETNH NIL=
ETNH,2012,01,01,21,20,METAR ETNH 012120Z 18005KT 4000 -RA BR BKN007 10/09 Q0999 GRN=
ETNH,2012,01,01,21,36,SPECI ETNH 012136Z 17006KT 4000 -RA BR BKN004 10/09 Q0998 YLO=
ETNH,2012,01,01,22,00,METAR ETNH NIL=
ETNH,2012,01,01,22,20,METAR ETNH 012220Z 16007KT 4500 -RA BR BKN005 11/10 Q0997 YLO=
ETNH,2012,01,01,23,00,METAR ETNH NIL=
ETNJ,2012,01,01,00,00,METAR ETNJ NIL=
ETNJ,2012,01,01,01,00,METAR ETNJ NIL=
ETNJ,2012,01,01,02,00,METAR ETNJ NIL=
ETNJ,2012,01,01,03,00,METAR ETNJ NIL=
ETNJ,2012,01,01,04,00,METAR ETNJ NIL=
ETNJ,2012,01,01,05,00,METAR ETNJ NIL=
ETNJ,2012,01,01,06,00,METAR ETNJ NIL=
ETNJ,2012,01,01,07,00,METAR ETNJ NIL=
ETNJ,2012,01,01,08,00,METAR ETNJ NIL=
ETNJ,2012,01,01,09,00,METAR ETNJ NIL=
ETNJ,2012,01,01,10,00,METAR ETNJ NIL=
ETNJ,2012,01,01,11,00,METAR ETNJ NIL=
ETNJ,2012,01,01,12,00,METAR ETNJ NIL=
ETNJ,2012,01,01,13,00,METAR ETNJ NIL=
ETNJ,2012,01,01,14,00,METAR ETNJ NIL=
ETNJ,2012,01,01,15,00,METAR ETNJ NIL=
ETNJ,2012,01,01,16,00,METAR ETNJ NIL=
ETNJ,2012,01,01,17,00,METAR ETNJ NIL=
ETNJ,2012,01,01,18,00,METAR ETNJ NIL=
ETNJ,2012,01,01,19,00,METAR ETNJ NIL=
ETNJ,2012,01,01,20,00,METAR ETNJ NIL=
ETNJ,2012,01,01,21,00,METAR ETNJ NIL=
ETNJ,2012,01,01,22,00,METAR ETNJ NIL=
ETNJ,2012,01,01,23,00,METAR ETNJ NIL=
ETNL,2012,01,01,00,00,METAR ETNL NIL=
ETNL,2012,01,01,00,20,METAR ETNL 010020Z 14005KT 8000 BKN006 BKN018 02/01 Q1009 YLO=
ETNL,2012,01,01,00,44,SPECI ETNL 010044Z 15005KT 7000 OVC005 02/01 Q1009 YLO=
ETNL,2012,01,01,01,00,METAR ETNL NIL=
ETNL,2012,01,01,01,20,METAR ETNL 010120Z 16005KT 6000 -RA OVC005 02/02 Q1009 YLO=
ETNL,2012,01,01,01,41,SPECI ETNL 010141Z 16005KT 4000 -DZ BR BKN004 02/02 Q1009 YLO=
ETNL,2012,01,01,02,00,METAR ETNL NIL=
ETNL,2012,01,01,02,20,METAR ETNL 010220Z 16004KT 2500 -DZ BR BKN002 02/02 Q1008 AMB=
ETNL,2012,01,01,03,00,METAR ETNL NIL=
ETNL,2012,01,01,03,20,METAR ETNL 010320Z 17004KT 3500 -DZ BR BKN003 03/03 Q1008 YLO=
ETNL,2012,01,01,04,00,METAR ETNL NIL=
ETNL,2012,01,01,04,20,METAR ETNL 010420Z 17004KT 4000 BR OVC002 03/03 Q1007 AMB=
ETNL,2012,01,01,05,00,METAR ETNL NIL=
ETNL,2012,01,01,05,02,SPECI ETNL 010502Z 16006KT 2500 -DZ BR OVC001 03/03 Q1007 RED=
ETNL,2012,01,01,05,20,METAR ETNL 010520Z 17005KT 1500 R28/2900N BR OVC001 03/03 Q1007 RED=
ETNL,2012,01,01,05,40,SPECI ETNL 010540Z 17005KT 1700 R28/4600U BR OVC001 04/04 Q1007 RED=
ETNL,2012,01,01,06,00,METAR ETNL NIL=
ETNL,2012,01,01,06,20,METAR ETNL 010620Z 17006KT 1700 R28/4300D -DZ BR OVC001 04/04 Q1006 RED=
ETNL,2012,01,01,07,00,METAR ETNL NIL=
ETNL,2012,01,01,07,20,METAR ETNL 010720Z 17006KT 2000 -DZ BR OVC002 05/05 Q1006 AMB=
ETNL,2012,01,01,08,00,METAR ETNL NIL=
ETNL,2012,01,01,08,20,METAR ETNL 010820Z 19009KT 2000 -DZ BR BKN002 06/06 Q1006 AMB=
ETNL,2012,01,01,08,52,SPECI ETNL 010852Z 20008KT 2600 -RA BR BKN003 06/06 Q1006 YLO=
ETNL,2012,01,01,09,00,METAR ETNL NIL=
ETNL,2012,01,01,09,09,SPECI ETNL 010909Z 20008KT 4000 RA BR BKN003 06/06 Q1006 YLO=
ETNL,2012,01,01,09,20,METAR ETNL 010920Z 19009KT 4000 RA BR BKN003 06/06 Q1006 YLO=
ETNL,2012,01,01,10,00,METAR ETNL NIL=
ETNL,2012,01,01,10,20,METAR ETNL 011020Z 20007KT 5000 BR BKN004 07/07 Q1006 RERA YLO=
ETNL,2012,01,01,11,00,METAR ETNL NIL=
ETNL,2012,01,01,11,03,SPECI ETNL 011103Z 21007KT 4000 -DZ BR BKN004 08/08 Q1005 YLO=
ETNL,2012,01,01,11,20,METAR ETNL 011120Z 21008KT 3500 -DZ BR BKN004 08/08 Q1006 YLO=
ETNL,2012,01,01,11,48,SPECI ETNL 011148Z 21008KT 2900 -DZ BR BKN004 09/09 Q1005 YLO=
ETNL,2012,01,01,12,00,METAR ETNL NIL=
ETNL,2012,01,01,12,12,SPECI ETNL 011212Z 21008KT 2000 -DZ BR BKN002 09/09 Q1006 AMB=
ETNL,2012,01,01,12,20,METAR ETNL 011220Z 22008KT 2000 -DZ BR BKN002 09/09 Q1006 AMB=
ETNL,2012,01,01,12,46,SPECI ETNL 011246Z 22007KT 3400 -DZ BR BKN003 09/09 Q1006 YLO=
ETNL,2012,01,01,13,00,METAR ETNL NIL=
ETNL,2012,01,01,13,20,METAR ETNL 011320Z 22007KT 3400 -DZ BR BKN004 09/09 Q1005 YLO=
ETNL,2012,01,01,13,44,SPECI ETNL 011344Z 22006KT 4300 BR BKN006 09/09 Q1005 YLO=
ETNL,2012,01,01,14,00,METAR ETNL NIL=
ETNL,2012,01,01,14,04,SPECI ETNL 011404Z 22006KT 5000 BR SCT006 BKN013 09/09 Q1006 GRN=
ETNL,2012,01,01,14,20,METAR ETNL 011420Z 23006KT 7000 FEW006 BKN013 10/10 Q1006 GRN=
ETNL,2012,01,01,14,40,SPECI ETNL 011440Z 24009KT 9000 FEW012 BKN015 BKN032 10/09 Q1006 WHT=
ETNL,2012,01,01,15,00,METAR ETNL NIL=
ETNL,2012,01,01,15,20,METAR ETNL 011520Z 22006KT 9999 FEW015 BKN035 10/09 Q1006 BLU=
ETNL,2012,01,01,16,00,METAR ETNL NIL=
ETNL,2012,01,01,16,20,METAR ETNL 011620Z 22007KT 9999 FEW018 BKN034 09/08 Q1007 BLU=
ETNL,2012,01,01,17,00,METAR ETNL NIL=
ETNL,2012,01,01,17,20,METAR ETNL 011720Z 21006KT 9999 BKN030 BKN170 09/08 Q1007 BLU=
ETNL,2012,01,01,18,00,METAR ETNL NIL=
ETNL,2012,01,01,18,20,METAR ETNL 011820Z 19005KT 9999 FEW020 BKN180 08/08 Q1006 BLU=
ETNL,2012,01,01,19,00,METAR ETNL NIL=
ETNL,2012,01,01,19,20,METAR ETNL 011920Z 19005KT 9999 FEW080 BKN110 08/08 Q1006 BLU=
ETNL,2012,01,01,20,00,METAR ETNL NIL=
ETNL,2012,01,01,20,05,SPECI ETNL 012005Z 18006KT 8000 FEW005 BKN013 09/09 Q1005 GRN=
ETNL,2012,01,01,20,20,METAR ETNL 012020Z 17006KT 7000 BKN005 10/10 Q1005 YLO=
ETNL,2012,01,01,21,00,METAR ETNL NIL=
ETNL,2012,01,01,21,20,METAR ETNL 012120Z 17009KT 7000 -DZ BKN005 10/10 Q1003 YLO=
ETNL,2012,01,01,21,49,SPECI ETNL 012149Z 18008KT 8000 -RADZ BKN006 10/10 Q1003 YLO=
ETNL,2012,01,01,22,00,METAR ETNL NIL=
ETNL,2012,01,01,22,20,METAR ETNL 012220Z 18009KT 8000 RA BKN007 BKN012 11/10 Q1002 GRN=
ETNL,2012,01,01,23,00,METAR ETNL NIL=
ETNN,2012,01,01,00,00,METAR ETNN NIL=
ETNN,2012,01,01,00,20,METAR ETNN 010020Z 26009KT 9999 SCT012 BKN035 11/09 Q1011 BLU=
ETNN,2012,01,01,01,00,METAR ETNN NIL=
ETNN,2012,01,01,01,20,METAR ETNN 010120Z 24007KT 9999 SCT016 BKN035 11/09 Q1011 BLU=
ETNN,2012,01,01,02,00,METAR ETNN NIL=
ETNN,2012,01,01,02,20,METAR ETNN 010220Z 25003KT 9999 FEW018 BKN032 11/09 Q1011 BLU=
ETNN,2012,01,01,03,00,METAR ETNN NIL=
ETNN,2012,01,01,03,20,METAR ETNN 010320Z 25008KT 9999 BKN016 12/09 Q1011 WHT=
ETNN,2012,01,01,04,00,METAR ETNN NIL=
ETNN,2012,01,01,04,20,METAR ETNN 010420Z 24009KT 9999 FEW016 BKN035 12/09 Q1011 BLU=
ETNN,2012,01,01,05,00,METAR ETNN NIL=
ETNN,2012,01,01,05,20,METAR ETNN 010520Z 23009KT 9999 -RA FEW015 BKN040 11/10 Q1011 RERA BLU=
ETNN,2012,01,01,06,00,METAR ETNN NIL=
ETNN,2012,01,01,06,20,METAR ETNN 010620Z 24010KT 9999 -RA FEW015 BKN030 12/09 Q1011 BLU=
ETNN,2012,01,01,07,00,METAR ETNN NIL=
ETNN,2012,01,01,07,20,METAR ETNN 010720Z 23008KT 9999 SCT020 BKN070 12/10 Q1011 BLU=
ETNN,2012,01,01,08,00,METAR ETNN NIL=
ETNN,2012,01,01,08,20,METAR ETNN 010820Z 23007KT 9999 SCT020 BKN060 12/10 Q1011 BLU=
ETNN,2012,01,01,09,00,METAR ETNN NIL=
ETNN,2012,01,01,09,20,METAR ETNN 010920Z 22007KT 9999 FEW010 SCT020 BKN050 12/10 Q1012 BLU=
ETNN,2012,01,01,10,00,METAR ETNN NIL=
ETNN,2012,01,01,10,20,METAR ETNN 011020Z 25009KT 9999 -DZRA FEW010 BKN030 13/10 Q1012 BLU=
ETNN,2012,01,01,11,00,METAR ETNN NIL=
ETNN,2012,01,01,11,20,METAR ETNN 011120Z 24008KT 9999 FEW015 BKN025 14/10 Q1011 BLU=
ETNN,2012,01,01,12,00,METAR ETNN NIL=
ETNN,2012,01,01,12,20,METAR ETNN 011220Z 22006KT 9999 BKN020 14/10 Q1011 WHT=
ETNN,2012,01,01,13,00,METAR ETNN NIL=
ETNN,2012,01,01,13,20,METAR ETNN 011320Z 22006KT 7000 -DZRA BKN020 13/10 Q1010 WHT=
ETNN,2012,01,01,13,27,SPECI ETNN 011327Z 21006KT 4000 DZRA BR BKN020 13/10 Q1010 GRN=
ETNN,2012,01,01,13,47,SPECI ETNN 011347Z 20005KT 9999 BKN020 13/11 Q1010 WHT=
ETNN,2012,01,01,14,00,METAR ETNN NIL=
ETNN,2012,01,01,14,20,METAR ETNN 011420Z 18004KT 9999 BKN025 13/11 Q1010 BLU=
ETNN,2012,01,01,15,00,METAR ETNN NIL=
ETNN,2012,01,01,15,20,METAR ETNN 011520Z 20006KT 9999 BKN025 13/10 Q1010 BLU=
ETNN,2012,01,01,16,00,METAR ETNN NIL=
ETNN,2012,01,01,16,20,METAR ETNN 011620Z 20007KT 9999 BKN040 BKN060 13/10 Q1009 BLU=
ETNN,2012,01,01,17,00,METAR ETNN NIL=
ETNN,2012,01,01,17,20,METAR ETNN 011720Z 20008KT 9999 FEW025 BKN050 13/10 Q1008 BLU=
ETNN,2012,01,01,18,00,METAR ETNN NIL=
ETNN,2012,01,01,18,20,METAR ETNN 011820Z 21009KT 9999 FEW020 SCT060 BKN140 13/09 Q1008 BLU=
ETNN,2012,01,01,19,00,METAR ETNN NIL=
ETNN,2012,01,01,19,20,METAR ETNN 011920Z 21010KT 9999 SCT030 BKN150 14/09 Q1007 BLU=
ETNN,2012,01,01,20,00,METAR ETNN NIL=
ETNN,2012,01,01,20,20,METAR ETNN 012020Z 21012KT 9999 BKN028 14/09 Q1006 BLU=
ETNN,2012,01,01,21,00,METAR ETNN NIL=
ETNN,2012,01,01,21,20,METAR ETNN 012120Z 20011KT 9999 BKN028 BKN110 14/09 Q1005 BLU=
ETNN,2012,01,01,22,00,METAR ETNN NIL=
ETNN,2012,01,01,22,20,METAR ETNN 012220Z 21012G24KT 9999 BKN027 14/09 Q1005 BLU=
ETNN,2012,01,01,23,00,METAR ETNN NIL=
ETNP,2012,01,01,00,00,METAR ETNP NIL=
ETNP,2012,01,01,01,00,METAR ETNP NIL=
ETNP,2012,01,01,02,00,METAR ETNP NIL=
ETNP,2012,01,01,03,00,METAR ETNP NIL=
ETNP,2012,01,01,04,00,METAR ETNP NIL=
ETNP,2012,01,01,05,00,METAR ETNP NIL=
ETNP,2012,01,01,06,00,METAR ETNP NIL=
ETNP,2012,01,01,07,00,METAR ETNP NIL=
ETNP,2012,01,01,08,00,METAR ETNP NIL=
ETNP,2012,01,01,09,00,METAR ETNP NIL=
ETNP,2012,01,01,10,00,METAR ETNP NIL=
ETNP,2012,01,01,11,00,METAR ETNP NIL=
ETNP,2012,01,01,12,00,METAR ETNP NIL=
ETNP,2012,01,01,13,00,METAR ETNP NIL=
ETNP,2012,01,01,14,00,METAR ETNP NIL=
ETNP,2012,01,01,15,00,METAR ETNP NIL=
ETNP,2012,01,01,16,00,METAR ETNP NIL=
ETNP,2012,01,01,17,00,METAR ETNP NIL=
ETNP,2012,01,01,18,00,METAR ETNP NIL=
ETNP,2012,01,01,19,00,METAR ETNP NIL=
ETNP,2012,01,01,20,00,METAR ETNP NIL=
ETNP,2012,01,01,21,00,METAR ETNP NIL=
ETNP,2012,01,01,22,00,METAR ETNP NIL=
ETNP,2012,01,01,23,00,METAR ETNP NIL=
ETNS,2012,01,01,00,00,METAR ETNS NIL=
ETNS,2012,01,01,00,20,METAR ETNS 010020Z 16007KT 0100 FG OVC001 04/04 Q1006 RED=
ETNS,2012,01,01,01,00,METAR ETNS NIL=
ETNS,2012,01,01,01,20,METAR ETNS 010120Z 15008KT 0100 FG OVC001 05/05 Q1005 RED=
ETNS,2012,01,01,02,00,METAR ETNS NIL=
ETNS,2012,01,01,02,20,METAR ETNS 010220Z 15008KT 0500 -DZ FG OVC001 05/05 Q1005 RED=
ETNS,2012,01,01,03,00,METAR ETNS NIL=
ETNS,2012,01,01,03,20,METAR ETNS 010320Z 16010KT 2500 -RA BR BKN003 06/06 Q1004 YLO=
ETNS,2012,01,01,04,00,METAR ETNS NIL=
ETNS,2012,01,01,04,20,METAR ETNS 010420Z 17009KT 2500 -RA BR BKN003 07/07 Q1004 YLO=
ETNS,2012,01,01,05,00,METAR ETNS NIL=
ETNS,2012,01,01,05,20,METAR ETNS 010520Z 18010KT 1800 -DZ BR BKN003 08/08 Q1003 YLO=
ETNS,2012,01,01,06,00,METAR ETNS NIL=
ETNS,2012,01,01,06,20,METAR ETNS 010620Z 21013KT 1800 -DZRA BR BKN003 09/09 Q1003 YLO=
ETNS,2012,01,01,07,00,METAR ETNS NIL=
ETNS,2012,01,01,07,20,METAR ETNS 010720Z 21016KT 1400 -DZRA BR OVC003 09/09 Q1003 AMB=
ETNS,2012,01,01,08,00,METAR ETNS NIL=
ETNS,2012,01,01,08,20,METAR ETNS 010820Z 22016KT 1400 -DZ BR OVC003 09/09 Q1003 AMB=
ETNS,2012,01,01,09,00,METAR ETNS NIL=
ETNS,2012,01,01,09,20,METAR ETNS 010920Z 22016KT 1500 -DZ BR OVC005 10/09 Q1003 AMB=
ETNS,2012,01,01,09,59,SPECI ETNS 010959Z 23019KT 3500 -DZ BR OVC005 10/09 Q1004 YLO=
ETNS,2012,01,01,10,00,METAR ETNS NIL=
ETNS,2012,01,01,10,20,METAR ETNS 011020Z 23018KT 3500 -DZ BR OVC003 09/08 Q1004 YLO=
ETNS,2012,01,01,11,00,METAR ETNS NIL=
ETNS,2012,01,01,11,20,METAR ETNS 011120Z 22017KT 3800 BR OVC003 09/08 Q1004 YLO=
ETNS,2012,01,01,12,00,METAR ETNS NIL=
ETNS,2012,01,01,12,20,METAR ETNS 011220Z 23015KT 4000 BR OVC003 08/08 Q1004 YLO=
ETNS,2012,01,01,13,00,METAR ETNS NIL=
ETNS,2012,01,01,13,20,METAR ETNS 011320Z 23016KT 7000 OVC005 09/08 Q1004 YLO=
ETNS,2012,01,01,14,00,METAR ETNS NIL=
ETNS,2012,01,01,14,20,METAR ETNS 011420Z 23016KT 8000 OVC007 09/08 Q1004 GRN=
ETNS,2012,01,01,15,00,METAR ETNS NIL=
ETNS,2012,01,01,15,20,METAR ETNS 011520Z 21011KT 9999 BKN010 09/08 Q1004 GRN=
ETNS,2012,01,01,16,00,METAR ETNS NIL=
ETNS,2012,01,01,16,20,METAR ETNS 011620Z 20010KT 9999 FEW018 BKN035 09/08 Q1004 BLU=
ETNS,2012,01,01,17,00,METAR ETNS NIL=
ETNS,2012,01,01,17,20,METAR ETNS 011720Z 18008KT 9999 FEW010 BKN015 10/08 Q1003 WHT=
ETNS,2012,01,01,18,00,METAR ETNS NIL=
ETNS,2012,01,01,18,20,METAR ETNS 011820Z 16009KT 5000 -DZ BR BKN005 09/09 Q1003 YLO=
ETNS,2012,01,01,19,00,METAR ETNS NIL=
ETNS,2012,01,01,19,20,METAR ETNS 011920Z 16009KT 6000 FEW005 BKN011 10/09 Q1002 GRN=
ETNS,2012,01,01,20,00,METAR ETNS NIL=
ETNS,2012,01,01,20,20,METAR ETNS 012020Z 17008KT 5000 -RA BR BKN007 10/09 Q1001 GRN=
ETNS,2012,01,01,21,00,METAR ETNS NIL=
ETNS,2012,01,01,21,20,METAR ETNS 012120Z 15008KT 4000 -RA BR BKN004 10/09 Q0999 YLO=
ETNS,2012,01,01,22,00,METAR ETNS NIL=
ETNS,2012,01,01,22,20,METAR ETNS 012220Z 18003KT 4000 -RA BR SCT005 BKN028 10/09 Q0997 GRN=
ETNS,2012,01,01,23,00,METAR ETNS NIL=
ETNT,2012,01,01,00,00,METAR ETNT NIL=
ETNT,2012,01,01,00,20,METAR ETNT 010020Z 20008KT 2500 R26/1200N -DZ BR OVC003 09/09 Q1006 YLO=
ETNT,2012,01,01,01,00,METAR ETNT NIL=
ETNT,2012,01,01,01,20,METAR ETNT 010120Z 21011KT 2500 R26/1200N BR OVC003 09/09 Q1006 YLO=
ETNT,2012,01,01,02,00,METAR ETNT NIL=
ETNT,2012,01,01,02,20,METAR ETNT 010220Z 22010KT 2700 BR OVC004 10/10 Q1005 YLO=
ETNT,2012,01,01,03,00,METAR ETNT NIL=
ETNT,2012,01,01,03,20,METAR ETNT 010320Z 22010KT 1800 -RADZ BR OVC003 10/10 Q1005 YLO=
ETNT,2012,01,01,04,00,METAR ETNT NIL=
ETNT,2012,01,01,04,20,METAR ETNT 010420Z 22012KT 2500 -RADZ BR OVC004 10/10 Q1005 YLO=
ETNT,2012,01,01,05,00,METAR ETNT NIL=
ETNT,2012,01,01,05,20,METAR ETNT 010520Z 23013KT 2500 -RADZ BR BKN004 10/10 Q1004 YLO=
ETNT,2012,01,01,06,00,METAR ETNT NIL=
ETNT,2012,01,01,06,20,METAR ETNT 010620Z 23012KT 2500 -DZ BR BKN004 10/10 Q1004 YLO=
ETNT,2012,01,01,07,00,METAR ETNT NIL=
ETNT,2012,01,01,07,20,METAR ETNT 010720Z 23011KT 2000 RA BR BKN004 10/10 Q1005 YLO=
ETNT,2012,01,01,07,40,SPECI ETNT 010740Z 23012KT 1500 RA BR BKN004 10/10 Q1005 AMB=
ETNT,2012,01,01,08,00,METAR ETNT NIL=
ETNT,2012,01,01,08,20,METAR ETNT 010820Z 23013KT 3000 -DZRA BR BKN005 10/10 Q1005 RERA YLO=
ETNT,2012,01,01,08,49,SPECI ETNT 010849Z 25012KT 7000 SCT006 BKN008 11/10 Q1005 GRN=
ETNT,2012,01,01,09,00,METAR ETNT NIL=
ETNT,2012,01,01,09,20,METAR ETNT 010920Z 24013KT 9999 SCT012 BKN100 11/10 Q1006 BLU=
ETNT,2012,01,01,10,00,METAR ETNT NIL=
ETNT,2012,01,01,10,20,METAR ETNT 011020Z 25013KT 9999 BKN012 BKN100 11/09 Q1006 GRN=
ETNT,2012,01,01,10,35,SPECI ETNT 011035Z 24013KT 9999 SCT012 BKN130 11/09 Q1006 BLU=
ETNT,2012,01,01,11,00,METAR ETNT NIL=
ETNT,2012,01,01,11,20,METAR ETNT 011120Z 23011KT 9999 SCT012 BKN130 11/10 Q1006 BLU=
ETNT,2012,01,01,12,00,METAR ETNT NIL=
ETNT,2012,01,01,12,20,METAR ETNT 011220Z 23010KT 9999 FEW012 BKN300 11/09 Q1006 BLU/=
ETNT,2012,01,01,13,00,METAR ETNT NIL=
ETNT,2012,01,01,13,20,METAR ETNT 011320Z 22009KT 9999 BKN012 11/09 Q1005 GRN=
ETNT,2012,01,01,14,00,METAR ETNT NIL=
ETNT,2012,01,01,14,20,METAR ETNT 011420Z 22008KT 9999 BKN010 BKN300 11/10 Q1005 GRN=
ETNT,2012,01,01,15,00,METAR ETNT NIL=
ETNT,2012,01,01,15,20,METAR ETNT 011520Z 22010KT 9999 BKN010 BKN029 11/10 Q1005 GRN=
ETNT,2012,01,01,15,29,SPECI ETNT 011529Z 22008KT 9999 BKN010 BKN029 11/10 Q1005 GRN=
ETNT,2012,01,01,16,00,METAR ETNT NIL=
ETNT,2012,01,01,16,20,METAR ETNT 011620Z 20009KT 8000 -DZ BKN008 BKN020 11/10 Q1004 GRN=
ETNT,2012,01,01,17,00,METAR ETNT NIL=
ETNT,2012,01,01,17,20,METAR ETNT 011720Z 20008KT 8000 -RA BKN007 11/10 Q1003 GRN=
ETNT,2012,01,01,18,00,METAR ETNT NIL=
ETNT,2012,01,01,18,20,METAR ETNT 011820Z 19008KT 8000 -DZRA BKN007 11/10 Q1002 GRN=
ETNT,2012,01,01,18,49,SPECI ETNT 011849Z 18009KT 5000 -DZRA BR BKN005 11/10 Q1002 YLO=
ETNT,2012,01,01,19,00,METAR ETNT NIL=
ETNT,2012,01,01,19,20,METAR ETNT 011920Z 19006KT 5000 -DZRA BR BKN004 BKN012 11/10 Q1001 YLO=
ETNT,2012,01,01,20,00,METAR ETNT NIL=
ETNT,2012,01,01,20,20,METAR ETNT 012020Z 20007KT 4000 RA BR BKN004 BKN016 10/10 Q0999 YLO=
ETNT,2012,01,01,21,00,METAR ETNT NIL=
ETNT,2012,01,01,21,20,METAR ETNT 012120Z 20008KT 4000 -RA BR BKN004 BKN009 11/11 Q0997 RERA YLO=
ETNT,2012,01,01,22,00,METAR ETNT NIL=
ETNT,2012,01,01,22,20,METAR ETNT 012220Z 28012KT 9999 -RA SCT005 SCT020 BKN050 10/09 Q0998 BLU=
ETNT,2012,01,01,23,00,METAR ETNT NIL=
ETNU,2012,01,01,00,00,METAR ETNU NIL=
ETNU,2012,01,01,00,20,METAR ETNU 010020Z 16005KT 8000 SCT038 BKN060 01/00 Q1010 BLU=
ETNU,2012,01,01,01,00,METAR ETNU NIL=
ETNU,2012,01,01,01,20,METAR ETNU 010120Z 18004KT 8000 SCT025 BKN050 02/01 Q1010 BLU=
ETNU,2012,01,01,01,56,SPECI ETNU 010156Z 17004KT 8000 BKN006 BKN020 02/01 Q1009 YLO=
ETNU,2012,01,01,02,00,METAR ETNU NIL=
ETNU,2012,01,01,02,20,METAR ETNU 010220Z 18006KT 8000 BKN006 BKN020 02/01 Q1009 YLO=
ETNU,2012,01,01,03,00,METAR ETNU NIL=
ETNU,2012,01,01,03,20,METAR ETNU 010320Z 20005KT 7000 BKN006 BKN035 02/01 Q1009 YLO=
ETNU,2012,01,01,04,00,METAR ETNU NIL=
ETNU,2012,01,01,04,01,SPECI ETNU 010401Z 20007KT 6000 BKN004 02/01 Q1009 YLO=
ETNU,2012,01,01,04,11,SPECI ETNU 010411Z 18007KT 3500 BR BKN004 02/01 Q1008 YLO=
ETNU,2012,01,01,04,20,METAR ETNU 010420Z 18006KT 3500 BR BKN004 02/02 Q1008 YLO=
ETNU,2012,01,01,05,00,METAR ETNU NIL=
ETNU,2012,01,01,05,20,METAR ETNU 010520Z 19006KT 3500 BR OVC004 02/02 Q1008 YLO=
ETNU,2012,01,01,06,00,METAR ETNU NIL=
ETNU,2012,01,01,06,20,METAR ETNU 010620Z 19006KT 2500 BR OVC002 03/03 Q1008 AMB=
ETNU,2012,01,01,06,34,SPECI ETNU 010634Z 17007KT 0500 FG OVC002 03/03 Q1008 RED=
ETNU,2012,01,01,06,46,SPECI ETNU 010646Z 18007KT 0500 FG OVC001 03/03 Q1008 RED=
ETNU,2012,01,01,07,00,METAR ETNU NIL=
ETNU,2012,01,01,07,20,METAR ETNU 010720Z 18007KT 0300 FG OVC001 03/03 Q1008 RED=
ETNU,2012,01,01,08,00,METAR ETNU NIL=
ETNU,2012,01,01,08,20,METAR ETNU 010820Z 19007KT 0600 -RADZ FG OVC001 04/04 Q1007 RED=
ETNU,2012,01,01,08,25,SPECI ETNU 010825Z 19008KT 1200 -RADZ BR OVC003 04/04 Q1007 AMB=
ETNU,2012,01,01,09,00,METAR ETNU NIL=
ETNU,2012,01,01,09,20,METAR ETNU 010920Z 20008KT 0800 -DZ FG OVC003 05/05 Q1007 AMB=
ETNU,2012,01,01,09,32,SPECI ETNU 010932Z 20007KT 1600 -RADZ BR OVC002 05/05 Q1007 AMB=
ETNU,2012,01,01,10,00,METAR ETNU NIL=
ETNU,2012,01,01,10,03,SPECI ETNU 011003Z 21007KT 2500 -RADZ BR OVC003 06/06 Q1007 YLO=
ETNU,2012,01,01,10,20,METAR ETNU 011020Z 21008KT 5000 -RADZ BR OVC004 06/06 Q1007 YLO=
ETNU,2012,01,01,10,30,SPECI ETNU 011030Z 22010KT 4000 -RADZ BR OVC003 06/06 Q1007 YLO=
ETNU,2012,01,01,11,00,METAR ETNU NIL=
ETNU,2012,01,01,11,20,METAR ETNU 011120Z 21008KT 5000 -RADZ BR OVC003 07/07 Q1006 YLO=
ETNU,2012,01,01,12,00,METAR ETNU NIL=
ETNU,2012,01,01,12,20,METAR ETNU 011220Z 22008KT 7000 -RADZ OVC004 08/07 Q1007 YLO=
ETNU,2012,01,01,12,36,SPECI ETNU 011236Z 22007KT 3000 -RADZ BR OVC004 08/07 Q1006 YLO=
ETNU,2012,01,01,13,00,METAR ETNU NIL=
ETNU,2012,01,01,13,20,METAR ETNU 011320Z 22007KT 2500 -RADZ BR OVC004 08/08 Q1006 YLO=
ETNU,2012,01,01,14,00,METAR ETNU NIL=
ETNU,2012,01,01,14,20,METAR ETNU 011420Z 22008KT 3500 -RADZ BR OVC005 09/09 Q1006 YLO=
ETNU,2012,01,01,15,00,METAR ETNU NIL=
ETNU,2012,01,01,15,20,METAR ETNU 011520Z 23010KT 3500 -RADZ BR OVC005 09/09 Q1007 YLO=
ETNU,2012,01,01,16,00,METAR ETNU NIL=
ETNU,2012,01,01,16,20,METAR ETNU 011620Z 24009KT 8000 -RADZ BKN013 BKN030 09/08 Q1007 GRN=
ETNU,2012,01,01,17,00,METAR ETNU NIL=
ETNU,2012,01,01,17,20,METAR ETNU 011720Z 23008KT 9999 SCT013 BKN032 08/08 Q1008 BLU=
ETNU,2012,01,01,18,00,METAR ETNU NIL=
ETNU,2012,01,01,18,20,METAR ETNU 011820Z 21006KT 9999 FEW013 SCT032 09/08 Q1007 BLU/=
ETNU,2012,01,01,19,00,METAR ETNU NIL=
ETNU,2012,01,01,19,20,METAR ETNU 011920Z 21007KT 7000 BKN004 09/09 Q1007 YLO=
ETNU,2012,01,01,20,00,METAR ETNU NIL=
ETNU,2012,01,01,20,20,METAR ETNU 012020Z 20007KT 7000 BKN004 BKN028 10/09 Q1006 YLO=
ETNU,2012,01,01,21,00,METAR ETNU NIL=
ETNU,2012,01,01,21,20,METAR ETNU 012120Z 18007KT 8000 BKN005 BKN020 10/09 Q1005 YLO=
ETNU,2012,01,01,22,00,METAR ETNU NIL=
ETNU,2012,01,01,22,20,METAR ETNU 012220Z 18008KT 6000 -DZ BKN005 10/09 Q1004 YLO=
ETNU,2012,01,01,23,00,METAR ETNU NIL=
ETNW,2012,01,01,00,00,METAR ETNW NIL=
ETNW,2012,01,01,00,20,METAR ETNW 010020Z 22008KT 4500 BR BKN005 BKN027 09/08 Q1009 YLO=
ETNW,2012,01,01,01,00,METAR ETNW NIL=
ETNW,2012,01,01,01,20,METAR ETNW 010120Z 20007KT 2500 DZ BR SCT002 BKN004 08/07 Q1008 YLO=
ETNW,2012,01,01,02,00,METAR ETNW NIL=
ETNW,2012,01,01,02,20,METAR ETNW 010220Z 22007KT 5000 BR BKN006 08/08 Q1008 REDZ YLO=
ETNW,2012,01,01,03,00,METAR ETNW NIL=
ETNW,2012,01,01,03,20,METAR ETNW 010320Z 24009KT 6000 BKN007 10/09 Q1008 GRN=
ETNW,2012,01,01,04,00,METAR ETNW NIL=
ETNW,2012,01,01,04,20,METAR ETNW 010420Z 24010KT 9999 SCT007 BKN019 10/09 Q1008 WHT=
ETNW,2012,01,01,05,00,METAR ETNW NIL=
ETNW,2012,01,01,05,20,METAR ETNW 010520Z 23011KT 9999 BKN010 OVC019 10/09 Q1008 GRN GRN=
ETNW,2012,01,01,06,00,METAR ETNW NIL=
ETNW,2012,01,01,06,20,METAR ETNW 010620Z 24013KT 8000 -RA BKN008 OVC015 10/09 Q1008 GRN GRN TEMPO YLO=
ETNW,2012,01,01,07,00,METAR ETNW NIL=
ETNW,2012,01,01,07,20,METAR ETNW 010720Z 24012KT 9000 -RA BKN008 OVC015 11/09 Q1008 GRN GRN TEMPO YLO=
ETNW,2012,01,01,07,55,SPECI ETNW 010755Z 24013KT 4000 -RA BR BKN009 OVC015 11/09 Q1008 GRN GRN TEMPO YLO=
ETNW,2012,01,01,08,00,METAR ETNW NIL=
ETNW,2012,01,01,08,01,SPECI ETNW 010801Z 24013KT 3000 RADZ BR BKN009 OVC015 11/09 Q1008 YLO GRN TEMPO YLO=
ETNW,2012,01,01,08,20,METAR ETNW 010820Z 24012KT 5000 -RADZ BR BKN009 OVC015 11/10 Q1008 GRN FCST CANCEL=
ETNW,2012,01,01,08,59,SPECI ETNW 010859Z 24011KT 4000 -RADZ BR BKN008 OVC015 11/10 Q1008 GRN=
ETNW,2012,01,01,09,00,METAR ETNW NIL=
ETNW,2012,01,01,09,20,METAR ETNW 010920Z 24012KT 5000 -RA BR BKN008 OVC015 11/10 Q1008 GRN=
ETNW,2012,01,01,10,00,METAR ETNW NIL=
ETNW,2012,01,01,10,20,METAR ETNW 011020Z 24012KT 5000 -RADZ BR BKN009 OVC016 11/10 Q1008 GRN=
ETNW,2012,01,01,11,00,METAR ETNW NIL=
ETNW,2012,01,01,11,20,METAR ETNW 011120Z 25010KT 8000 BKN010 OVC020 12/10 Q1009 GRN=
ETNW,2012,01,01,12,00,METAR ETNW NIL=
ETNW,2012,01,01,12,20,METAR ETNW 011220Z 24009KT 9999 BKN010 OVC018 12/10 Q1008 GRN=
ETNW,2012,01,01,13,00,METAR ETNW NIL=
ETNW,2012,01,01,13,20,METAR ETNW 011320Z 24009KT 8000 -DZ BKN008 OVC018 12/10 Q1008 GRN=
ETNW,2012,01,01,14,00,METAR ETNW NIL=
ETNW,2012,01,01,14,20,METAR ETNW 011420Z 23008KT 9999 BKN007 OVC020 12/10 Q1008 GRN=
ETNW,2012,01,01,15,00,METAR ETNW NIL=
ETNW,2012,01,01,15,20,METAR ETNW 011520Z 23007KT 9999 BKN008 OVC022 12/10 Q1008 GRN=
ETNW,2012,01,01,16,00,METAR ETNW NIL=
ETNW,2012,01,01,16,20,METAR ETNW 011620Z 23007KT 9999 SCT012 BKN023 12/10 Q1007 WHT=
ETNW,2012,01,01,17,00,METAR ETNW NIL=
ETNW,2012,01,01,17,20,METAR ETNW 011720Z 21009KT 9999 -RA SCT012 BKN020 12/10 Q1007 WHT=
ETNW,2012,01,01,18,00,METAR ETNW NIL=
ETNW,2012,01,01,18,20,METAR ETNW 011820Z 21007KT 9999 SCT009 BKN015 12/10 Q1006 WHT=
ETNW,2012,01,01,19,00,METAR ETNW NIL=
ETNW,2012,01,01,19,20,METAR ETNW 011920Z 20009KT 9999 -RA FEW006 BKN013 12/10 Q1005 GRN=
ETNW,2012,01,01,20,00,METAR ETNW NIL=
ETNW,2012,01,01,20,20,METAR ETNW 012020Z 21011KT 9999 FEW010 BKN020 12/10 Q1004 WHT=
ETNW,2012,01,01,21,00,METAR ETNW NIL=
ETNW,2012,01,01,21,20,METAR ETNW 012120Z 21014KT 9999 -RA BKN020 BKN070 12/10 Q1002 WHT=
ETNW,2012,01,01,22,00,METAR ETNW NIL=
ETNW,2012,01,01,22,20,METAR ETNW 012220Z 21015KT 9999 BKN025 BKN080 13/10 Q1002 BLU=
ETNW,2012,01,01,23,00,METAR ETNW NIL=
ETOU,2012,01,01,00,14,SPECI ETOU 010014Z AUTO 00000KT 4800 BR OVC022 06/05 A2994 RMK AO2 VIS 2000 RWY07 CIG 019V025 SLP144=
ETOU,2012,01,01,00,25,SPECI ETOU 010025Z AUTO 00000KT 4000 BR SCT022 OVC031 07/06 A2993 RMK AO2 VIS 0800 RWY07 CIG 026 RWY07 SLP143=
ETOU,2012,01,01,00,28,SPECI ETOU 010028Z AUTO 00000KT 3200 BR SCT022 OVC032 07/06 A2993 RMK AO2 VIS 0800 RWY07 CIG 025 RWY07 SLP142=
ETOU,2012,01,01,00,31,SPECI ETOU 010031Z AUTO 00000KT 2800 BR SCT024 OVC032 07/06 A2993 RMK AO2 VIS 0800 RWY07 CIG 027 RWY07 SLP143=
ETOU,2012,01,01,00,33,SPECI ETOU 010033Z AUTO 00000KT 2400 BR SCT024 BKN032 OVC042 07/06 A2993 RMK AO2 VIS 0800 RWY07 CIG 027 RWY07 SLP143=
ETOU,2012,01,01,00,40,SPECI ETOU 010040Z AUTO 00000KT 2800 BR SCT024 BKN032 OVC043 07/06 A2994 RMK AO2 VIS 0400 RWY07 CIG 027 RWY07 SLP144=
ETOU,2012,01,01,00,42,SPECI ETOU 010042Z AUTO 00000KT 3200 BR FEW020 BKN028 BKN032 OVC043 07/06 A2994 RMK AO2 VIS 0400 RWY07 SLP144=
ETOU,2012,01,01,00,44,SPECI ETOU 010044Z AUTO 00000KT 3200 BR SCT019 SCT026 OVC032 07/06 A2994 RMK AO2 VIS 0400 RWY07 SCT026 V BKN SLP144=
ETOU,2012,01,01,00,46,SPECI ETOU 010046Z AUTO 00000KT 3200 UP BR SCT019 SCT025 OVC032 07/06 A2994 RMK AO2 VIS 0400 RWY07 UPB0046 SCT025 V BKN SLP144=
ETOU,2012,01,01,00,47,SPECI ETOU 010047Z AUTO 00000KT 3200 UP BR SCT019 BKN027 OVC032 07/06 A2993 RMK AO2 VIS 0400 RWY07 UPB0046 SLP143=
ETOU,2012,01,01,00,50,SPECI ETOU 010050Z AUTO 00000KT 2800 UP BR SCT020 BKN025 BKN031 OVC044 07/06 A2993 RMK AO2 VIS M0400 RWY07 UPB0046 SLP143=
ETOU,2012,01,01,00,55,METAR ETOU 010055Z AUTO 00000KT 2800 UP BR BKN023 BKN030 OVC044 07/06 A2993 RMK AO2 VIS M0400 RWY07 UPB0046 SLP143 P0000 T00670057=
ETOU,2012,01,01,00,56,SPECI ETOU 010056Z AUTO 00000KT 2400 BR FEW020 SCT025 BKN030 BKN044 OVC050 07/06 A2993 RMK AO2 VIS M0400 RWY07 UPE0056 FEW V SCT SLP142=
ETOU,2012,01,01,00,58,SPECI ETOU 010058Z AUTO 00000KT 2000 BR FEW020 BKN027 BKN044 OVC050 07/06 A2993 RMK AO2 VIS M0400 RWY07 UPE0056 SLP142=
ETOU,2012,01,01,01,03,SPECI ETOU 010103Z AUTO 00000KT 2000 R25/1200VP1500 BR FEW020 SCT027 OVC050 07/05 A2993 RMK AO2 VIS M0400 RWY07 UPE0056 FEW V SCT SLP143=
ETOU,2012,01,01,01,11,SPECI ETOU 010111Z AUTO 00000KT 1600 R25/0900VP1500 BR FEW019 SCT025 SCT032 OVC050 07/06 A2994 RMK AO2 VIS M0400 RWY07 UPE0056 FEW V SCT SLP144=
ETOU,2012,01,01,01,13,SPECI ETOU 010113Z AUTO 00000KT 1200 R25/0700VP1500 BR FEW019 SCT025 BKN034 OVC050 07/05 A2994 RMK AO2 VIS M0400 RWY07 UPE0056 FEW V SCT SLP144=
ETOU,2012,01,01,01,15,SPECI ETOU 010115Z AUTO 00000KT 0800 R25/0650VP1500 FG FEW024 SCT033 OVC050 06/05 A2994 RMK AO2 UPE0056 SLP144=
ETOU,2012,01,01,01,22,SPECI ETOU 010122Z AUTO 00000KT 1200 R25/0650VP1500 BR SCT026 SCT033 OVC050 07/06 A2994 RMK AO2 VIS M0400 RWY07 UPE0056 SLP144=
ETOU,2012,01,01,01,28,SPECI ETOU 010128Z AUTO 00000KT 3200 BR FEW024 SCT033 OVC050 07/06 A2993 RMK AO2 VIS M0400 RWY07 UPE0056 SLP143=
ETOU,2012,01,01,01,40,SPECI ETOU 010140Z AUTO 00000KT 2800 BR FEW025 OVC049 07/06 A2993 RMK AO2 VIS 0800 RWY07 UPE0056 SLP141=
ETOU,2012,01,01,01,44,SPECI ETOU 010144Z AUTO 00000KT 3200 BR FEW025 OVC048 07/06 A2993 RMK AO2 VIS 1200 RWY07 UPE0056 SLP140=
ETOU,2012,01,01,01,55,METAR ETOU 010155Z AUTO 00000KT 3200 BR OVC048 07/06 A2993 RMK AO2 UPE0056 SLP140 P0000 T00750064=
ETOU,2012,01,01,01,57,SPECI ETOU 010157Z AUTO 00000KT 2800 BR OVC048 07/06 A2993 RMK AO2 SLP142=
ETOU,2012,01,01,02,02,SPECI ETOU 010202Z AUTO 00000KT 2400 BR OVC048 07/06 A2993 RMK AO2 SLP142=
ETOU,2012,01,01,02,10,SPECI ETOU 010210Z AUTO 32003KT 2800 BR OVC048 07/06 A2994 RMK AO2 SLP145=
ETOU,2012,01,01,02,14,SPECI ETOU 010214Z AUTO 31003KT 3200 BR OVC048 07/06 A2994 RMK AO2 SLP145=
ETOU,2012,01,01,02,23,SPECI ETOU 010223Z AUTO 32003KT 4000 BR OVC044 08/06 A2994 RMK AO2 SLP145=
ETOU,2012,01,01,02,29,SPECI ETOU 010229Z AUTO 00000KT 4000 BR FEW003 BKN038 OVC047 08/06 A2994 RMK AO2 SLP146=
ETOU,2012,01,01,02,35,SPECI ETOU 010235Z AUTO 00000KT 3200 BR SCT018 BKN037 OVC046 07/06 A2995 RMK AO2 SLP146=
ETOU,2012,01,01,02,36,SPECI ETOU 010236Z AUTO 00000KT 3200 -DZ BR SCT018 BKN034 OVC044 07/06 A2994 RMK AO2 DZB0236 SLP146=
ETOU,2012,01,01,02,39,SPECI ETOU 010239Z AUTO 28003KT 2800 -DZ BR SCT020 BKN037 OVC045 07/06 A2995 RMK AO2 DZB0236 CIG 027 RWY07 SLP146=
ETOU,2012,01,01,02,41,SPECI ETOU 010241Z AUTO 00000KT 2800 -DZ BR BKN023 OVC037 07/06 A2994 RMK AO2 DZB0236 SLP146=
ETOU,2012,01,01,02,42,SPECI ETOU 010242Z AUTO 00000KT 2400 -DZ BR BKN025 OVC037 07/06 A2994 RMK AO2 DZB0236 SLP146=
ETOU,2012,01,01,02,46,SPECI ETOU 010246Z AUTO 00000KT 2000 R25/1300VP1500 -RA BR BKN023 OVC037 07/06 A2994 RMK AO2 RAB0243DZB0236E0243 SLP145=
ETOU,2012,01,01,02,48,SPECI ETOU 010248Z AUTO 00000KT 1600 R25/1200VP1500 -RA BR BKN023 OVC036 07/06 A2994 RMK AO2 RAB0243DZB0236E0243 SLP145=
ETOU,2012,01,01,02,52,SPECI ETOU 010252Z AUTO 00000KT 1200 R25/1100VP1500 UP BR BKN019 OVC035 07/06 A2994 RMK AO2 UPB0249RAB0243E0249DZB0236E0243 SLP146=
ETOU,2012,01,01,02,55,METAR ETOU 010255Z AUTO 00000KT 1200 R25/1100VP1500 UP BR FEW007 BKN019 OVC034 07/06 A2994 RMK AO2 UPB0249RAB0243E0249DZB0236E0243 SLP146 P0001 60001 T00700059 53003=
ETOU,2012,01,01,02,58,SPECI ETOU 010258Z AUTO 00000KT 1200 R25/1100VP1500 -RA BR FEW007 BKN020 OVC024 07/06 A2994 RMK AO2 UPE0256RAB0256 OVC V BKN SLP145=
ETOU,2012,01,01,02,59,SPECI ETOU 010259Z AUTO 00000KT 1600 R25/1100VP1500 -RA BR FEW007 BKN019 OVC024 07/06 A2994 RMK AO2 UPE0256RAB0256 OVC V BKN SLP146=
ETOU,2012,01,01,03,00,SPECI ETOU 010300Z AUTO 00000KT 1600 R25/1100VP1500 -RA BR FEW007 BKN022 OVC047 07/06 A2994 RMK AO2 UPE0256RAB0256 SLP145=
ETOU,2012,01,01,03,07,SPECI ETOU 010307Z AUTO 00000KT 1600 R25/1400VP1500 BR BKN022 BKN047 07/06 A2994 RMK AO2 UPE0256RAB0256E0307 SLP146=
ETOU,2012,01,01,03,08,SPECI ETOU 010308Z AUTO 00000KT 2000 R25/1400VP1500 BR BKN022 BKN047 07/06 A2994 RMK AO2 UPE0256RAB0256E0307 SLP145=
ETOU,2012,01,01,03,14,SPECI ETOU 010314Z AUTO 00000KT 2400 BR FEW015 BKN024 BKN039 OVC047 08/07 A2994 RMK AO2 VIS 1200 RWY07 UPE0256RAB0256E0307 SLP145=
ETOU,2012,01,01,03,22,SPECI ETOU 010322Z AUTO 00000KT 2400 BR SCT023 OVC043 08/07 A2994 RMK AO2 UPE0256RAB0256E0307 SLP145=
ETOU,2012,01,01,03,28,SPECI ETOU 010328Z AUTO 00000KT 2400 BR BKN023 OVC043 08/07 A2994 RMK AO2 UPE0256RAB0256E0307 CIG 021V028 BKN V SCT SLP146=
ETOU,2012,01,01,03,35,SPECI ETOU 010335Z AUTO 00000KT 2400 BR SCT024 BKN030 OVC043 08/07 A2994 RMK AO2 UPE0256RAB0256E0307 SLP146=
ETOU,2012,01,01,03,42,SPECI ETOU 010342Z AUTO 00000KT 2000 BR SCT024 BKN030 BKN038 OVC044 08/07 A2994 RMK AO2 UPE0256RAB0256E0307 SLP145=
ETOU,2012,01,01,03,49,SPECI ETOU 010349Z AUTO 00000KT 1600 R25/1100VP1500 BR SCT023 BKN030 BKN038 OVC045 08/07 A2994 RMK AO2 UPE0256RAB0256E0307 SLP145=
ETOU,2012,01,01,03,55,METAR ETOU 010355Z AUTO 00000KT 1600 R25/1100VP1500 BR SCT023 BKN030 OVC043 08/07 A2994 RMK AO2 UPE0256RAB0256E0307 SLP145 P0000 T00760066=
ETOU,2012,01,01,04,07,SPECI ETOU 010407Z AUTO 00000KT 1200 R25/0800V1300 BR FEW023 OVC043 07/06 A2994 RMK AO2 SLP143=
ETOU,2012,01,01,04,19,SPECI ETOU 010419Z AUTO 00000KT 1200 R25/0750V1300 BR BKN023 OVC043 07/07 A2994 RMK AO2 CIG 021V026 BKN V SCT SLP143=
ETOU,2012,01,01,04,20,SPECI ETOU 010420Z AUTO 00000KT 1200 R25/0750VP1500 BR BKN023 OVC043 07/07 A2994 RMK AO2 CIG 021V026 SLP143=
ETOU,2012,01,01,04,25,SPECI ETOU 010425Z AUTO 33003KT 1600 R25/0900VP1500 BR BKN023 OVC043 08/07 A2994 RMK AO2 CIG 021V026 SLP144=
ETOU,2012,01,01,04,27,SPECI ETOU 010427Z AUTO 00000KT 2000 R25/1100VP1500 BR BKN023 OVC043 08/07 A2994 RMK AO2 CIG 021V026 SLP144=
ETOU,2012,01,01,04,30,SPECI ETOU 010430Z AUTO 00000KT 2400 BR BKN022 OVC042 08/07 A2994 RMK AO2 CIG 021V026 SLP144=
ETOU,2012,01,01,04,36,SPECI ETOU 010436Z AUTO 00000KT 2000 BR OVC022 08/07 A2994 RMK AO2 CIG 021V026 SLP144=
ETOU,2012,01,01,04,38,SPECI ETOU 010438Z AUTO 00000KT 2400 BR OVC022 08/07 A2994 RMK AO2 CIG 021V026 SLP143=
ETOU,2012,01,01,04,40,SPECI ETOU 010440Z AUTO 00000KT 2000 BR OVC022 08/07 A2994 RMK AO2 CIG 021V026 SLP143=
ETOU,2012,01,01,04,50,SPECI ETOU 010450Z AUTO 00000KT 2400 BR OVC022 08/07 A2994 RMK AO2 VIS 1200 RWY07 CIG 020V025 SLP144=
ETOU,2012,01,01,04,55,METAR ETOU 010455Z AUTO 00000KT 2400 BR OVC022 08/07 A2994 RMK AO2 VIS 1200 RWY07 SLP145 T00790070=
ETOU,2012,01,01,04,59,SPECI ETOU 010459Z AUTO 00000KT 2000 BR OVC023 08/07 A2994 RMK AO2 SLP145=
ETOU,2012,01,01,05,02,SPECI ETOU 010502Z AUTO 00000KT 2000 -DZ BR OVC023 08/07 A2994 RMK AO2 DZB0502 SLP145=
ETOU,2012,01,01,05,16,SPECI ETOU 010516Z AUTO 00000KT 2000 BR BKN019 OVC026 08/07 A2994 RMK AO2 DZB0502E0516 SLP145=
ETOU,2012,01,01,05,18,SPECI ETOU 010518Z AUTO 00000KT 2400 BR BKN017 OVC025 08/07 A2994 RMK AO2 DZB0502E0516 SLP145=
ETOU,2012,01,01,05,24,SPECI ETOU 010524Z AUTO 00000KT 2800 BR BKN018 OVC025 08/07 A2994 RMK AO2 DZB0502E0516 SLP144=
ETOU,2012,01,01,05,42,SPECI ETOU 010542Z AUTO 00000KT 3200 BR BKN016 OVC024 08/08 A2994 RMK AO2 DZB0502E0516 SLP145=
ETOU,2012,01,01,05,48,SPECI ETOU 010548Z AUTO 00000KT 2800 BR BKN016 OVC024 08/08 A2994 RMK AO2 DZB0502E0516 BKN V SCT SLP146=
ETOU,2012,01,01,05,49,SPECI ETOU 010549Z AUTO 00000KT 2800 BR SCT016 OVC024 08/08 A2994 RMK AO2 DZB0502E0516 CIG 022V027 OVC V BKN SLP146=
ETOU,2012,01,01,05,55,METAR ETOU 010555Z AUTO 00000KT 2800 BR SCT016 BKN024 OVC048 08/07 A2995 RMK AO2 DZB0502E0516 CIG 022V027 SLP146 P0000 60001 T00840075 10085 20063 53001=
ETOU,2012,01,01,06,00,SPECI ETOU 010600Z AUTO 00000KT 2800 BR FEW016 BKN026 OVC048 08/08 A2994 RMK AO2 CIG 022V028 SLP145=
ETOU,2012,01,01,06,03,SPECI ETOU 010603Z AUTO 00000KT 2400 BR FEW016 BKN025 OVC048 08/08 A2994 RMK AO2 CIG 022V028 SLP145=
ETOU,2012,01,01,06,08,SPECI ETOU 010608Z AUTO 00000KT 2000 R25/1100VP1500 BR BKN025 OVC048 08/07 A2994 RMK AO2 CIG 023V028 SLP145=
ETOU,2012,01,01,06,10,SPECI ETOU 010610Z AUTO 00000KT 1600 R25/0900VP1500 BR BKN025 OVC048 08/07 A2994 RMK AO2 CIG 022V028 SLP145=
ETOU,2012,01,01,06,13,SPECI ETOU 010613Z AUTO 00000KT 0800 R25/0450VP1500 FG BKN025 OVC048 08/07 A2994 RMK AO2 CIG 022V027 SLP145=
ETOU,2012,01,01,06,16,SPECI ETOU 010616Z AUTO 00000KT 0400 R25/0400VP1500 FG BKN024 OVC048 08/07 A2994 RMK AO2 CIG 022V028 SLP146=
ETOU,2012,01,01,06,17,SPECI ETOU 010617Z AUTO 00000KT 0400 R25/0400V1100 FG BKN024 OVC048 08/07 A2994 RMK AO2 CIG 022V028 SLP146=
ETOU,2012,01,01,06,21,SPECI ETOU 010621Z AUTO 00000KT 0400 R25/0400V0500 FG OVC024 08/07 A2995 RMK AO2 CIG 022V028 SLP147=
ETOU,2012,01,01,06,23,SPECI ETOU 010623Z AUTO 00000KT 0400 R25/0400V0700 FG OVC023 08/07 A2995 RMK AO2 CIG 022V027 OVC V BKN SLP147=
ETOU,2012,01,01,06,28,SPECI ETOU 010628Z AUTO 00000KT 0400 R25/0450V0750 FG OVC022 08/07 A2995 RMK AO2 CIG 021V026 SLP147=
ETOU,2012,01,01,06,30,SPECI ETOU 010630Z AUTO 00000KT 0800 R25/0450V0750 FG OVC022 08/07 A2995 RMK AO2 CIG 021V026 SLP147=
ETOU,2012,01,01,06,43,SPECI ETOU 010643Z AUTO 00000KT 1200 R25/0600VP1500 BR OVC022 08/07 A2994 RMK AO2 CIG 020V025 SLP145=
ETOU,2012,01,01,06,47,SPECI ETOU 010647Z AUTO 00000KT 1600 R25/0800VP1500 BR FEW011 OVC022 08/07 A2994 RMK AO2 SLP145=
ETOU,2012,01,01,06,51,SPECI ETOU 010651Z AUTO 00000KT 2000 R25/1400VP1500 BR FEW011 OVC022 08/07 A2994 RMK AO2 SLP146=
ETOU,2012,01,01,06,55,METAR ETOU 010655Z AUTO 00000KT 2000 BR FEW011 OVC021 08/07 A2994 RMK AO2 SLP146 T00820074=
ETOU,2012,01,01,07,01,SPECI ETOU 010701Z AUTO 00000KT 1600 R25/1200VP1500 BR BKN016 OVC022 08/08 A2995 RMK AO2 SLP146=
ETOU,2012,01,01,07,10,SPECI ETOU 010710Z AUTO 00000KT 2000 BR BKN018 OVC024 08/07 A2995 RMK AO2 BKN V OVC SLP146=
ETOU,2012,01,01,07,17,SPECI ETOU 010717Z AUTO 00000KT 2400 BR OVC016 08/08 A2995 RMK AO2 OVC V BKN SLP147=
ETOU,2012,01,01,07,20,SPECI ETOU 010720Z AUTO 00000KT 2800 BR OVC016 08/08 A2995 RMK AO2 CIG 013V019 SLP148=
ETOU,2012,01,01,07,22,SPECI ETOU 010722Z AUTO 00000KT 3200 BR OVC015 09/08 A2995 RMK AO2 CIG 013V018 SLP149=
ETOU,2012,01,01,07,26,SPECI ETOU 010726Z AUTO 00000KT 4000 BR OVC014 09/08 A2996 RMK AO2 VIS 2400 RWY07 CIG 013V018 SLP150=
ETOU,2012,01,01,07,43,SPECI ETOU 010743Z AUTO 00000KT 6000 BR OVC013 09/08 A2996 RMK AO2 VIS 2400 RWY07 CIG 012V017 SLP151=
ETOU,2012,01,01,07,51,SPECI ETOU 010751Z AUTO 17003KT 6000 BR OVC015 09/08 A2996 RMK AO2 VIS 3200 RWY07 CIG 012V018 SLP151=
ETOU,2012,01,01,07,55,METAR ETOU 010755Z AUTO 17004KT 6000 BR OVC015 09/08 A2996 RMK AO2 VIS 4000 RWY07 CIG 012V018 SLP151 T00900081=
ETOU,2012,01,01,07,58,SPECI ETOU 010758Z AUTO 17004KT 4800 BR OVC014 09/08 A2996 RMK AO2 CIG 012V018 SLP151=
ETOU,2012,01,01,08,13,SPECI ETOU 010813Z AUTO 15004KT 6000 BR BKN014 OVC025 09/08 A2996 RMK AO2 CIG 013V018 SLP150=
ETOU,2012,01,01,08,14,SPECI ETOU 010814Z AUTO 15004KT 6000 BR BKN016 OVC025 09/08 A2996 RMK AO2 CIG 013V018 SLP150=
ETOU,2012,01,01,08,55,METAR ETOU 010855Z AUTO 00000KT 9999 OVC015 09/08 A2996 RMK AO2 SLP151 T00940085 52005=
ETOU,2012,01,01,09,55,METAR ETOU 010955Z AUTO 23005KT 9999 OVC016 11/09 A2997 RMK AO2 CIG 013V018 SLP154 T01090095=
ETOU,2012,01,01,10,10,SPECI ETOU 011010Z AUTO 21008KT 9999 SCT016 OVC026 12/09 A2997 RMK AO2 SLP151=
ETOU,2012,01,01,10,35,SPECI ETOU 011035Z AUTO 24011KT 9999 SCT027 OVC050 12/10 A2996 RMK AO2 SLP150=
ETOU,2012,01,01,10,55,METAR ETOU 011055Z AUTO 24012KT 9999 FEW016 SCT028 OVC055 13/10 A2996 RMK AO2 FEW V SCT CIG 028 RWY07 SLP148 T01250099=
ETOU,2012,01,01,11,22,SPECI ETOU 011122Z AUTO 23011KT 9999 FEW016 SCT022 BKN027 BKN046 12/10 A2995 RMK AO2 FEW V SCT CIG 022 RWY07 SLP147=
ETOU,2012,01,01,11,28,SPECI ETOU 011128Z AUTO 23011KT 9999 SCT022 BKN046 12/10 A2995 RMK AO2 CIG 021 RWY07 SLP144=
ETOU,2012,01,01,11,45,SPECI ETOU 011145Z AUTO 23009KT 9999 SCT022 BKN027 BKN100 12/10 A2995 RMK AO2 SLP145=
ETOU,2012,01,01,11,55,METAR ETOU 011155Z AUTO 21009KT 9999 FEW015 SCT023 BKN028 BKN100 13/10 A2994 RMK AO2 FEW V SCT CIG 022 RWY07 SLP143 70006 T01250101 10125 20078 58006=
ETOU,2012,01,01,12,03,SPECI ETOU 011203Z AUTO 22010KT 9999 SCT025 BKN030 13/10 A2994 RMK AO2 SLP143=
ETOU,2012,01,01,12,05,SPECI ETOU 011205Z AUTO 22011KT 9999 BKN028 13/10 A2994 RMK AO2 CIG 021V030 BKN V OVC SLP142=
ETOU,2012,01,01,12,12,SPECI ETOU 011212Z AUTO 22010KT 9999 FEW024 OVC030 13/10 A2994 RMK AO2 SLP141=
ETOU,2012,01,01,12,24,SPECI ETOU 011224Z AUTO 22008KT 9999 FEW019 OVC029 13/10 A2993 RMK AO2 CIG 024V030 SLP140=
ETOU,2012,01,01,12,32,SPECI ETOU 011232Z AUTO 21007KT 9999 BKN018 BKN024 OVC030 13/10 A2993 RMK AO2 CIG 016V022 SLP139=
ETOU,2012,01,01,12,55,METAR ETOU 011255Z AUTO 20007KT 9999 BKN018 OVC026 13/10 A2992 RMK AO2 CIG 015V021 SLP137 T01280099=
ETOU,2012,01,01,13,14,SPECI ETOU 011314Z AUTO 20007KT 9999 BKN021 OVC027 13/10 A2992 RMK AO2 CIG 019V025 SLP137=
ETOU,2012,01,01,13,55,METAR ETOU 011355Z AUTO 23009KT 9999 BKN023 OVC029 13/09 A2991 RMK AO2 CIG 022V027 OVC V BKN SLP133 T01340093=
ETOU,2012,01,01,14,55,METAR ETOU 011455Z AUTO 22011KT 9999 OVC025 13/09 A2992 RMK AO2 CIG 020V030 SLP135 T01300094 55007=
ETOU,2012,01,01,15,04,SPECI ETOU 011504Z AUTO 22010KT 9999 BKN019 OVC026 13/09 A2992 RMK AO2 CIG 017V023 SLP136=
ETOU,2012,01,01,15,55,METAR ETOU 011555Z AUTO 21008KT 9999 OVC018 13/09 A2992 RMK AO2 CIG 016V021 SLP137 T01280094=
ETOU,2012,01,01,16,52,SPECI ETOU 011652Z AUTO 21008KT 9999 OVC014 12/09 A2992 RMK AO2 SLP134=
ETOU,2012,01,01,16,55,METAR ETOU 011655Z AUTO 21008KT 9999 OVC014 12/09 A2992 RMK AO2 CIG 014V019 SLP134 T01240094=
ETOU,2012,01,01,17,55,METAR ETOU 011755Z AUTO 20008KT 9999 OVC013 12/10 A2991 RMK AO2 CIG 011V015 SLP131 T01210095 10134 20120 58004=
ETOU,2012,01,01,18,55,METAR ETOU 011855Z AUTO 22010KT 9999 OVC014 12/10 A2989 RMK AO2 CIG 013V017 SLP126 T01240096=
ETOU,2012,01,01,19,18,SPECI ETOU 011918Z AUTO 21007KT 9999 BKN015 OVC034 12/10 A2989 RMK AO2 CIG 013V017 SLP125=
ETOU,2012,01,01,19,40,SPECI ETOU 011940Z AUTO 22012KT 9999 SCT015 BKN022 OVC033 13/10 A2989 RMK AO2 SLP123=
ETOU,2012,01,01,19,45,SPECI ETOU 011945Z AUTO 22011KT 9999 BKN016 BKN023 OVC031 13/10 A2988 RMK AO2 BKN016 V SCT SLP122=
ETOU,2012,01,01,19,55,METAR ETOU 011955Z AUTO 22009KT 9999 BKN017 OVC023 13/10 A2988 RMK AO2 SLP122 T01260096=
ETOU,2012,01,01,19,58,SPECI ETOU 011958Z AUTO 21009KT 9999 OVC020 13/10 A2988 RMK AO2 SLP122=
ETOU,2012,01,01,20,01,SPECI ETOU 012001Z AUTO 22009KT 9999 BKN018 OVC023 13/09 A2988 RMK AO2 SLP121=
ETOU,2012,01,01,20,03,SPECI ETOU 012003Z AUTO 21009KT 9999 OVC020 13/09 A2988 RMK AO2 OVC V BKN SLP120=
ETOU,2012,01,01,20,06,SPECI ETOU 012006Z AUTO 21010KT 9999 BKN019 OVC024 13/09 A2988 RMK AO2 OVC V BKN SLP120=
ETOU,2012,01,01,20,12,SPECI ETOU 012012Z AUTO 21009KT 9999 BKN020 OVC036 13/09 A2988 RMK AO2 CIG 016V024 BKN V OVC SLP120=
ETOU,2012,01,01,20,55,METAR ETOU 012055Z AUTO 21012G18KT 9999 OVC024 13/09 A2986 RMK AO2 CIG 022V028 SLP115 T01310090 58016=
ETOU,2012,01,01,21,23,SPECI ETOU 012123Z AUTO 21012KT 9999 OVC019 13/09 A2985 RMK AO2 CIG 018V024 SLP112=
ETOU,2012,01,01,21,42,SPECI ETOU 012142Z AUTO 21010G17KT 9999 OVC023 13/09 A2985 RMK AO2 CIG 018V027 SLP110=
ETOU,2012,01,01,21,55,METAR ETOU 012155Z AUTO 20009KT 9999 OVC022 13/09 A2985 RMK AO2 CIG 018V026 SLP109 T01300091=
ETOU,2012,01,01,22,55,METAR ETOU 012255Z AUTO 22011G19KT 9999 BKN021 OVC029 13/09 A2983 RMK AO2 CIG 019V026 SLP103 T01290090 401340061=
ETSA,2012,01,01,00,00,METAR ETSA NIL=
ETSA,2012,01,01,00,20,METAR ETSA NIL=
ETSA,2012,01,01,01,00,METAR ETSA NIL=
ETSA,2012,01,01,01,20,METAR ETSA NIL=
ETSA,2012,01,01,02,00,METAR ETSA NIL=
ETSA,2012,01,01,02,20,METAR ETSA NIL=
ETSA,2012,01,01,03,00,METAR ETSA NIL=
ETSA,2012,01,01,03,20,METAR ETSA NIL=
ETSA,2012,01,01,04,00,METAR ETSA NIL=
ETSA,2012,01,01,04,20,METAR ETSA NIL=
ETSA,2012,01,01,05,00,METAR ETSA NIL=
ETSA,2012,01,01,05,20,METAR ETSA NIL=
ETSA,2012,01,01,06,00,METAR ETSA NIL=
ETSA,2012,01,01,06,20,METAR ETSA 010620Z 24014KT 9999 BKN012 OVC042 08/06 Q1017 GRN=
ETSA,2012,01,01,07,00,METAR ETSA NIL=
ETSA,2012,01,01,07,20,METAR ETSA 010720Z 23013KT 9999 SCT012 BKN050 08/06 Q1018 BLU=
ETSA,2012,01,01,08,00,METAR ETSA NIL=
ETSA,2012,01,01,08,20,METAR ETSA 010820Z 23012KT 9999 FEW015 BKN050 09/06 Q1018 BLU=
ETSA,2012,01,01,09,00,METAR ETSA NIL=
ETSA,2012,01,01,09,20,METAR ETSA 010920Z 24014KT 9999 FEW022 BKN048 09/07 Q1019 BLU=
ETSA,2012,01,01,10,00,METAR ETSA NIL=
ETSA,2012,01,01,10,20,METAR ETSA 011020Z 24014KT 9999 SCT018 BKN045 10/07 Q1019 BLU=
ETSA,2012,01,01,11,00,METAR ETSA NIL=
ETSA,2012,01,01,11,20,METAR ETSA 011120Z 24014KT 9999 FEW015 BKN050 10/07 Q1018 BLU=
ETSA,2012,01,01,12,00,METAR ETSA NIL=
ETSA,2012,01,01,12,20,METAR ETSA 011220Z 24017KT 9999 FEW020 BKN045 11/07 Q1018 BLU=
ETSA,2012,01,01,13,00,METAR ETSA NIL=
ETSA,2012,01,01,13,20,METAR ETSA 011320Z 24016KT 9999 FEW020 SCT050 BKN200 11/07 Q1018 BLU/=
ETSA,2012,01,01,14,00,METAR ETSA NIL=
ETSA,2012,01,01,14,20,METAR ETSA 011420Z 24014KT 9999 SCT040 BKN200 11/06 Q1018 BLU/=
ETSA,2012,01,01,15,00,METAR ETSA NIL=
ETSA,2012,01,01,15,20,METAR ETSA 011520Z 23010KT 9999 SCT170 BKN280 10/06 Q1018 BLU/=
ETSA,2012,01,01,16,00,METAR ETSA NIL=
ETSA,2012,01,01,16,20,METAR ETSA 011620Z 24007KT 9999 FEW040 BKN280 10/06 Q1018 BLU/=
ETSA,2012,01,01,17,00,METAR ETSA NIL=
ETSA,2012,01,01,17,20,METAR ETSA 011720Z 24005KT 9999 BKN280 09/05 Q1018 BLU/=
ETSA,2012,01,01,18,00,METAR ETSA NIL=
ETSA,2012,01,01,18,20,METAR ETSA 011820Z 19008KT 9999 BKN280 06/04 Q1018 BLU/=
ETSA,2012,01,01,19,00,METAR ETSA NIL=
ETSA,2012,01,01,19,20,METAR ETSA 011920Z 21011KT 9999 BKN280 09/05 Q1017 BLU+=
ETSA,2012,01,01,20,00,METAR ETSA NIL=
ETSA,2012,01,01,20,20,METAR ETSA 012020Z 22008KT 9999 BKN260 09/05 Q1017 BLU/=
ETSA,2012,01,01,21,00,METAR ETSA NIL=
ETSA,2012,01,01,21,20,METAR ETSA 012120Z 18007KT 9999 BKN240 07/04 Q1016 BLU/=
ETSA,2012,01,01,22,00,METAR ETSA NIL=
ETSA,2012,01,01,22,20,METAR ETSA 012220Z 21007KT 9999 BKN260 07/04 Q1016 BLU/=
ETSA,2012,01,01,23,00,METAR ETSA NIL=
ETSB,2012,01,01,00,00,METAR ETSB NIL=
ETSB,2012,01,01,00,20,METAR ETSB 010020Z 25010KT 3000 -DZ BR SCT005 OVC012 08/08 Q1012 YLO=
ETSB,2012,01,01,01,00,METAR ETSB NIL=
ETSB,2012,01,01,01,20,METAR ETSB 010120Z 23010KT 5000 BR SCT005 OVC012 08/08 Q1012 GRN=
ETSB,2012,01,01,02,00,METAR ETSB NIL=
ETSB,2012,01,01,02,20,METAR ETSB 010220Z 22009KT 5000 BR SCT005 OVC012 08/08 Q1013 GRN=
ETSB,2012,01,01,03,00,METAR ETSB NIL=
ETSB,2012,01,01,03,20,METAR ETSB 010320Z 23009KT 3000 BR SCT002 OVC005 09/09 Q1013 YLO=
ETSB,2012,01,01,04,00,METAR ETSB NIL=
ETSB,2012,01,01,04,20,METAR ETSB 010420Z 23009KT 2000 BR BKN002 OVC005 09/09 Q1013 AMB=
ETSB,2012,01,01,05,00,METAR ETSB NIL=
ETSB,2012,01,01,05,20,METAR ETSB 010520Z 24009KT 2000 -DZ BR SCT001 OVC002 09/09 Q1013 AMB=
ETSB,2012,01,01,06,00,METAR ETSB NIL=
ETSB,2012,01,01,06,20,METAR ETSB 010620Z 23010KT 2500 -DZ BR SCT001 OVC002 09/09 Q1013 AMB=
ETSB,2012,01,01,07,00,METAR ETSB NIL=
ETSB,2012,01,01,07,20,METAR ETSB 010720Z 22011KT 2400 -DZ BR SCT001 OVC002 09/09 Q1013 AMB=
ETSB,2012,01,01,08,00,METAR ETSB NIL=
ETSB,2012,01,01,08,20,METAR ETSB 010820Z 23011KT 4000 -DZ BR SCT001 OVC003 09/09 Q1013 YLO=
ETSB,2012,01,01,09,00,METAR ETSB NIL=
ETSB,2012,01,01,09,20,METAR ETSB 010920Z 23012KT 3000 DZRA BR SCT001 OVC003 09/09 Q1014 YLO=
ETSB,2012,01,01,10,00,METAR ETSB NIL=
ETSB,2012,01,01,10,20,METAR ETSB 011020Z 22012KT 4000 -DZ BR FEW002 OVC003 09/09 Q1014 REDZ YLO=
ETSB,2012,01,01,10,48,SPECI ETSB 011048Z 22011KT 7000 -DZ FEW002 OVC004 09/09 Q1013 YLO=
ETSB,2012,01,01,11,00,METAR ETSB NIL=
ETSB,2012,01,01,11,20,METAR ETSB 011120Z 22012KT 4000 -DZ BR FEW002 OVC004 09/09 Q1013 YLO=
ETSB,2012,01,01,12,00,METAR ETSB NIL=
ETSB,2012,01,01,12,20,METAR ETSB 011220Z 22010KT 4000 -DZ BR SCT002 OVC004 10/10 Q1012 YLO=
ETSB,2012,01,01,13,00,METAR ETSB NIL=
ETSB,2012,01,01,13,20,METAR ETSB 011320Z 22011KT 3500 -DZ BR FEW002 OVC004 10/10 Q1012 YLO=
ETSB,2012,01,01,14,00,METAR ETSB NIL=
ETSB,2012,01,01,14,20,METAR ETSB 011420Z 22013KT 5000 -DZ BR FEW002 OVC004 10/10 Q1012 YLO=
ETSB,2012,01,01,15,00,METAR ETSB NIL=
ETSB,2012,01,01,15,20,METAR ETSB 011520Z 22012KT 3000 -DZ BR FEW002 OVC003 10/10 Q1012 YLO=
ETSB,2012,01,01,16,00,METAR ETSB NIL=
ETSB,2012,01,01,16,20,METAR ETSB 011620Z 22013KT 2500 DZ BR FEW002 OVC003 10/10 Q1011 YLO=
ETSB,2012,01,01,17,00,METAR ETSB NIL=
ETSB,2012,01,01,17,20,METAR ETSB 011720Z 21014KT 2500 DZ BR FEW002 OVC003 10/10 Q1011 YLO=
ETSB,2012,01,01,18,00,METAR ETSB NIL=
ETSB,2012,01,01,18,20,METAR ETSB 011820Z 22015G25KT 3000 -DZ BR BKN003 OVC005 10/09 Q1010 REDZ YLO=
ETSB,2012,01,01,19,00,METAR ETSB NIL=
ETSB,2012,01,01,19,20,METAR ETSB 011920Z 22017KT 4000 -DZ BR FEW003 OVC005 10/09 Q1009 YLO=
ETSB,2012,01,01,20,00,METAR ETSB NIL=
ETSB,2012,01,01,20,20,METAR ETSB 012020Z 22018G28KT 3500 -DZ BR OVC004 10/09 Q1009 YLO=
ETSB,2012,01,01,21,00,METAR ETSB NIL=
ETSB,2012,01,01,21,20,METAR ETSB 012120Z 22016G26KT 3000 -DZ BR OVC004 10/09 Q1008 YLO=
ETSB,2012,01,01,22,00,METAR ETSB NIL=
ETSB,2012,01,01,22,20,METAR ETSB 012220Z 22019KT 3300 -DZ BR OVC004 10/09 Q1007 YLO=
ETSB,2012,01,01,23,00,METAR ETSB NIL=
ETSE,2012,01,01,00,00,METAR ETSE NIL=
ETSE,2012,01,01,00,20,METAR ETSE NIL=
ETSE,2012,01,01,01,00,METAR ETSE NIL=
ETSE,2012,01,01,01,20,METAR ETSE NIL=
ETSE,2012,01,01,02,00,METAR ETSE NIL=
ETSE,2012,01,01,02,20,METAR ETSE NIL=
ETSE,2012,01,01,03,00,METAR ETSE NIL=
ETSE,2012,01,01,03,20,METAR ETSE NIL=
ETSE,2012,01,01,04,00,METAR ETSE NIL=
ETSE,2012,01,01,04,20,METAR ETSE NIL=
ETSE,2012,01,01,05,00,METAR ETSE NIL=
ETSE,2012,01,01,05,20,METAR ETSE NIL=
ETSE,2012,01,01,06,00,METAR ETSE NIL=
ETSE,2012,01,01,06,20,METAR ETSE NIL=
ETSE,2012,01,01,07,00,METAR ETSE NIL=
ETSE,2012,01,01,07,20,METAR ETSE NIL=
ETSE,2012,01,01,08,00,METAR ETSE NIL=
ETSE,2012,01,01,08,20,METAR ETSE NIL=
ETSE,2012,01,01,09,00,METAR ETSE NIL=
ETSE,2012,01,01,09,20,METAR ETSE NIL=
ETSE,2012,01,01,10,00,METAR ETSE NIL=
ETSE,2012,01,01,10,20,METAR ETSE NIL=
ETSE,2012,01,01,11,00,METAR ETSE NIL=
ETSE,2012,01,01,11,20,METAR ETSE NIL=
ETSE,2012,01,01,12,00,METAR ETSE NIL=
ETSE,2012,01,01,12,20,METAR ETSE NIL=
ETSE,2012,01,01,13,00,METAR ETSE NIL=
ETSE,2012,01,01,13,20,METAR ETSE NIL=
ETSE,2012,01,01,14,00,METAR ETSE NIL=
ETSE,2012,01,01,14,20,METAR ETSE NIL=
ETSE,2012,01,01,15,00,METAR ETSE NIL=
ETSE,2012,01,01,15,20,METAR ETSE NIL=
ETSE,2012,01,01,16,00,METAR ETSE NIL=
ETSE,2012,01,01,16,20,METAR ETSE NIL=
ETSE,2012,01,01,17,00,METAR ETSE NIL=
ETSE,2012,01,01,17,20,METAR ETSE NIL=
ETSE,2012,01,01,18,00,METAR ETSE NIL=
ETSE,2012,01,01,18,20,METAR ETSE NIL=
ETSE,2012,01,01,19,00,METAR ETSE NIL=
ETSE,2012,01,01,19,20,METAR ETSE NIL=
ETSE,2012,01,01,20,00,METAR ETSE NIL=
ETSE,2012,01,01,20,20,METAR ETSE NIL=
ETSE,2012,01,01,21,00,METAR ETSE NIL=
ETSE,2012,01,01,21,20,METAR ETSE NIL=
ETSE,2012,01,01,22,00,METAR ETSE NIL=
ETSE,2012,01,01,22,20,METAR ETSE NIL=
ETSE,2012,01,01,23,00,METAR ETSE NIL=
ETSH,2012,01,01,00,00,METAR ETSH NIL=
ETSH,2012,01,01,00,20,METAR ETSH 010020Z 16004KT 3500 BR BKN003 02/02 Q1011 YLO=
ETSH,2012,01,01,01,00,METAR ETSH NIL=
ETSH,2012,01,01,01,20,METAR ETSH 010120Z 19004KT 4000 BR SCT003 BKN007 03/03 Q1011 GRN=
ETSH,2012,01,01,02,00,METAR ETSH NIL=
ETSH,2012,01,01,02,20,METAR ETSH 010220Z 17004KT 4000 BR SCT003 BKN007 03/03 Q1011 GRN=
ETSH,2012,01,01,03,00,METAR ETSH NIL=
ETSH,2012,01,01,03,20,METAR ETSH 010320Z 17004KT 5000 BR SCT007 BKN015 04/04 Q1011 WHT=
ETSH,2012,01,01,04,00,METAR ETSH NIL=
ETSH,2012,01,01,04,20,METAR ETSH 010420Z 19003KT 6000 FEW007 SCT015 BKN050 04/04 Q1011 WHT=
ETSH,2012,01,01,05,00,METAR ETSH NIL=
ETSH,2012,01,01,05,20,METAR ETSH 010520Z 19003KT 5000 BR SCT015 BKN035 04/04 Q1011 WHT=
ETSH,2012,01,01,06,00,METAR ETSH NIL=
ETSH,2012,01,01,06,20,METAR ETSH 010620Z 21005KT 6000 SCT019 BKN035 05/04 Q1011 WHT=
ETSH,2012,01,01,06,56,SPECI ETSH 010656Z 22007KT 4500 BR SCT007 BKN020 BKN035 06/05 Q1011 GRN=
ETSH,2012,01,01,07,00,METAR ETSH NIL=
ETSH,2012,01,01,07,20,METAR ETSH 010720Z 20006KT 4000 -DZ BR SCT005 BKN009 BKN020 06/05 Q1011 GRN=
ETSH,2012,01,01,07,40,SPECI ETSH 010740Z 20005KT 5000 -DZ BR SCT006 BKN009 BKN020 06/06 Q1011 GRN=
ETSH,2012,01,01,08,00,METAR ETSH NIL=
ETSH,2012,01,01,08,20,METAR ETSH 010820Z 20004KT 6000 SCT009 BKN020 BKN035 07/06 Q1011 WHT=
ETSH,2012,01,01,09,00,METAR ETSH NIL=
ETSH,2012,01,01,09,20,METAR ETSH 010920Z 21006KT 9999 SCT010 BKN027 07/07 Q1011 BLU=
ETSH,2012,01,01,10,00,METAR ETSH NIL=
ETSH,2012,01,01,10,20,METAR ETSH 011020Z 21004KT 9999 SCT033 BKN070 08/07 Q1011 BLU=
ETSH,2012,01,01,11,00,METAR ETSH NIL=
ETSH,2012,01,01,11,20,METAR ETSH 011120Z 22007KT 9000 -RA SCT010 BKN024 09/07 Q1011 WHT=
ETSH,2012,01,01,12,00,METAR ETSH NIL=
ETSH,2012,01,01,12,20,METAR ETSH 011220Z 23008KT 9999 -RA SCT009 BKN026 09/08 Q1010 BLU=
ETSH,2012,01,01,13,00,METAR ETSH NIL=
ETSH,2012,01,01,13,20,METAR ETSH 011320Z 24009KT 9999 FEW009 BKN023 10/08 Q1010 WHT=
ETSH,2012,01,01,14,00,METAR ETSH NIL=
ETSH,2012,01,01,14,20,METAR ETSH 011420Z 22007KT 9999 BKN028 10/09 Q1010 BLU=
ETSH,2012,01,01,15,00,METAR ETSH NIL=
ETSH,2012,01,01,15,20,METAR ETSH 011520Z 21006KT 9999 BKN028 10/09 Q1010 BLU=
ETSH,2012,01,01,16,00,METAR ETSH NIL=
ETSH,2012,01,01,16,20,METAR ETSH 011620Z 22006KT 9999 BKN030 10/09 Q1011 BLU=
ETSH,2012,01,01,17,00,METAR ETSH NIL=
ETSH,2012,01,01,17,20,METAR ETSH 011720Z 21006KT 9999 BKN035 10/09 Q1011 BLU=
ETSH,2012,01,01,18,00,METAR ETSH NIL=
ETSH,2012,01,01,18,20,METAR ETSH 011820Z 20005KT 9999 BKN038 10/09 Q1011 BLU=
ETSH,2012,01,01,19,00,METAR ETSH NIL=
ETSH,2012,01,01,19,20,METAR ETSH 011920Z 20008KT 9999 BKN035 10/09 Q1011 BLU=
ETSH,2012,01,01,20,00,METAR ETSH NIL=
ETSH,2012,01,01,20,20,METAR ETSH 012020Z 19006KT 9999 BKN035 10/08 Q1010 BLU=
ETSH,2012,01,01,21,00,METAR ETSH NIL=
ETSH,2012,01,01,21,20,METAR ETSH 012120Z 19007KT 9999 BKN030 10/09 Q1009 BLU=
ETSH,2012,01,01,22,00,METAR ETSH NIL=
ETSH,2012,01,01,22,20,METAR ETSH 012220Z 18007KT 9999 BKN030 11/08 Q1008 BLU=
ETSH,2012,01,01,23,00,METAR ETSH NIL=
ETSI,2012,01,01,00,00,METAR ETSI NIL=
ETSI,2012,01,01,00,20,METAR ETSI NIL=
ETSI,2012,01,01,01,00,METAR ETSI NIL=
ETSI,2012,01,01,01,20,METAR ETSI NIL=
ETSI,2012,01,01,02,00,METAR ETSI NIL=
ETSI,2012,01,01,02,20,METAR ETSI NIL=
ETSI,2012,01,01,03,00,METAR ETSI NIL=
ETSI,2012,01,01,03,20,METAR ETSI NIL=
ETSI,2012,01,01,04,00,METAR ETSI NIL=
ETSI,2012,01,01,04,20,METAR ETSI NIL=
ETSI,2012,01,01,05,00,METAR ETSI NIL=
ETSI,2012,01,01,05,20,METAR ETSI NIL=
ETSI,2012,01,01,06,00,METAR ETSI NIL=
ETSI,2012,01,01,06,20,METAR ETSI NIL=
ETSI,2012,01,01,07,00,METAR ETSI NIL=
ETSI,2012,01,01,07,20,METAR ETSI NIL=
ETSI,2012,01,01,08,00,METAR ETSI NIL=
ETSI,2012,01,01,08,20,METAR ETSI NIL=
ETSI,2012,01,01,09,00,METAR ETSI NIL=
ETSI,2012,01,01,09,20,METAR ETSI NIL=
ETSI,2012,01,01,10,00,METAR ETSI NIL=
ETSI,2012,01,01,10,20,METAR ETSI NIL=
ETSI,2012,01,01,11,00,METAR ETSI NIL=
ETSI,2012,01,01,11,20,METAR ETSI NIL=
ETSI,2012,01,01,12,00,METAR ETSI NIL=
ETSI,2012,01,01,12,20,METAR ETSI NIL=
ETSI,2012,01,01,13,00,METAR ETSI NIL=
ETSI,2012,01,01,13,20,METAR ETSI NIL=
ETSI,2012,01,01,13,50,SPECI ETSI 011350Z 25007KT 9999 FEW015 BKN032 11/09 Q1017 BLU=
ETSI,2012,01,01,14,00,METAR ETSI NIL=
ETSI,2012,01,01,14,20,METAR ETSI 011420Z 24004KT 9999 FEW015 SCT035 BKN060 11/09 Q1017 BLU=
ETSI,2012,01,01,15,00,METAR ETSI NIL=
ETSI,2012,01,01,15,20,METAR ETSI NIL=
ETSI,2012,01,01,16,00,METAR ETSI NIL=
ETSI,2012,01,01,16,20,METAR ETSI NIL=
ETSI,2012,01,01,17,00,METAR ETSI NIL=
ETSI,2012,01,01,17,20,METAR ETSI NIL=
ETSI,2012,01,01,18,00,METAR ETSI NIL=
ETSI,2012,01,01,18,20,METAR ETSI NIL=
ETSI,2012,01,01,19,00,METAR ETSI NIL=
ETSI,2012,01,01,19,20,METAR ETSI NIL=
ETSI,2012,01,01,20,00,METAR ETSI NIL=
ETSI,2012,01,01,20,20,METAR ETSI NIL=
ETSI,2012,01,01,21,00,METAR ETSI NIL=
ETSI,2012,01,01,21,20,METAR ETSI NIL=
ETSI,2012,01,01,22,00,METAR ETSI NIL=
ETSI,2012,01,01,22,20,METAR ETSI NIL=
ETSI,2012,01,01,23,00,METAR ETSI NIL=
ETSL,2012,01,01,00,00,METAR ETSL NIL=
ETSL,2012,01,01,00,20,METAR ETSL NIL=
ETSL,2012,01,01,01,00,METAR ETSL NIL=
ETSL,2012,01,01,01,20,METAR ETSL NIL=
ETSL,2012,01,01,02,00,METAR ETSL NIL=
ETSL,2012,01,01,02,20,METAR ETSL NIL=
ETSL,2012,01,01,03,00,METAR ETSL NIL=
ETSL,2012,01,01,03,20,METAR ETSL NIL=
ETSL,2012,01,01,04,00,METAR ETSL NIL=
ETSL,2012,01,01,04,20,METAR ETSL NIL=
ETSL,2012,01,01,05,00,METAR ETSL NIL=
ETSL,2012,01,01,05,20,METAR ETSL NIL=
ETSL,2012,01,01,06,00,METAR ETSL NIL=
ETSL,2012,01,01,06,20,METAR ETSL NIL=
ETSL,2012,01,01,07,00,METAR ETSL NIL=
ETSL,2012,01,01,07,20,METAR ETSL NIL=
ETSL,2012,01,01,08,00,METAR ETSL NIL=
ETSL,2012,01,01,08,20,METAR ETSL NIL=
ETSL,2012,01,01,09,00,METAR ETSL NIL=
ETSL,2012,01,01,09,20,METAR ETSL NIL=
ETSL,2012,01,01,10,00,METAR ETSL NIL=
ETSL,2012,01,01,10,20,METAR ETSL NIL=
ETSL,2012,01,01,11,00,METAR ETSL NIL=
ETSL,2012,01,01,11,20,METAR ETSL NIL=
ETSL,2012,01,01,12,00,METAR ETSL NIL=
ETSL,2012,01,01,12,20,METAR ETSL NIL=
ETSL,2012,01,01,13,00,METAR ETSL NIL=
ETSL,2012,01,01,13,20,METAR ETSL NIL=
ETSL,2012,01,01,14,00,METAR ETSL NIL=
ETSL,2012,01,01,14,20,METAR ETSL NIL=
ETSL,2012,01,01,15,00,METAR ETSL NIL=
ETSL,2012,01,01,15,20,METAR ETSL NIL=
ETSL,2012,01,01,16,00,METAR ETSL NIL=
ETSL,2012,01,01,16,20,METAR ETSL NIL=
ETSL,2012,01,01,17,00,METAR ETSL NIL=
ETSL,2012,01,01,17,20,METAR ETSL NIL=
ETSL,2012,01,01,18,00,METAR ETSL NIL=
ETSL,2012,01,01,18,20,METAR ETSL 011820Z 19007KT 9999 SCT300 08/05 Q1017 BLU/=
ETSL,2012,01,01,19,00,METAR ETSL NIL=
ETSL,2012,01,01,19,20,METAR ETSL 011920Z 18008KT 9999 SCT300 08/05 Q1017 BLU/=
ETSL,2012,01,01,20,00,METAR ETSL NIL=
ETSL,2012,01,01,20,20,METAR ETSL 012020Z 19006KT 9999 SCT270 07/05 Q1017 BLU/=
ETSL,2012,01,01,21,00,METAR ETSL NIL=
ETSL,2012,01,01,21,20,METAR ETSL 012120Z 18007KT 9999 BKN260 07/05 Q1016 BLU/=
ETSL,2012,01,01,22,00,METAR ETSL NIL=
ETSL,2012,01,01,22,20,METAR ETSL 012220Z 17008KT 9999 BKN260 06/04 Q1016 BLU/=
ETSL,2012,01,01,23,00,METAR ETSL NIL=
ETSN,2012,01,01,00,00,METAR ETSN NIL=
ETSN,2012,01,01,00,20,METAR ETSN 010020Z 24006KT 6000 RADZ BKN007 OVC020 06/06 Q1015 GRN=
ETSN,2012,01,01,01,00,METAR ETSN NIL=
ETSN,2012,01,01,01,20,METAR ETSN 010120Z 24006KT 5000 RA BR BKN007 OVC020 07/06 Q1015 GRN=
ETSN,2012,01,01,02,00,METAR ETSN NIL=
ETSN,2012,01,01,02,20,METAR ETSN 010220Z 23007KT 3600 DZ BR BKN007 OVC020 07/07 Q1015 YLO=
ETSN,2012,01,01,03,00,METAR ETSN NIL=
ETSN,2012,01,01,03,20,METAR ETSN 010320Z 25008KT 4500 -RADZ BR BKN007 OVC020 07/07 Q1016 REDZ GRN=
ETSN,2012,01,01,04,00,METAR ETSN NIL=
ETSN,2012,01,01,04,20,METAR ETSN 010420Z 23006KT 7000 -DZ BKN008 OVC020 08/07 Q1016 GRN=
ETSN,2012,01,01,05,00,METAR ETSN NIL=
ETSN,2012,01,01,05,20,METAR ETSN 010520Z 23008KT 5000 -DZ BKN008 OVC020 08/07 Q1016 GRN=
ETSN,2012,01,01,06,00,METAR ETSN NIL=
ETSN,2012,01,01,06,20,METAR ETSN 010620Z 23007KT 7000 -DZ BKN009 OVC020 08/07 Q1016 GRN=
ETSN,2012,01,01,07,00,METAR ETSN NIL=
ETSN,2012,01,01,07,20,METAR ETSN 010720Z 24005KT 9999 BKN009 BKN025 08/07 Q1017 GRN=
ETSN,2012,01,01,08,00,METAR ETSN NIL=
ETSN,2012,01,01,08,20,METAR ETSN 010820Z 23006KT 9999 BKN010 BKN025 09/08 Q1017 GRN=
ETSN,2012,01,01,09,00,METAR ETSN NIL=
ETSN,2012,01,01,09,20,METAR ETSN 010920Z 24007KT 9999 BKN010 BKN025 09/08 Q1017 GRN=
ETSN,2012,01,01,10,00,METAR ETSN NIL=
ETSN,2012,01,01,10,20,METAR ETSN 011020Z 23010KT 9999 BKN014 BKN025 10/08 Q1017 GRN=
ETSN,2012,01,01,11,00,METAR ETSN NIL=
ETSN,2012,01,01,11,20,METAR ETSN 011120Z 22008KT 9999 -DZ BKN012 BKN026 10/08 Q1017 GRN=
ETSN,2012,01,01,12,00,METAR ETSN NIL=
ETSN,2012,01,01,12,20,METAR ETSN 011220Z 23010KT 9999 SCT013 BKN025 OVC034 11/08 Q1017 BLU=
ETSN,2012,01,01,13,00,METAR ETSN NIL=
ETSN,2012,01,01,13,20,METAR ETSN 011320Z 24010KT 9999 FEW015 BKN032 11/08 Q1017 BLU=
ETSN,2012,01,01,14,00,METAR ETSN NIL=
ETSN,2012,01,01,14,20,METAR ETSN 011420Z 24007KT 9999 FEW017 BKN034 BKN220 11/08 Q1016 BLU=
ETSN,2012,01,01,15,00,METAR ETSN NIL=
ETSN,2012,01,01,15,20,METAR ETSN 011520Z 22007KT 9999 FEW020 BKN046 BKN230 11/08 Q1017 BLU=
ETSN,2012,01,01,16,00,METAR ETSN NIL=
ETSN,2012,01,01,16,20,METAR ETSN 011620Z 23007KT 9999 FEW020 BKN045 11/08 Q1017 BLU=
ETSN,2012,01,01,17,00,METAR ETSN NIL=
ETSN,2012,01,01,17,20,METAR ETSN 011720Z 16004KT 9999 SCT050 SCT220 07/06 Q1017 BLU/=
ETSN,2012,01,01,18,00,METAR ETSN NIL=
ETSN,2012,01,01,18,20,METAR ETSN 011820Z 14004KT 9999 FEW050 SCT150 08/07 Q1016 BLU/=
ETSN,2012,01,01,19,00,METAR ETSN NIL=
ETSN,2012,01,01,19,20,METAR ETSN 011920Z 18005KT 9999 SCT070 08/06 Q1017 BLU/=
ETSN,2012,01,01,20,00,METAR ETSN NIL=
ETSN,2012,01,01,20,20,METAR ETSN 012020Z 17005KT 9999 FEW070 SCT250 07/05 Q1016 BLU/=
ETSN,2012,01,01,21,00,METAR ETSN NIL=
ETSN,2012,01,01,21,20,METAR ETSN 012120Z 20003KT 9999 BKN240 05/05 Q1016 BLU/=
ETSN,2012,01,01,22,00,METAR ETSN NIL=
ETSN,2012,01,01,22,20,METAR ETSN 012220Z 22003KT 9999 BKN240 06/06 Q1015 BLU/=
ETSN,2012,01,01,23,00,METAR ETSN NIL=
ETUO,2012,01,01,00,50,METAR ETUO 010050Z AUTO 21006KT 1800 // OVC003/// 10/10 Q1010=
ETUO,2012,01,01,01,50,METAR ETUO 010150Z AUTO 20006KT 1400 // BKN004/// SCT011/// 10/10 Q1010=
ETUO,2012,01,01,02,50,METAR ETUO 010250Z AUTO 20006KT 1600 // BKN007/// 10/10 Q1010=
ETUO,2012,01,01,03,50,METAR ETUO 010350Z AUTO 20007KT 3800 // BKN009/// 10/09 Q1009=
ETUO,2012,01,01,04,50,METAR ETUO 010450Z AUTO 21008KT 3700 // BKN003/// 10/10 Q1009=
ETUO,2012,01,01,05,50,METAR ETUO 010550Z AUTO 21009KT 4600 // BKN005/// BKN012/// 11/10 Q1009=
ETUO,2012,01,01,06,50,METAR ETUO 010650Z AUTO 21010KT 3800 // OVC006/// 11/10 Q1009=
ETUO,2012,01,01,07,50,METAR ETUO 010750Z AUTO 21009KT 9999 // OVC007/// 11/10 Q1009=
ETUO,2012,01,01,08,50,METAR ETUO 010850Z AUTO 22010KT 9999 // OVC007/// 11/10 Q1009=
ETUO,2012,01,01,09,50,METAR ETUO 010950Z AUTO 22011KT 5000 // OVC005/// 12/11 Q1010=
ETUO,2012,01,01,10,50,METAR ETUO 011050Z AUTO 23008KT 7000 // BKN006/// BKN013/// 12/11 Q1010=
ETUO,2012,01,01,11,50,METAR ETUO 011150Z AUTO 22011KT 9999 // BKN008/// BKN016/// 12/11 Q1009=
ETUO,2012,01,01,12,50,METAR ETUO 011250Z AUTO 23007KT 9999 // BKN007/// BKN015/// 12/11 Q1009=
ETUO,2012,01,01,13,50,METAR ETUO 011350Z AUTO 21007KT 8000 // BKN007/// SCT015/// 12/11 Q1009=
ETUO,2012,01,01,14,50,METAR ETUO 011450Z AUTO 20006KT 5000 // BKN005/// BKN015/// 12/11 Q1009=
ETUO,2012,01,01,15,50,METAR ETUO 011550Z AUTO 19007KT 4300 // SCT004/// BKN015/// 12/11 Q1008=
ETUO,2012,01,01,16,50,METAR ETUO 011650Z AUTO 19009KT 9999 // FEW006/// BKN010/// BKN020/// 12/11 Q1008=
ETUO,2012,01,01,17,50,METAR ETUO 011750Z AUTO 17005KT 9999 // FEW012/// BKN022/// 12/11 Q1007=
ETUO,2012,01,01,18,50,METAR ETUO 011850Z AUTO 17008KT 9999 // FEW026/// BKN031/// 12/11 Q1006=
ETUO,2012,01,01,19,50,METAR ETUO 011950Z AUTO 18009KT 9999 // OVC021/// 12/11 Q1005=
ETUO,2012,01,01,20,50,METAR ETUO 012050Z AUTO 18010KT 9999 // FEW024/// BKN029/// 13/10 Q1004=
ETUO,2012,01,01,21,50,METAR ETUO 012150Z AUTO 19012KT 9999 // BKN030/// SCT120/// 14/10 Q1003=
ETUO,2012,01,01,22,50,METAR ETUO 012250Z AUTO 19014KT 9999 // BKN033/// BKN044/// 14/10 Q1002=
ETWM,2012,01,01,00,00,METAR ETWM NIL=
ETWM,2012,01,01,01,00,METAR ETWM NIL=
ETWM,2012,01,01,02,00,METAR ETWM NIL=
ETWM,2012,01,01,03,00,METAR ETWM NIL=
ETWM,2012,01,01,04,00,METAR ETWM NIL=
ETWM,2012,01,01,05,00,METAR ETWM NIL=
ETWM,2012,01,01,06,00,METAR ETWM NIL=
ETWM,2012,01,01,07,00,METAR ETWM NIL=
ETWM,2012,01,01,08,00,METAR ETWM NIL=
ETWM,2012,01,01,09,00,METAR ETWM NIL=
ETWM,2012,01,01,10,00,METAR ETWM NIL=
ETWM,2012,01,01,11,00,METAR ETWM NIL=
ETWM,2012,01,01,12,00,METAR ETWM NIL=
ETWM,2012,01,01,13,00,METAR ETWM NIL=
ETWM,2012,01,01,14,00,METAR ETWM NIL=
ETWM,2012,01,01,15,00,METAR ETWM NIL=
ETWM,2012,01,01,16,00,METAR ETWM NIL=
ETWM,2012,01,01,17,00,METAR ETWM NIL=
ETWM,2012,01,01,18,00,METAR ETWM NIL=
ETWM,2012,01,01,19,00,METAR ETWM NIL=
ETWM,2012,01,01,20,00,METAR ETWM NIL=
ETWM,2012,01,01,21,00,METAR ETWM NIL=
ETWM,2012,01,01,22,00,METAR ETWM NIL=
ETWM,2012,01,01,23,00,METAR ETWM NIL=
