10004,2012,01,01,00,00,AAXX 01001 10004 46/60 /2110 10088 20086 30043 40043 56015 222// 00073 333 55300=
10004,2012,01,01,01,00,AAXX 01011 10004 46/60 /2110 10090 20086 30039 40039 56013 222// 00074 333 55300 91113 91211=
10004,2012,01,01,02,00,AAXX 01021 10004 46/60 /2110 10089 20084 30034 40034 58012 222// 00073 333 55300=
10004,2012,01,01,03,00,AAXX 01031 10004 46/59 /2210 10090 20087 30030 40030 58013 222// 00074 333 55300 91113 91211=
10004,2012,01,01,04,00,AAXX 01041 10004 46/59 /2311 10094 20091 30025 40025 56014 222// 00073 333 55300 91113 91211=
10004,2012,01,01,05,00,AAXX 01051 10004 46/59 /2211 10093 20090 30027 40027 55008 222// 00073 333 55300 91114 91211=
10004,2012,01,01,06,00,AAXX 01061 10004 46/58 /2210 10093 20090 30026 40026 56004 222// 00074 333 10096 20082 55000 55300 91114 91211=
10004,2012,01,01,07,00,AAXX 01071 10004 46/59 /2311 10096 20094 30029 40029 53004 222// 00074 333 55300 91113 91211=
10004,2012,01,01,08,00,AAXX 01081 10004 46/60 /2311 10096 20091 30032 40032 53005 222// 00076 333 55300 91114 91212=
10004,2012,01,01,09,00,AAXX 01091 10004 NIL=
10004,2012,01,01,10,00,AAXX 01101 10004 46/60 /2310 10095 20088 30044 40044 53014 222// 00075 333 55301 91113 91211=
10004,2012,01,01,11,00,AAXX 01111 10004 46/60 /2310 10094 20087 30041 40041 50010 222// 00076 333 55300 91113 91211=
10004,2012,01,01,12,00,AAXX 01121 10004 46/60 /2210 10094 20086 30039 40039 58001 222// 00075 333 55304 91115 91212=
10004,2012,01,01,13,00,AAXX 01131 10004 46/60 /2210 10092 20085 30036 40036 58007 222// 00074 333 55300 91113 91211=
10004,2012,01,01,14,00,AAXX 01141 10004 46/60 /2109 10091 20085 30034 40034 58008 222// 00076 333 55300=
10004,2012,01,01,15,00,AAXX 01151 10004 46/60 /2110 10088 20086 30030 40030 58009 222// 00075 333 55300 91114 91211=
10004,2012,01,01,16,00,AAXX 01161 10004 46/60 /2110 10092 20088 30023 40023 58013 222// 00075 333 55300 91113 91211=
10004,2012,01,01,17,00,AAXX 01171 10004 46/60 /2/10 10090 20087 30015 40015 58019 222// 00075 333 55300 91113=
10004,2012,01,01,18,00,AAXX 01181 10004 46/59 /2010 10090 20086 30006 40006 58024 222// 00074 333 10099 20088 55300 91114 91211=
10004,2012,01,01,19,00,AAXX 01191 10004 NIL=
10004,2012,01,01,20,00,AAXX 01201 10004 46/58 /2008 10091 20087 39990 49990 57025 222// 00075 333 55300=
10004,2012,01,01,21,00,AAXX 01211 10004 46/60 /2108 10088 20082 39981 49981 58025 222// 00073 333 55300 91113 91211=
10004,2012,01,01,22,00,AAXX 01221 10004 46/60 /2207 10086 20080 39976 49976 56024 222// 00075 333 55300=
10004,2012,01,01,23,00,AAXX 01231 10004 46/60 /2308 10088 20083 39973 49973 56017 222// 00075 333 55300=
10007,2012,01,01,00,00,AAXX 01001 10007 NIL=
10007,2012,01,01,01,00,AAXX 01011 10007 NIL=
10007,2012,01,01,02,00,AAXX 01021 10007 NIL=
10007,2012,01,01,03,00,AAXX 01031 10007 NIL=
10007,2012,01,01,04,00,AAXX 01041 10007 NIL=
10007,2012,01,01,05,00,AAXX 01051 10007 NIL=
10007,2012,01,01,06,00,AAXX 01061 10007 NIL=
10007,2012,01,01,07,00,AAXX 01071 10007 NIL=
10007,2012,01,01,08,00,AAXX 01081 10007 NIL=
10007,2012,01,01,09,00,AAXX 01091 10007 NIL=
10007,2012,01,01,10,00,AAXX 01101 10007 NIL=
10007,2012,01,01,11,00,AAXX 01111 10007 NIL=
10007,2012,01,01,12,00,AAXX 01121 10007 NIL=
10007,2012,01,01,13,00,AAXX 01131 10007 NIL=
10007,2012,01,01,14,00,AAXX 01141 10007 NIL=
10007,2012,01,01,15,00,AAXX 01151 10007 NIL=
10007,2012,01,01,16,00,AAXX 01161 10007 NIL=
10007,2012,01,01,17,00,AAXX 01171 10007 NIL=
10007,2012,01,01,18,00,AAXX 01181 10007 NIL=
10007,2012,01,01,19,00,AAXX 01191 10007 NIL=
10007,2012,01,01,20,00,AAXX 01201 10007 NIL=
10007,2012,01,01,21,00,AAXX 01211 10007 NIL=
10007,2012,01,01,22,00,AAXX 01221 10007 NIL=
10007,2012,01,01,23,00,AAXX 01231 10007 NIL=
10015,2012,01,01,00,00,AAXX 01001 10015 01/06 91907 10070 20066 30046 40056 58011 69911 75154 333 31/// 55/// 20101 30100 55300 20000 30000 69907 96043=
10015,2012,01,01,01,00,AAXX 01011 10015 41/07 91908 10073 20069 30039 40049 58014 76365 333 55300 20000 30000 96043=
10015,2012,01,01,02,00,AAXX 01021 10015 41/08 92009 10076 20076 30036 40046 56016 76164 333 55300 20000 30000 96043=
10015,2012,01,01,03,00,AAXX 01031 10015 21213 82110 10081 20077 30031 40041 56015 76164 877// 333 55300 20000 30000 60017 87704 96028=
10015,2012,01,01,04,00,AAXX 01041 10015 41110 82110 10080 20075 30028 40038 57011 75866 887// 333 55300 20000 30000 88702 91113 91211 96010=
10015,2012,01,01,05,00,AAXX 01051 10015 41117 82111 10082 20078 30024 40034 56012 75166 887// 333 55300 20000 30000 88702 91113 91211 96010=
10015,2012,01,01,06,00,AAXX 01061 10015 01118 82210 10082 20077 30024 40034 56007 60022 75165 887// 222// 02062 333 10084 20049 31005 55000 55300 20000 30000 69947 70020 88703 91114 91212 96010 96463 96447=
10015,2012,01,01,07,00,AAXX 01071 10015 41118 82210 10081 20076 30024 40034 56004 75155 887// 333 55300 20000 30000 88702 91114 91211 96010=
10015,2012,01,01,08,00,AAXX 01081 10015 41116 82309 10082 20077 30028 40038 53004 75155 887// 333 55300 20000 30000 88702 96010=
10015,2012,01,01,09,00,AAXX 01091 10015 21/08 92411 10081 20076 30033 40043 53009 75155 333 20049 3/005 55300 20009 30009 69957 91114 91211 96047 96253=
10015,2012,01,01,10,00,AAXX 01101 10015 41011 82411 10080 20076 30039 40049 53015 75055 887// 333 55300 20079 30078 88701 91113 91211 96010=
10015,2012,01,01,11,00,AAXX 01111 10015 41142 82411 10082 20078 30039 40049 51011 72022 886// 333 55300 20179 30178 88702 91115 91212 96010=
10015,2012,01,01,12,00,AAXX 01121 10015 01145 72307 10080 20075 30036 40046 50003 69951 71054 82612 333 31/// 55300 20335 30334 69907 82702 86462 87075 91115 91212 96453=
10015,2012,01,01,13,00,AAXX 01131 10015 42359 72208 10084 20078 30039 40049 55000 82632 333 55304 20497 30414 82709 83365 87075=
10015,2012,01,01,14,00,AAXX 01141 10015 41257 72209 10081 20074 30035 40045 58004 71022 876// 333 55301 20330 30305 87706=
10015,2012,01,01,15,00,AAXX 01151 10015 32359 82109 10082 20075 30032 40042 58004 85532 333 55300 20107 30107 82708 83620 87075=
10015,2012,01,01,16,00,AAXX 01161 10015 42460 82109 10084 20075 30028 40038 57011 878// 333 55300 20006 30006 83816 87647=
10015,2012,01,01,17,00,AAXX 01171 10015 41456 81908 10082 20074 30022 40032 58013 76022 877// 333 55300 20000 30000 87710 96010=
10015,2012,01,01,18,00,AAXX 01181 10015 01350 81908 10084 20076 30015 40025 58017 69952 72162 876// 222// 02063 333 10088 20078 31008 55300 20000 30000 69907 87707 96010=
10015,2012,01,01,19,00,AAXX 01191 10015 41345 81807 10082 20075 30003 40013 58025 71022 886// 333 55300 20000 30000 83709 87713=
10015,2012,01,01,20,00,AAXX 01201 10015 41627 81808 10084 20078 39994 40004 58028 76362 8252/ 333 55300 20000 30000 82635 88556 96010=
10015,2012,01,01,21,00,AAXX 01211 10015 21635 82106 10082 20076 39979 49989 58036 76362 8252/ 333 55300 20000 30000 60037 82638 88546 96010=
10015,2012,01,01,22,00,AAXX 01221 10015 41456 82103 10079 20073 39969 49979 58034 76166 8452/ 333 55300 20000 30000 82712 83638 88550 96010=
10015,2012,01,01,23,00,AAXX 01231 10015 41145 82504 10078 20072 39965 49975 56029 76366 8272/ 333 55300 20000 30000 82703 88550 96010=
10020,2012,01,01,00,00,AAXX 01001 10020 17001 81806 10053 20053 30016 40048 56012 69911 73065 333 55/// 20157 30137 55300 20000 30000 88/00 91113=
10020,2012,01,01,01,00,AAXX 01011 10020 47001 81807 10053 20053 30005 40037 58016 73033 333 55300 20000 30000 88/00=
10020,2012,01,01,02,00,AAXX 01021 10020 47003 81909 10060 20060 30000 40032 58020 76265 333 55300 20000 30000 88/00=
10020,2012,01,01,03,00,AAXX 01031 10020 27108 72009 10066 20066 39992 40024 56024 74265 333 55300 20000 30000 60027 87/02=
10020,2012,01,01,04,00,AAXX 01041 10020 47114 72110 10073 20073 39984 40016 58021 72365 333 55300 20000 30000 87/01 91114=
10020,2012,01,01,05,00,AAXX 01051 10020 47108 72211 10076 20076 39978 40010 56022 76165 333 55300 20000 30000 87/01 91116 91212=
10020,2012,01,01,06,00,AAXX 01061 10020 07008 72310 10075 20075 39978 40010 56014 60032 75765 333 10076 20035 3/003 55011 55300 20000 30000 69967 70029 87/01 91116 91212=
10020,2012,01,01,07,00,AAXX 01071 10020 47003 82310 10077 20077 39981 40013 55003 75165 333 55300 20000 30000 88/00 91114 91211=
10020,2012,01,01,08,00,AAXX 01081 10020 47009 72308 10078 20078 39985 40017 53007 75165 333 55300 20000 30000 87/00=
10020,2012,01,01,09,00,AAXX 01091 10020 27011 82408 10079 20079 39991 40023 53013 75865 333 20035 3/003 55300 20000 30000 69917 87/00 88/07 91114 91211=
10020,2012,01,01,10,00,AAXX 01101 10020 47007 72309 10078 20078 39994 40026 51013 73065 333 55300 20065 30065 87/00 87/07 91113=
10020,2012,01,01,11,00,AAXX 01111 10020 47356 82309 10080 20080 39995 40027 51010 72030 333 55300 20096 30096 88/06 91113=
10020,2012,01,01,12,00,AAXX 01121 10020 07258 72308 10077 20077 39994 40026 50003 69921 70065 333 55300 20310 30309 69917 81/05 84/11 87/35 91114 91211=
10020,2012,01,01,13,00,AAXX 01131 10020 47/57 /2308 10076 20076 39992 40024 58002 71000 333 55304 20432 30346=
10020,2012,01,01,14,00,AAXX 01141 10020 47103 72310 10076 20076 39996 40028 53001 73030 333 55300 20171 30170 87/01 91113=
10020,2012,01,01,15,00,AAXX 01151 10020 37459 52209 10077 20077 39992 40024 58002 72030 333 55300 20055 30055 81/13 85/65 85/68 91113=
10020,2012,01,01,16,00,AAXX 01161 10020 47250 72209 10074 20074 39993 40025 51001 71000 333 55300 20001 30001 84/03 85/65 87/67 91113=
10020,2012,01,01,17,00,AAXX 01171 10020 47001 82211 10075 20075 39986 40018 58010 73030 333 55300 20000 30000 88/00 91116 91212=
10020,2012,01,01,18,00,AAXX 01181 10020 17146 72210 10080 20080 39982 40014 58010 69922 72030 333 10081 20070 3/007 55300 20000 30000 87/02 91116 91212=
10020,2012,01,01,19,00,AAXX 01191 10020 47001 81907 10071 20071 39973 40005 58020 73030 333 55300 20000 30000 87/01 88/04 91113=
10020,2012,01,01,20,00,AAXX 01201 10020 47218 81908 10073 20073 39968 40000 58018 72030 333 55300 20000 30000 88/04=
10020,2012,01,01,22,00,AAXX 01221 10020 47207 72007 10074 20074 39943 49975 58030 76266 333 55300 20000 30000 87/06 87/31 87/43=
10020,2012,01,01,23,00,AAXX 01231 10020 47257 82208 10082 20082 39934 49966 56034 76266 333 55300 20000 30000 81/06 87/46 88/50=
10022,2012,01,01,00,00,AAXX 01001 10022 17003 81705 10046 20046 30046 40056 58013 69941 73065 333 55/// 20099 30098 55300 20000 30000 88/00=
10022,2012,01,01,01,00,AAXX 01011 10022 47002 81504 10054 20054 30036 40046 58018 73033 333 55300 20000 30000 88/00=
10022,2012,01,01,02,00,AAXX 01021 10022 47005 81605 10058 20058 30031 40041 56022 75865 333 55300 20000 30000 88/00=
10022,2012,01,01,03,00,AAXX 01031 10022 27228 81806 10064 20064 30026 40036 56020 76265 333 55300 20000 30000 60017 88/03=
10022,2012,01,01,04,00,AAXX 01041 10022 47109 82008 10074 20074 30018 40027 58018 73065 333 55300 20000 30000 88/02=
10022,2012,01,01,05,00,AAXX 01051 10022 47004 82107 10074 20074 30013 40022 57018 75265 333 55300 20000 30000 88/00=
10022,2012,01,01,06,00,AAXX 01061 10022 07110 72109 10077 20077 30010 40019 56016 60032 72365 333 10077 20028 3/003 55000 55300 20000 30000 60027 70037 87/02=
10022,2012,01,01,07,00,AAXX 01071 10022 47122 82209 10080 20080 30010 40019 56008 72365 333 55300 20000 30000 88/03 91113=
10022,2012,01,01,08,00,AAXX 01081 10022 47117 82309 10081 20081 30013 40022 55000 75150 333 55300 20000 30000 88/02=
10022,2012,01,01,09,00,AAXX 01091 10022 27150 82408 10080 20080 30018 40027 53008 72365 333 20028 3/003 55300 20002 30002 69957 88/02 91113=
10022,2012,01,01,10,00,AAXX 01101 10022 47129 82308 10079 20079 30021 40030 52011 75165 333 55300 20018 30018 88/02=
10022,2012,01,01,11,00,AAXX 01111 10022 47144 82408 10081 20080 30024 40033 51011 72250 333 55300 20075 30075 88/03 91113=
10022,2012,01,01,12,00,AAXX 01121 10022 07250 82307 10083 20082 30023 40032 50005 69951 71065 333 55300 20099 30099 69907 88/03 91113=
10022,2012,01,01,13,00,AAXX 01131 10022 47238 82308 10081 20079 30023 40032 51002 71000 333 55300 20180 30180 88/03=
10022,2012,01,01,14,00,AAXX 01141 10022 47257 82408 10082 20080 30025 40034 53001 71000 333 55300 20112 30112 88/04=
10022,2012,01,01,15,00,AAXX 01151 10022 37124 82307 10078 20076 30026 40035 53003 71000 333 55300 20035 30035 88/03=
10022,2012,01,01,16,00,AAXX 01161 10022 47016 82207 10080 20080 30025 40034 50002 72030 333 55300 20000 30000 88/01=
10022,2012,01,01,17,00,AAXX 01171 10022 45363 82206 10086 20086 30018 40027 58007 333 55300 20000 30000 87/08 87/18 88/32=
10022,2012,01,01,18,00,AAXX 01181 10022 17358 82106 10084 20080 30013 40022 58013 69952 70030 333 10086 20075 3/008 55300 20000 30000 86/09 87/14 88/62=
10022,2012,01,01,19,00,AAXX 01191 10022 47356 81906 10093 20089 30001 40010 58024 75165 333 55300 20000 30000 85/06 87/11 88/20=
10022,2012,01,01,20,00,AAXX 01201 10022 47250 82007 10095 20095 39995 40004 58023 72365 333 55300 20000 30000 84/06 88/16 88/28=
10022,2012,01,01,21,00,AAXX 01211 10022 27233 82005 10095 20095 39980 49989 58033 76265 333 55300 20000 30000 69957 87/05 87/18 88/32=
10022,2012,01,01,22,00,AAXX 01221 10022 47228 82005 10095 20095 39969 49978 58032 76266 333 55300 20000 30000 84/04 87/31 88/44=
10022,2012,01,01,23,00,AAXX 01231 10022 47235 82104 10088 20086 39957 49966 56038 76266 333 55300 20000 30000 84/04 87/48 88/50=
10028,2012,01,01,00,00,AAXX 01001 10028 01/02 92005 10060 20060 30047 40060 58010 69911 74754 333 31/// 55/// 20144 30127 55300 20000 30000 69907 98002=
10028,2012,01,01,01,00,AAXX 01011 10028 41/05 91805 10060 20060 30039 40052 58015 75054 333 55300 20000 30000 96043 98005=
10028,2012,01,01,02,00,AAXX 01021 10028 41/05 91907 10064 20064 30037 40050 56016 75854 333 55300 20000 30000 96045 98005=
10028,2012,01,01,03,00,AAXX 01031 10028 21/04 92008 10070 20070 30030 40043 56017 75065 333 55300 20000 30000 60017 96047 98004=
10028,2012,01,01,04,00,AAXX 01041 10028 41/02 92007 10068 20068 30024 40037 58015 75054 333 55300 20000 30000 96047 98002=
10028,2012,01,01,05,00,AAXX 01051 10028 41/05 92108 10072 20072 30019 40032 56018 75865 333 55300 20000 30000 96043 98005=
10028,2012,01,01,06,00,AAXX 01061 10028 01010 82209 10077 20077 30021 40034 55009 60022 75065 887// 333 10077 20037 31004 55006 55300 20000 30000 69987 70029 88701 96228 96447 98010=
10028,2012,01,01,07,00,AAXX 01071 10028 41010 82209 10076 20076 30019 40032 56005 75055 887// 333 55300 20000 30000 88701 98010=
10028,2012,01,01,08,00,AAXX 01081 10028 41011 82309 10075 20075 30023 40036 53004 75022 887// 333 55300 20000 30000 88701 98011=
10028,2012,01,01,09,00,AAXX 01091 10028 21011 82309 10077 20077 30028 40041 53007 75352 887// 333 20037 3/004 55300 20015 30015 69967 88701 98011=
10028,2012,01,01,10,00,AAXX 01101 10028 41/04 92410 10073 20073 30034 40047 53015 74754 333 55300 20065 30064 89/00 91113 96253 98004=
10028,2012,01,01,11,00,AAXX 01111 10028 41/03 92410 10072 20072 30035 40048 51012 74744 333 55300 20108 30106 89/00 98003=
10028,2012,01,01,12,00,AAXX 01121 10028 01/04 92410 10075 20075 30032 40045 50004 69971 74354 333 32/// 55300 20201 30197 69917 89/00 91113 96245 96453 96447 98004=
10028,2012,01,01,13,00,AAXX 01131 10028 41327 72308 10072 20072 30034 40047 55000 72822 83632 333 55300 20322 30302 83708 84367 86072 96243 98027=
10028,2012,01,01,14,00,AAXX 01141 10028 41550 72308 10074 20074 30034 40047 56001 71022 82532 333 55302 20325 30286 82625 84368 86078 98050=
10028,2012,01,01,15,00,AAXX 01151 10028 31458 82208 10076 20076 30034 40047 51002 70242 875// 333 55300 20091 30087 86710 87615 96443=
10028,2012,01,01,16,00,AAXX 01161 10028 42460 82107 10078 20077 30029 40042 58005 875// 333 55300 20006 30005 84612 87619=
10028,2012,01,01,17,00,AAXX 01171 10028 42460 82006 10078 20078 30023 40036 58011 878// 333 55300 20000 30000 85812 87617=
10028,2012,01,01,18,00,AAXX 01181 10028 01458 81906 10081 20081 30016 40029 58018 69972 72142 875// 333 10082 20070 31007 55300 20000 30000 69907 85611 87629 96443=
10028,2012,01,01,19,00,AAXX 01191 10028 41350 81907 10082 20082 30006 40019 58023 72022 885// 333 55300 20000 30000 82708 85615 88629 98050=
10028,2012,01,01,20,00,AAXX 01201 10028 41440 81907 10083 20083 39997 40010 58026 76122 875// 333 55300 20000 30000 87618 98040=
10028,2012,01,01,21,00,AAXX 01211 10028 21316 81806 10085 20085 39982 49995 58034 76565 8572/ 333 55300 20000 30000 60027 85708 88533 98016=
10028,2012,01,01,22,00,AAXX 01221 10028 41540 82104 10083 20083 39967 49980 58039 76366 8552/ 333 55300 20000 30000 85629 88536 96265 98040=
10028,2012,01,01,23,00,AAXX 01231 10028 41435 82605 10071 20071 39961 49974 56036 76366 8552/ 333 55300 20000 30000 85619 88535 98035=
10033,2012,01,01,00,00,AAXX 01001 10033 41/04 91804 10038 20036 30020 40061 57015 74754 333 89/01=
10033,2012,01,01,01,00,AAXX 01011 10033 41/04 91706 10042 20041 30014 40055 57014 74544 333 89/01=
10033,2012,01,01,02,00,AAXX 01021 10033 41/04 91705 10048 20047 30008 40049 57020 74544 333 89/01=
10033,2012,01,01,03,00,AAXX 01031 10033 41220 81707 10054 20053 30002 40043 57018 75864 885// 333 85704 87615=
10033,2012,01,01,04,00,AAXX 01041 10033 41220 81807 10064 20062 39992 40033 57022 75866 885// 333 84705 87612=
10033,2012,01,01,05,00,AAXX 01051 10033 41112 81906 10070 20069 39987 40028 57021 75165 886// 333 88703=
10033,2012,01,01,06,00,AAXX 01061 10033 11235 82106 10083 20081 39982 40022 57020 60032 76365 877// 333 10084 20029 32002 70025 87705 91011=
10033,2012,01,01,07,00,AAXX 01071 10033 41220 82408 10090 20087 39984 40024 55008 75965 877// 333 87705=
10033,2012,01,01,08,00,AAXX 01081 10033 41118 82408 10088 20088 39985 40025 55002 75866 877// 333 87703 91114=
10033,2012,01,01,09,00,AAXX 01091 10033 41223 82407 10088 20088 39988 40028 53006 75865 877// 333 87704 91114=
10033,2012,01,01,10,00,AAXX 01101 10033 41228 82408 10089 20085 39993 40033 53009 75165 877// 333 87704=
10033,2012,01,01,11,00,AAXX 01111 10033 41235 82409 10089 20086 39993 40033 51008 72052 877// 333 87704=
10033,2012,01,01,12,00,AAXX 01121 10033 41235 82409 10090 20085 39993 40033 51005 71065 877// 333 87705 91114=
10033,2012,01,01,13,00,AAXX 01131 10033 41248 82509 10089 20081 39994 40034 53001 71022 877// 333 87706 91113=
10033,2012,01,01,14,00,AAXX 01141 10033 41257 82409 10088 20081 39995 40035 53002 71022 877// 333 87706 91114=
10033,2012,01,01,15,00,AAXX 01151 10033 42359 82406 10092 20082 39999 40039 52006 876// 333 87707 91114=
10033,2012,01,01,16,00,AAXX 01161 10033 42259 82306 10086 20078 39998 40038 50004 876// 333 87704=
10033,2012,01,01,17,00,AAXX 01171 10033 42360 82306 10093 20086 39994 40034 58001 875// 333 85707 87620=
10033,2012,01,01,18,00,AAXX 01181 10033 12360 72205 10094 20084 39989 40029 57010 60032 875// 333 10095 20085 31007 83709 87649 91114=
10033,2012,01,01,19,00,AAXX 01191 10033 42360 81806 10094 20085 39978 40018 58020 876// 333 87708=
10033,2012,01,01,20,00,AAXX 01201 10033 41360 81806 10098 20090 39969 40009 58025 76022 876// 333 87707=
10033,2012,01,01,21,00,AAXX 01211 10033 41257 81904 10100 20091 39957 49997 58032 76162 876// 333 87706=
10033,2012,01,01,22,00,AAXX 01221 10033 41235 81705 10098 20092 39943 49983 57035 76366 875// 333 83705 87612=
10033,2012,01,01,23,00,AAXX 01231 10033 41245 82403 10095 20095 39932 49972 57037 76166 875// 333 83705 87630=
10035,2012,01,01,00,00,AAXX 01001 10035 01/01 91803 10037 20036 30010 40069 56009 69951 75054 333 32/// 55/// 20074 30071 42666 55300 20000 30000 41193 69917 89/00 96045=
10035,2012,01,01,01,00,AAXX 01011 10035 41/01 91804 10042 20042 30002 40061 58012 75054 333 55300 20000 30000 41202 89/00 96045=
10035,2012,01,01,02,00,AAXX 01021 10035 41/01 91704 10045 20045 39997 40056 58017 75054 333 55300 20000 30000 41209 89/01 96045=
10035,2012,01,01,03,00,AAXX 01031 10035 21/04 91803 10052 20052 39992 40051 56018 75354 333 55300 20000 30000 41215 69937 89/00 96045=
10035,2012,01,01,04,00,AAXX 01041 10035 41/08 91904 10062 20062 39985 40044 58017 75154 333 55300 20000 30000 41238 89/02 96045=
10035,2012,01,01,05,00,AAXX 01051 10035 41/06 92005 10070 20070 39979 40037 58018 75154 333 55300 20000 30000 41250 89/01 96047=
10035,2012,01,01,06,00,AAXX 01061 10035 01/08 92105 10079 20079 39974 40032 56018 60032 76354 333 10079 20027 32003 55000 55300 20000 30000 41263 60027 70034 89/01 96043 9644/=
10035,2012,01,01,07,00,AAXX 01071 10035 41112 82306 10089 20089 39974 40032 56011 75966 887// 333 55300 20000 30000 41283 88703 96010=
10035,2012,01,01,08,00,AAXX 01081 10035 41115 82407 10090 20090 39975 40033 55004 75866 887// 333 55300 20000 30000 41289 88703 91113 96010=
10035,2012,01,01,09,00,AAXX 01091 10035 21115 82408 10089 20089 39978 40036 53004 75866 887// 333 20027 3/003 55300 20014 30013 41288 60027 88703 91114 96010=
10035,2012,01,01,10,00,AAXX 01101 10035 41225 82408 10089 20088 39982 40040 53008 75866 887// 333 55300 20047 30046 41287 88704 91113 96010=
10035,2012,01,01,11,00,AAXX 01111 10035 41140 82407 10088 20087 39982 40040 51007 75866 887// 333 55300 20073 30072 41285 88703 91114=
10035,2012,01,01,12,00,AAXX 01121 10035 01156 82508 10086 20085 39985 40043 51007 60021 72162 886// 333 32/// 55300 20109 30107 41281 69967 88703 91114 96010=
10035,2012,01,01,13,00,AAXX 01131 10035 42258 82507 10085 20085 39985 40043 52003 886// 333 55300 20130 30128 41272 88704=
10035,2012,01,01,14,00,AAXX 01141 10035 42264 82406 10088 20085 39984 40042 50002 886// 333 55300 20102 30101 41270 88706=
10035,2012,01,01,15,00,AAXX 01151 10035 32268 82406 10089 20085 39987 40045 53002 876// 333 55300 20047 30047 41262 87706=
10035,2012,01,01,16,00,AAXX 01161 10035 42370 72305 10092 20087 39986 40044 52001 875// 333 55300 20003 30003 41258 86708 86612=
10035,2012,01,01,17,00,AAXX 01171 10035 42470 72204 10092 20085 39983 40041 58001 875// 333 55300 20000 30000 41230 86610 87633=
10035,2012,01,01,18,00,AAXX 01181 10035 01459 82004 10091 20085 39977 40035 58010 60022 75122 875// 333 10093 20079 31008 55300 20000 30000 41248 69907 86710 87624=
10035,2012,01,01,19,00,AAXX 01191 10035 41250 81904 10093 20090 39968 40026 58018 75152 877// 333 55300 20000 30000 41281 87704=
10035,2012,01,01,20,00,AAXX 01201 10035 41357 81904 10097 20097 39958 40016 58025 72052 877// 333 55300 20000 30000 41287 87707=
10035,2012,01,01,21,00,AAXX 01211 10035 21225 81904 10097 20097 39944 40001 58033 76152 877// 333 55300 20000 30000 41295 60017 87704=
10035,2012,01,01,22,00,AAXX 01221 10035 41125 81902 10096 20096 39926 49983 58042 76166 877// 333 55300 20000 30000 41298 87702=
10035,2012,01,01,23,00,AAXX 01231 10035 41220 82802 10094 20093 39914 49971 56044 76166 877// 333 55300 20000 30000 41289 87706=
10037,2012,01,01,00,00,AAXX 01001 10037 41001 81604 10039 20036 30039 40070 57009 74664 886// 333 88701=
10037,2012,01,01,01,00,AAXX 01011 10037 41001 81504 10044 20041 30031 40062 57013 74444 886// 333 88701=
10037,2012,01,01,02,00,AAXX 01021 10037 41001 81504 10048 20045 30026 40057 57017 74444 886// 333 88701=
10037,2012,01,01,03,00,AAXX 01031 10037 41020 81605 10060 20057 30020 40051 57019 76154 886// 333 88701=
10037,2012,01,01,04,00,AAXX 01041 10037 41125 81605 10064 20060 30014 40045 57017 76166 887// 333 87703=
10037,2012,01,01,05,00,AAXX 01051 10037 41125 81704 10073 20069 30008 40039 57018 76166 887// 333 87703=
10037,2012,01,01,06,00,AAXX 01061 10037 11118 82005 10084 20080 30004 40034 57016 60022 75865 887// 333 10085 20029 32002 70026 87703=
10037,2012,01,01,07,00,AAXX 01071 10037 41116 82109 10092 20087 30003 40033 57011 75866 887// 333 88703=
10037,2012,01,01,08,00,AAXX 01081 10037 41114 82108 10093 20087 30005 40035 55003 75165 887// 333 88703=
10037,2012,01,01,09,00,AAXX 01091 10037 41214 82208 10095 20089 30007 40037 53003 75165 887// 333 88704=
10037,2012,01,01,10,00,AAXX 01101 10037 41235 82308 10096 20089 30012 40042 52009 75155 887// 333 88705=
10037,2012,01,01,11,00,AAXX 01111 10037 41135 82309 10090 20084 30013 40043 52008 75155 887// 333 88703 91114=
10037,2012,01,01,12,00,AAXX 01121 10037 41138 82308 10086 20079 30016 40046 52009 72065 887// 333 88703 91114=
10037,2012,01,01,13,00,AAXX 01131 10037 41240 82308 10085 20079 30016 40046 51004 71022 886// 333 88704=
10037,2012,01,01,14,00,AAXX 01141 10037 41257 82308 10090 20081 30013 40043 50000 71022 886// 333 88705=
10037,2012,01,01,15,00,AAXX 01151 10037 42358 82106 10093 20081 30016 40046 55000 876// 333 87708=
10037,2012,01,01,16,00,AAXX 01161 10037 42460 82105 10094 20081 30016 40046 55000 875// 333 85710 87618=
10037,2012,01,01,17,00,AAXX 01171 10037 42560 71904 10093 20081 30011 40041 58002 875// 333 87625=
10037,2012,01,01,18,00,AAXX 01181 10037 11357 81704 10093 20082 30006 40036 58010 60022 71022 875// 333 10097 20084 31008 84707 87615=
10037,2012,01,01,19,00,AAXX 01191 10037 41256 81605 10096 20087 39997 40027 57019 75152 875// 333 85705 87615=
10037,2012,01,01,20,00,AAXX 01201 10037 41356 81605 10099 20089 39987 40017 57024 72052 876// 333 87708=
10037,2012,01,01,21,00,AAXX 01211 10037 41350 81605 10098 20090 39972 40002 57034 76165 877// 333 87707=
10037,2012,01,01,22,00,AAXX 01221 10037 41240 81603 10098 20091 39954 49984 57043 76366 877// 333 87704=
10037,2012,01,01,23,00,AAXX 01231 10037 41240 82602 10093 20087 39941 49971 57046 76366 875// 333 84704 87625=
10038,2012,01,01,00,00,AAXX 01001 10038 NIL=
10038,2012,01,01,01,00,AAXX 01011 10038 NIL=
10038,2012,01,01,02,00,AAXX 01021 10038 NIL=
10038,2012,01,01,03,00,AAXX 01031 10038 NIL=
10038,2012,01,01,04,00,AAXX 01041 10038 NIL=
10038,2012,01,01,05,00,AAXX 01051 10038 NIL=
10038,2012,01,01,06,00,AAXX 01061 10038 NIL=
10038,2012,01,01,07,00,AAXX 01071 10038 NIL=
10038,2012,01,01,08,00,AAXX 01081 10038 NIL=
10038,2012,01,01,09,00,AAXX 01091 10038 NIL=
10038,2012,01,01,10,00,AAXX 01101 10038 NIL=
10038,2012,01,01,11,00,AAXX 01111 10038 NIL=
10038,2012,01,01,12,00,AAXX 01121 10038 NIL=
10038,2012,01,01,13,00,AAXX 01131 10038 NIL=
10038,2012,01,01,14,00,AAXX 01141 10038 NIL=
10038,2012,01,01,15,00,AAXX 01151 10038 NIL=
10038,2012,01,01,16,00,AAXX 01161 10038 NIL=
10038,2012,01,01,17,00,AAXX 01171 10038 NIL=
10038,2012,01,01,18,00,AAXX 01181 10038 12358 81904 10097 20084 30018 40039 57011 60032 8757/ 333 10101 20086 31008 83707 85623 87358=
10038,2012,01,01,19,00,AAXX 01191 10038 42458 81904 10100 20087 30008 40029 57020 8757/ 333 83710 87617 87358=
10038,2012,01,01,20,00,AAXX 01201 10038 42358 81905 10102 20090 39997 40018 57026 876// 333 87707=
10038,2012,01,01,21,00,AAXX 01211 10038 41240 81803 10101 20092 39982 40003 57036 75862 875// 333 86706 83625 87650=
10038,2012,01,01,22,00,AAXX 01221 10038 41345 81502 10101 20093 39961 49982 57047 76166 877// 333 87708 87625=
10038,2012,01,01,23,00,AAXX 01231 10038 41340 82805 10102 20094 39949 49970 57048 76166 875// 333 83708 87623=
10042,2012,01,01,00,00,AAXX 01001 10042 07/06 /1803 10035 20035 30069 40073 56012 69921 73065 333 55300 69927=
10042,2012,01,01,01,00,AAXX 01011 10042 47/02 /1804 10039 20036 30063 40067 58012 73033 333 55300=
10042,2012,01,01,02,00,AAXX 01021 10042 47/03 /1704 10043 20041 30059 40063 58013 73033 333 55300=
10042,2012,01,01,03,00,AAXX 01031 10042 37/04 /1805 10046 20046 30050 40054 58019 73033 333 55300=
10042,2012,01,01,04,00,AAXX 01041 10042 47015 71805 10054 20052 30043 40047 58020 75265 333 55300 87/01 87/05=
10042,2012,01,01,05,00,AAXX 01051 10042 47110 71905 10062 20060 30036 40040 56023 72365 333 55300 87/02=
10042,2012,01,01,06,00,AAXX 01061 10042 07128 72006 10075 20075 30029 40033 57021 60012 75165 333 10075 20032 3/003 55000 55300 69987 70011 86/02 87/15=
10042,2012,01,01,07,00,AAXX 01071 10042 47215 82207 10084 20082 30029 40033 56014 75165 333 55300 87/04 88/11=
10042,2012,01,01,08,00,AAXX 01081 10042 47222 82307 10093 20090 30030 40034 55006 75265 333 55300 87/04 88/11=
10042,2012,01,01,09,00,AAXX 01091 10042 27230 72306 10093 20089 30032 40036 53003 75165 333 20032 3/003 55300 60027 87/04 87/12=
10042,2012,01,01,10,00,AAXX 01101 10042 47227 72408 10093 20088 30036 40040 53007 75265 333 55300 86/05 87/13 91113=
10042,2012,01,01,11,00,AAXX 01111 10042 47259 72407 10093 20088 30036 40040 51006 72365 333 55300 87/04=
10042,2012,01,01,12,00,AAXX 01121 10042 07259 72408 10093 20086 30037 40041 51005 60021 70065 333 55300 69957 87/05 91113=
10042,2012,01,01,13,00,AAXX 01131 10042 45261 72407 10090 20083 30038 40042 53002 333 55300 87/05=
10042,2012,01,01,14,00,AAXX 01141 10042 45364 72507 10090 20081 30042 40046 53006 333 55300 87/07=
10042,2012,01,01,15,00,AAXX 01151 10042 35364 82408 10091 20081 30043 40047 52006 333 55300 88/08=
10042,2012,01,01,16,00,AAXX 01161 10042 45370 82408 10094 20083 30041 40045 50003 333 55300 88/08=
10042,2012,01,01,17,00,AAXX 01171 10042 45370 82205 10095 20084 30039 40043 58003 333 55300 87/09 88/28 88/63=
10042,2012,01,01,18,00,AAXX 01181 10042 15466 82004 10094 20083 30036 40040 58007 60022 333 10096 20075 3/007 55300 83/11 87/50 88/70=
10042,2012,01,01,19,00,AAXX 01191 10042 47358 81804 10091 20083 30027 40031 58014 72365 333 55300 84/08 87/28 88/66=
10042,2012,01,01,20,00,AAXX 01201 10042 47457 81704 10090 20083 30016 40020 58023 71000 333 55300 87/16 88/46 88/60=
10042,2012,01,01,21,00,AAXX 01211 10042 27338 71804 10096 20089 30005 40009 58031 76265 333 55300 69937 87/09 87/15 87/36=
10042,2012,01,01,22,00,AAXX 01221 10042 47218 71604 10088 20088 39987 49991 58040 76266 333 55300 81/04 86/18 87/47=
10042,2012,01,01,23,00,AAXX 01231 10042 47/12 /1602 10083 20080 39970 49974 58046 76366 333 55300=
10044,2012,01,01,00,00,AAXX 01001 10044 46/// /1707 10034 20029 30040 40073 56010 222// 00056 333 55300=
10044,2012,01,01,01,00,AAXX 01011 10044 46/// /1707 10035 20033 30036 40068 58012 222// 00052 333 55300=
10044,2012,01,01,02,00,AAXX 01021 10044 46/// /1808 10038 20036 30028 40060 58015 222// 00051 333 55300=
10044,2012,01,01,03,00,AAXX 01031 10044 46/// /1809 10044 20041 30022 40054 58019 222// 00057 333 55300=
10044,2012,01,01,04,00,AAXX 01041 10044 46/// /1809 10050 20047 30017 40049 56018 222// 00048 333 55300=
10044,2012,01,01,05,00,AAXX 01051 10044 46/// /1810 10054 20055 30008 40040 58020 222// 00050 333 55300=
10044,2012,01,01,06,00,AAXX 01061 10044 46/// /1908 10062 20060 30001 40033 58020 222// 00048 333 10063 20026 55000 55300=
10044,2012,01,01,07,00,AAXX 01071 10044 46/// /2011 10077 20076 30000 40031 56017 222// 00051 333 55300 91113 91212=
10044,2012,01,01,08,00,AAXX 01081 10044 46/// /2109 10084 20081 30003 40035 55005 222// 00051 333 55300 91211=
10044,2012,01,01,09,00,AAXX 01091 10044 46/// /2209 10089 20087 30005 40036 53003 222// 00048 333 20026 55300 91113 91212=
10044,2012,01,01,10,00,AAXX 01101 10044 46/// /2310 10091 20088 30008 40040 52009 222// 00049 333 55300 91211=
10044,2012,01,01,11,00,AAXX 01111 10044 46/// /2411 10093 20089 30007 40038 50004 222// 00054 333 55300 91113 91211=
10044,2012,01,01,12,00,AAXX 01121 10044 46/// /2412 10088 20082 30010 40041 51005 222// 00054 333 55300 91116 91213=
10044,2012,01,01,13,00,AAXX 01131 10044 46/// /2311 10087 20076 30008 40040 54000 222// 00047 333 55300 91116 91212=
10044,2012,01,01,14,00,AAXX 01141 10044 46/// /2410 10088 20073 30015 40046 53008 222// 00047 333 55300 91114 91213=
10044,2012,01,01,15,00,AAXX 01151 10044 NIL=
10044,2012,01,01,16,00,AAXX 01161 10044 46/// /2307 10096 20078 30015 40047 51007 222// 00044 333 55300=
10044,2012,01,01,17,00,AAXX 01171 10044 46/// /2008 10096 20077 30011 40043 58003 222// 00046 333 55300=
10044,2012,01,01,18,00,AAXX 01181 10044 46/// /1908 10094 20076 30009 40040 58007 222// 00047 333 10102 20054 55300 91116 91213=
10044,2012,01,01,19,00,AAXX 01191 10044 46/// /1808 10092 20083 30001 40032 58014 222// 00054 333 55300=
10044,2012,01,01,20,00,AAXX 01201 10044 46/// /1709 10096 20083 39989 40020 58023 222// 00042 333 55300=
10044,2012,01,01,21,00,AAXX 01211 10044 46/// /1708 10091 20082 39978 40009 58031 222// 00052 333 55300=
10044,2012,01,01,22,00,AAXX 01221 10044 46/// /1706 10095 20089 39959 49991 58041 222// 00054 333 55300=
10044,2012,01,01,23,00,AAXX 01231 10044 46/// /1604 10098 20092 39940 49971 58049 222// 00048 333 55300=
10046,2012,01,01,00,00,AAXX 01001 10046 41/03 91703 10036 20029 30035 40074 57010 74752 333 89/01=
10046,2012,01,01,01,00,AAXX 01011 10046 41/04 91803 10039 20032 30031 40070 57009 74744 333 89/01=
10046,2012,01,01,02,00,AAXX 01021 10046 41/04 91803 10044 20038 30027 40066 57011 74544 333 89/01=
10046,2012,01,01,03,00,AAXX 01031 10046 41/06 91703 10049 20043 30019 40058 57016 74344 333 89/01=
10046,2012,01,01,04,00,AAXX 01041 10046 41/07 91804 10055 20049 30014 40053 57017 74344 333 89/01=
10046,2012,01,01,05,00,AAXX 01051 10046 41112 81903 10065 20059 30007 40046 57020 75864 877// 333 87702=
10046,2012,01,01,06,00,AAXX 01061 10046 11110 82004 10075 20069 30001 40040 57018 69972 75854 877// 333 10075 20031 32003 55000 70008 87702=
10046,2012,01,01,07,00,AAXX 01071 10046 41114 82104 10084 20078 30001 40040 56013 75866 877// 333 87702=
10046,2012,01,01,08,00,AAXX 01081 10046 41114 82104 10092 20086 30001 40039 56006 75866 877// 333 87703=
10046,2012,01,01,09,00,AAXX 01091 10046 41111 82205 10097 20090 30003 40041 53002 75866 877// 333 87703=
10046,2012,01,01,10,00,AAXX 01101 10046 41215 82305 10099 20092 30006 40044 53005 75866 877// 333 87704=
10046,2012,01,01,11,00,AAXX 01111 10046 41214 82407 10100 20092 30006 40044 51005 75866 877// 333 87704=
10046,2012,01,01,12,00,AAXX 01121 10046 41250 82407 10095 20085 30010 40048 52007 72165 877// 333 87705 91113=
10046,2012,01,01,13,00,AAXX 01131 10046 41256 82407 10095 20083 30008 40046 50002 71022 876// 333 87706=
10046,2012,01,01,14,00,AAXX 01141 10046 42360 82406 10096 20081 30015 40053 52009 876// 333 87708=
10046,2012,01,01,15,00,AAXX 01151 10046 42360 82405 10101 20084 30013 40051 53003 875// 333 85708 87620=
10046,2012,01,01,16,00,AAXX 01161 10046 42460 82204 10103 20082 30013 40051 51005 876// 333 87710=
10046,2012,01,01,17,00,AAXX 01171 10046 42460 72104 10099 20080 30009 40047 57006 86631 333 85710 84630=
10046,2012,01,01,18,00,AAXX 01181 10046 12460 72003 10097 20080 30004 40042 58009 60022 875// 333 10103 20075 31007 84612 87640=
10046,2012,01,01,19,00,AAXX 01191 10046 41356 71904 10099 20086 39995 40033 58018 72022 875// 333 82708 87656=
10046,2012,01,01,20,00,AAXX 01201 10046 41356 81804 10102 20087 39985 40023 58024 71022 875// 333 84708 87630=
10046,2012,01,01,21,00,AAXX 01211 10046 41245 81803 10103 20092 39973 40011 58031 76152 877// 333 87705=
10046,2012,01,01,22,00,AAXX 01221 10046 41116 81602 10099 20090 39952 49990 58043 76366 877// 333 85703 87706=
10046,2012,01,01,23,00,AAXX 01231 10046 41340 81905 10112 20102 39932 49970 57053 76166 877// 333 87707=
10055,2012,01,01,00,00,AAXX 01001 10055 11458 81705 10033 20028 30073 40084 55008 69901 70252 885// 333 31/// 55/// 20127 30102 55300 20000 30000 86712 88628=
10055,2012,01,01,01,00,AAXX 01011 10055 41240 81705 10033 20030 30066 40077 57013 75152 877// 333 55300 20000 30000 87704=
10055,2012,01,01,02,00,AAXX 01021 10055 41240 81706 10035 20035 30060 40071 58012 75155 887// 333 55300 20000 30000 88704=
10055,2012,01,01,03,00,AAXX 01031 10055 21120 81706 10037 20036 30054 40065 56019 75152 886// 333 55300 20000 30000 69917 88703=
10055,2012,01,01,04,00,AAXX 01041 10055 41120 81705 10040 20039 30048 40058 57018 72022 886// 333 55300 20000 30000 88703=
10055,2012,01,01,05,00,AAXX 01051 10055 41110 81706 10046 20045 30041 40051 58019 75152 887// 333 55300 20000 30000 88703=
10055,2012,01,01,06,00,AAXX 01061 10055 01240 81806 10052 20051 30034 40044 58020 60022 76165 887// 333 10052 20032 31003 55015 55300 20000 30000 60017 70015 88704=
10055,2012,01,01,07,00,AAXX 01071 10055 41240 81806 10057 20056 30030 40040 56018 75865 887// 333 55300 20000 30000 88704=
10055,2012,01,01,08,00,AAXX 01081 10055 41250 81806 10065 20065 30030 40040 56011 76066 875// 333 55300 20000 30000 86705 87610=
10055,2012,01,01,09,00,AAXX 01091 10055 21246 82005 10080 20077 30029 40039 56005 72165 877// 333 20032 3/003 55300 20004 30004 60017 87706=
10055,2012,01,01,10,00,AAXX 01101 10055 41335 82207 10083 20080 30031 40041 53001 72022 886// 333 55300 20063 30063 88708=
10055,2012,01,01,11,00,AAXX 01111 10055 41330 82206 10083 20081 30033 40043 53003 72052 887// 333 55300 20119 30119 88707=
10055,2012,01,01,12,00,AAXX 01121 10055 01340 82306 10079 20077 30034 40044 51005 60021 71065 886// 333 31/// 55300 20173 30173 69917 88708=
10055,2012,01,01,13,00,AAXX 01131 10055 42360 82507 10076 20076 30032 40042 50001 886// 333 55300 20097 30097 88707=
10055,2012,01,01,14,00,AAXX 01141 10055 42462 82507 10074 20069 30038 40048 53005 886// 333 55300 20094 30094 88710=
10055,2012,01,01,15,00,AAXX 01151 10055 32462 82406 10075 20069 30043 40053 53009 885// 333 55300 20023 30023 88614=
10055,2012,01,01,16,00,AAXX 01161 10055 42462 72305 10070 20063 30041 40051 50009 84501 333 55300 20000 30000 84619 87073=
10055,2012,01,01,17,00,AAXX 01171 10055 42565 72004 10090 20080 30044 40054 51006 8551/ 333 55300 20000 30000 85627 87466=
10055,2012,01,01,18,00,AAXX 01181 10055 12570 72004 10092 20078 30037 40047 58006 60022 8251/ 333 10093 20052 31005 55300 20000 30000 82620 87466=
10055,2012,01,01,19,00,AAXX 01191 10055 42570 81805 10089 20076 30034 40044 58007 8452/ 333 55300 20000 30000 84626 87466=
10055,2012,01,01,20,00,AAXX 01201 10055 41562 81706 10087 20079 30020 40030 58024 75122 885// 333 55300 20000 30000 88626=
10055,2012,01,01,22,00,AAXX 01221 10055 41110 81605 10083 20080 39990 40000 58044 76566 877// 333 55300 20000 30000 87703=
10055,2012,01,01,23,00,AAXX 01231 10055 41220 81708 10093 20091 39968 49978 58052 76366 877// 333 55300 20000 30000 87704=
10067,2012,01,01,00,00,AAXX 01001 10067 NIL=
10067,2012,01,01,01,00,AAXX 01011 10067 NIL=
10067,2012,01,01,02,00,AAXX 01021 10067 NIL=
10067,2012,01,01,03,00,AAXX 01031 10067 NIL=
10067,2012,01,01,04,00,AAXX 01041 10067 NIL=
10067,2012,01,01,05,00,AAXX 01051 10067 NIL=
10067,2012,01,01,06,00,AAXX 01061 10067 NIL=
10067,2012,01,01,07,00,AAXX 01071 10067 NIL=
10067,2012,01,01,08,00,AAXX 01081 10067 NIL=
10067,2012,01,01,09,00,AAXX 01091 10067 NIL=
10067,2012,01,01,10,00,AAXX 01101 10067 NIL=
10067,2012,01,01,11,00,AAXX 01111 10067 NIL=
10067,2012,01,01,12,00,AAXX 01121 10067 NIL=
10067,2012,01,01,13,00,AAXX 01131 10067 NIL=
10067,2012,01,01,14,00,AAXX 01141 10067 NIL=
10067,2012,01,01,15,00,AAXX 01151 10067 NIL=
10067,2012,01,01,16,00,AAXX 01161 10067 NIL=
10067,2012,01,01,17,00,AAXX 01171 10067 NIL=
10067,2012,01,01,18,00,AAXX 01181 10067 NIL=
10067,2012,01,01,19,00,AAXX 01191 10067 NIL=
10067,2012,01,01,20,00,AAXX 01201 10067 NIL=
10067,2012,01,01,21,00,AAXX 01211 10067 NIL=
10067,2012,01,01,22,00,AAXX 01221 10067 NIL=
10067,2012,01,01,23,00,AAXX 01231 10067 NIL=
10091,2012,01,01,00,00,AAXX 01001 10091 17240 81707 10015 20015 30051 40103 58013 69901 71053 333 55/// 20239 30147 55300 20000 30000 87/04 88/50=
10091,2012,01,01,01,00,AAXX 01011 10091 47250 81605 10016 20016 30045 40097 58015 71000 333 55300 20000 30000 87/05 88/50=
10091,2012,01,01,02,00,AAXX 01021 10091 47256 81706 10020 20018 30044 40096 56013 71000 333 55300 20000 30000 84/05 88/48 88/50=
10091,2012,01,01,03,00,AAXX 01031 10091 37256 81707 10022 20017 30035 40087 58016 71000 333 55300 20000 30000 87/06 88/41 88/48=
10091,2012,01,01,04,00,AAXX 01041 10091 47250 81809 10022 20017 30030 40082 58015 71000 333 55300 20000 30000 85/05 87/17 88/39=
10091,2012,01,01,05,00,AAXX 01051 10091 41257 81808 10024 20019 30025 40077 56019 71022 876// 222// 06051 333 55300 20000 30000 87706=
10091,2012,01,01,06,00,AAXX 01061 10091 11256 81809 10025 20025 30018 40070 58017 69902 71022 876// 222// 06051 333 10025 21001 31000 55032 55300 20000 30000 79999 87705=
10091,2012,01,01,07,00,AAXX 01071 10091 41250 81810 10027 20027 30015 40067 56015 71022 876// 222// 06051 333 55300 20000 30000 87704=
10091,2012,01,01,08,00,AAXX 01081 10091 41120 81910 10030 20029 30010 40062 56015 75322 877// 222// 06052 333 55300 20004 30004 87702=
10091,2012,01,01,09,00,AAXX 01091 10091 21115 81909 10036 20036 30004 40055 58014 75952 877// 222// 06052 333 21001 3/000 55300 20025 30025 69947 87702=
10091,2012,01,01,10,00,AAXX 01101 10091 41120 82009 10042 20042 39999 40050 57016 75965 877// 222// 06052 333 55300 20040 30040 87702=
10091,2012,01,01,11,00,AAXX 01111 10091 41120 82110 10050 20050 39996 40047 56014 75966 877// 222// 06052 333 55300 20057 30057 87702 91113=
10091,2012,01,01,12,00,AAXX 01121 10091 01125 82209 10060 20060 39992 40043 56012 60031 75165 877// 222// 06052 333 32/// 55300 20101 30101 60037 87702 91113=
10091,2012,01,01,13,00,AAXX 01131 10091 41010 82208 10068 20068 39995 40046 55004 75155 877// 222// 06052 333 55300 20120 30120 87701=
10091,2012,01,01,14,00,AAXX 01141 10091 41125 82308 10079 20079 39994 40045 56002 75152 877// 222// 06052 333 55300 20045 30045 87702=
10091,2012,01,01,15,00,AAXX 01151 10091 21140 82407 10083 20083 39999 40049 53007 72052 877// 222// 06052 333 55300 20014 30014 69927 87703=
10091,2012,01,01,16,00,AAXX 01161 10091 41140 82510 10080 20080 30003 40054 53008 71022 876// 222// 06052 333 55300 20001 30001 87703=
10091,2012,01,01,17,00,AAXX 01171 10091 47457 82507 10077 20075 30007 40058 51013 71000 333 55300 20000 30000 83/10 87/20 88/27=
10091,2012,01,01,18,00,AAXX 01181 10091 17458 82408 10071 20068 30007 40058 51008 60032 70053 333 10084 20025 3/002 55300 20000 30000 83/11 86/66 88/68=
10091,2012,01,01,19,00,AAXX 01191 10091 47450 72207 10071 20069 30004 40055 50001 71000 333 55300 20000 30000 82/14 86/19 87/66=
10091,2012,01,01,20,00,AAXX 01201 10091 47927 82206 10068 20067 30001 40052 58006 71000 333 55300 20000 30000 82/60 88/65=
10091,2012,01,01,21,00,AAXX 01211 10091 27756 72109 10074 20073 39994 40045 58013 72365 333 55300 20000 30000 69907 81/56 87/59=
10091,2012,01,01,22,00,AAXX 01221 10091 47646 81808 10072 20070 39982 40033 58022 71000 333 55300 20000 30000 81/44 87/56 88/59=
10091,2012,01,01,23,00,AAXX 01231 10091 47215 81809 10072 20071 39967 40018 58034 76165 333 55300 20000 30000 86/04 88/18=
10093,2012,01,01,00,00,AAXX 01001 10093 17136 81703 10014 20014 30056 40107 58012 69901 72054 333 55300 82/03 88/50=
10093,2012,01,01,01,00,AAXX 01011 10093 47235 71703 10013 20013 30050 40101 58014 71000 333 55300 81/04 87/50=
10093,2012,01,01,02,00,AAXX 01021 10093 47656 81704 10017 20017 30047 40098 56015 71000 333 55300 88/36 88/56=
10093,2012,01,01,03,00,AAXX 01031 10093 37250 81705 10018 20018 30042 40092 56014 71000 333 55300 84/04 86/17 88/35=
10093,2012,01,01,04,00,AAXX 01041 10093 47250 81704 10019 20019 30037 40087 58013 71000 333 55300 86/06 88/15 88/36=
10093,2012,01,01,05,00,AAXX 01051 10093 47250 71804 10019 20019 30032 40082 57015 71000 333 55300 87/04=
10093,2012,01,01,06,00,AAXX 01061 10093 07136 81705 10022 20022 30028 40078 56014 69902 72250 333 10022 21002 3/000 55006 55300 69907 79999 88/03=
10093,2012,01,01,07,00,AAXX 01071 10093 47129 81705 10024 20024 30024 40074 56013 72250 333 55300 88/02=
10093,2012,01,01,08,00,AAXX 01081 10093 47/06 /1805 10028 20028 30021 40071 56011 75865 333 55300=
10093,2012,01,01,09,00,AAXX 01091 10093 27/04 /1805 10032 20032 30017 40067 57011 75865 333 21002 3/000 55300 60017=
10093,2012,01,01,10,00,AAXX 01101 10093 47/07 /1905 10039 20039 30011 40061 58013 76265 333 55300=
10093,2012,01,01,11,00,AAXX 01111 10093 47022 72004 10050 20050 30008 40058 56013 75766 333 55300 87/01 87/05=
10093,2012,01,01,12,00,AAXX 01121 10093 07034 72104 10063 20063 30005 40054 56012 60061 72365 333 55300 60047 87/01=
10093,2012,01,01,13,00,AAXX 01131 10093 47032 82205 10074 20074 30005 40054 56006 72250 333 55300 88/01=
10093,2012,01,01,14,00,AAXX 01141 10093 47134 82205 10083 20083 30004 40053 56004 75150 333 55300 88/01=
10093,2012,01,01,15,00,AAXX 01151 10093 27/29 /2204 10085 20085 30007 40056 53002 72250 333 55300 69927=
10093,2012,01,01,16,00,AAXX 01161 10093 47545 82403 10088 20088 30013 40062 53008 71000 333 55300 86/30 88/63=
10093,2012,01,01,17,00,AAXX 01171 10093 47557 82305 10088 20088 30015 40064 51011 71000 333 55300 82/24 88/29 88/64=
10093,2012,01,01,18,00,AAXX 01181 10093 17958 82304 10083 20083 30014 40063 50007 60062 70050 333 10089 20022 3/002 55300 85/62 88/67 88/72=
10093,2012,01,01,19,00,AAXX 01191 10093 45958 82104 10082 20081 30013 40062 50000 333 55300 88/62=
10093,2012,01,01,20,00,AAXX 01201 10093 45958 82104 10080 20078 30012 40061 57003 333 55300 81/58 88/62 88/65=
10093,2012,01,01,21,00,AAXX 01211 10093 37647 81904 10074 20074 30002 40051 58012 71000 333 55300 81/35 88/61 88/63=
10093,2012,01,01,22,00,AAXX 01221 10093 47/27 /1805 10074 20074 39992 40041 58021 72360 333 55300=
10093,2012,01,01,23,00,AAXX 01231 10093 47/16 /1704 10080 20080 39977 40026 58035 76165 333 55300=
10097,2012,01,01,00,00,AAXX 01001 10097 17860 71604 10023 20013 30096 40110 57013 60001 70030 333 55300 87/56 87/58=
10097,2012,01,01,01,00,AAXX 01011 10097 45859 51604 10023 20013 30091 40105 58013 333 55300 85/56=
10097,2012,01,01,02,00,AAXX 01021 10097 45759 81705 10024 20012 30089 40103 56012 333 55300 88/50=
10097,2012,01,01,03,00,AAXX 01031 10097 35659 71705 10023 20011 30083 40097 58013 333 55300 87/45 87/50=
10097,2012,01,01,04,00,AAXX 01041 10097 45359 81704 10024 20013 30079 40093 58012 333 55300 81/07 84/20 88/40=
10097,2012,01,01,05,00,AAXX 01051 10097 47356 81705 10022 20011 30075 40089 56014 71000 333 55300 88/07 88/18 88/38=
10097,2012,01,01,06,00,AAXX 01061 10097 17350 81805 10022 20012 30071 40085 57012 60002 71000 333 10025 20007 3/001 55000 55300 70000 87/06 88/35=
10097,2012,01,01,07,00,AAXX 01071 10097 47230 81705 10024 20016 30065 40079 58014 71000 333 55300 88/05=
10097,2012,01,01,08,00,AAXX 01081 10097 47219 81806 10028 20022 30064 40078 56011 76160 333 55300 88/04=
10097,2012,01,01,09,00,AAXX 01091 10097 27111 71807 10029 20025 30058 40072 57013 76265 333 20007 3/001 55300 69957 87/02=
10097,2012,01,01,10,00,AAXX 01101 10097 47112 71806 10034 20031 30052 40066 58013 75765 333 55300 86/02 87/07 87/14=
10097,2012,01,01,11,00,AAXX 01111 10097 47219 81908 10040 20037 30047 40061 56017 76266 333 55300 84/04 87/13 88/22=
10097,2012,01,01,12,00,AAXX 01121 10097 07319 71908 10048 20045 30044 40058 56014 60041 75165 333 55300 60037 87/06 87/10=
10097,2012,01,01,13,00,AAXX 01131 10097 47256 82108 10060 20058 30041 40055 56011 72250 333 55300 88/06 88/09 88/22=
10097,2012,01,01,14,00,AAXX 01141 10097 47356 82209 10070 20067 30043 40057 55004 72365 333 55300 88/08=
10097,2012,01,01,15,00,AAXX 01151 10097 27323 82107 10066 20066 30043 40057 56001 71065 333 55300 69907 85/07 88/12 88/27=
10097,2012,01,01,16,00,AAXX 01161 10097 47337 82208 10069 20067 30050 40064 53009 71000 333 55300 82/06 85/37 88/64=
10097,2012,01,01,17,00,AAXX 01171 10097 47646 82307 10066 20066 30051 40065 53008 71000 333 55300 84/35 88/64=
10097,2012,01,01,18,00,AAXX 01181 10097 17664 72308 10070 20066 30053 40067 51010 60042 70065 333 10073 20022 3/002 55300 82/36 83/63 87/67=
10097,2012,01,01,19,00,AAXX 01191 10097 45960 82107 10067 20067 30051 40065 50001 333 55300 88/66=
10097,2012,01,01,20,00,AAXX 01201 10097 45964 82106 10069 20064 30053 40067 52002 333 55300 84/61 87/63 88/66=
10097,2012,01,01,21,00,AAXX 01211 10097 37857 81907 10068 20068 30042 40056 58011 71000 333 55300 81/58 88/62=
10097,2012,01,01,22,00,AAXX 01221 10097 47214 71705 10068 20065 30033 40047 58018 72363 333 55300 85/03 87/59 87/60=
10097,2012,01,01,23,00,AAXX 01231 10097 47004 81505 10062 20060 30020 40034 58033 73065 333 55300 86/00 87/05 88/27=
10113,2012,01,01,00,00,AAXX 01001 10113 07006 81904 10076 20075 30039 40058 58014 69981 73065 333 55/// 20075 30071 55300 20000 30000 69987 87/00 88/06=
10113,2012,01,01,01,00,AAXX 01011 10113 47012 72005 10078 20077 30038 40057 56011 75165 333 55300 20000 30000 81/01 87/05 87/09=
10113,2012,01,01,02,00,AAXX 01021 10113 47214 82106 10077 20076 30035 40054 56011 72365 333 55300 20000 30000 88/06=
10113,2012,01,01,03,00,AAXX 01031 10113 27008 82106 10082 20081 30029 40048 58010 73065 333 55300 20000 30000 69917 85/01 88/05=
10113,2012,01,01,04,00,AAXX 01041 10113 47012 82107 10084 20083 30026 40045 57012 72365 333 55300 20000 30000 82/01 86/06 88/10=
10113,2012,01,01,05,00,AAXX 01051 10113 41228 82106 10086 20085 30025 40044 56010 72162 886// 333 55300 20000 30000 88704=
10113,2012,01,01,06,00,AAXX 01061 10113 01122 82208 10084 20083 30024 40043 56005 60012 72165 886// 222// 06055 333 10086 20056 32006 55000 55300 20000 30000 69947 70015 88702=
10113,2012,01,01,07,00,AAXX 01071 10113 41128 82107 10084 20083 30026 40045 55000 76165 877// 333 55300 20000 30000 87703=
10113,2012,01,01,08,00,AAXX 01081 10113 41033 82206 10084 20083 30033 40052 53008 72166 886// 333 55300 20000 30000 88701=
10113,2012,01,01,09,00,AAXX 01091 10113 21362 72307 10087 20085 30035 40054 52011 70365 875// 333 20056 3/006 55300 20049 30047 60027 81709 87629 96445=
10113,2012,01,01,10,00,AAXX 01101 10113 42265 72307 10088 20085 30039 40058 51013 8351/ 333 55300 20161 30153 81704 83631 87466=
10113,2012,01,01,11,00,AAXX 01111 10113 42966 72206 10089 20086 30038 40057 50005 85012 333 55301 20398 30343 85466 86073=
10113,2012,01,01,12,00,AAXX 01121 10113 11970 72208 10093 20089 30038 40057 51003 60021 70365 81012 333 32/// 55302 20492 30390 81466 86070=
10113,2012,01,01,13,00,AAXX 01131 10113 42465 72106 10092 20088 30033 40052 58006 83502 333 55307 20594 30391 83610 87070=
10113,2012,01,01,14,00,AAXX 01141 10113 42470 82207 10093 20087 30032 40051 58006 86502 333 55301 20318 30291 83612 85618 88070=
10113,2012,01,01,15,00,AAXX 01151 10113 32570 82105 10092 20085 30029 40048 56009 875// 333 55300 20076 30074 87623=
10113,2012,01,01,16,00,AAXX 01161 10113 41460 82005 10093 20088 30022 40041 58011 75065 885// 333 55300 20004 30004 88612=
10113,2012,01,01,17,00,AAXX 01171 10113 41459 82005 10091 20087 30015 40034 58017 72022 886// 333 55300 20000 30000 88711=
10113,2012,01,01,18,00,AAXX 01181 10113 01465 81806 10096 20096 30005 40024 58024 60022 72065 886// 333 10096 20082 32008 55300 20000 30000 69927 88711=
10113,2012,01,01,19,00,AAXX 01191 10113 41340 81906 10097 20097 39995 40014 58027 76166 875// 333 55300 20000 30000 82708 87646=
10113,2012,01,01,20,00,AAXX 01201 10113 41130 81804 10099 20097 39979 49998 58036 76366 875// 333 55300 20000 30000 83702 87646=
10113,2012,01,01,21,00,AAXX 01211 10113 21233 81803 10099 20098 39967 49986 58038 76366 877// 333 55300 20000 30000 60087 87704=
10113,2012,01,01,22,00,AAXX 01221 10113 41230 82705 10078 20076 39966 49985 56029 76166 877// 333 55300 20000 30000 87705=
10113,2012,01,01,23,00,AAXX 01231 10113 41770 72404 10080 20078 39961 49980 56018 76166 875// 333 55300 20000 30000 82656 87657=
10124,2012,01,01,00,00,AAXX 01001 10124 46/// ///// 10069 2//// 30019 40057 58010 222// 00057 333 553//=
10124,2012,01,01,01,00,AAXX 01011 10124 46/// ///// 10072 2//// 30014 40052 58013 222// 00058 333 553//=
10124,2012,01,01,02,00,AAXX 01021 10124 46/// ///// 10079 2//// 30011 40049 56015 222// 00058 333 553//=
10124,2012,01,01,03,00,AAXX 01031 10124 46/// ///// 10083 2//// 30007 40044 56012 222// 00059 333 553//=
10124,2012,01,01,04,00,AAXX 01041 10124 46/// ///// 10085 2//// 30001 40039 58012 222// 00060 333 553//=
10124,2012,01,01,05,00,AAXX 01051 10124 46/// ///// 10086 2//// 310000 40037 56012 222// 00061 333 553//=
10124,2012,01,01,06,00,AAXX 01061 10124 46/// ///// 10087 2//// 39997 40034 56010 222// 00059 333 10087 20038 55/// 553//=
10124,2012,01,01,07,00,AAXX 01071 10124 46/// ///// 10087 2//// 39998 40035 55004 222// 00064 333 553// 911// 912//=
10124,2012,01,01,08,00,AAXX 01081 10124 46/// ///// 10089 2//// 30004 40041 53004 222// 00059 333 553// 911// 912//=
10124,2012,01,01,09,00,AAXX 01091 10124 46/// ///// 10090 2//// 30008 40046 53011 222// 00057 333 20038 553// 911// 912//=
10124,2012,01,01,10,00,AAXX 01101 10124 46/// ///// 10090 2//// 30014 40052 52017 222// 00056 333 553// 912//=
10124,2012,01,01,11,00,AAXX 01111 10124 46/// ///// 10090 2//// 30014 40051 50010 222// 00056 333 553//=
10124,2012,01,01,12,00,AAXX 01121 10124 46/// ///// 10094 2//// 30012 40050 50004 222// 00056 333 553// 911// 912//=
10124,2012,01,01,13,00,AAXX 01131 10124 46/// ///// 10095 2//// 30013 40050 55001 222// 00058 333 553//=
10124,2012,01,01,14,00,AAXX 01141 10124 46/// ///// 10095 2//// 30010 40047 58004 222// 00059 333 553//=
10124,2012,01,01,15,00,AAXX 01151 10124 46/// ///// 10098 2//// 30010 40047 58002 222// 00059 333 553//=
10124,2012,01,01,16,00,AAXX 01161 10124 46/// ///// 10094 2//// 30004 40042 58009 222// 00060 333 553//=
10124,2012,01,01,17,00,AAXX 01171 10124 46/// ///// 10102 2//// 39996 40033 58014 222// 00060 333 553//=
10124,2012,01,01,18,00,AAXX 01181 10124 46/// ///// 10094 2//// 39988 40025 58022 222// 00059 333 10105 20084 553//=
10124,2012,01,01,19,00,AAXX 01191 10124 46/// ///// 10102 2//// 39976 40013 58029 222// 00059 333 553//=
10124,2012,01,01,20,00,AAXX 01201 10124 46/// ///// 10098 2//// 39965 40002 58031 222// 00059 333 553//=
10124,2012,01,01,21,00,AAXX 01211 10124 46/// ///// 10102 2//// 39945 49982 58043 222// 00058 333 553//=
10124,2012,01,01,22,00,AAXX 01221 10124 46/// ///// 10097 2//// 39935 49972 57041 222// 00056 333 553//=
10124,2012,01,01,23,00,AAXX 01231 10124 46/// ///// 10085 2//// 39935 49972 56030 222// 00057 333 553//=
10126,2012,01,01,00,00,AAXX 01001 10126 41125 82005 10087 20085 30050 40066 57011 75864 886// 333 88703=
10126,2012,01,01,01,00,AAXX 01011 10126 41125 82105 10090 20087 30046 40062 57011 75865 886// 333 88703=
10126,2012,01,01,02,00,AAXX 01021 10126 41125 82205 10093 20090 30045 40061 57009 72162 886// 333 88703=
10126,2012,01,01,03,00,AAXX 01031 10126 41223 82205 10096 20096 30040 40056 57010 75865 886// 333 88704=
10126,2012,01,01,04,00,AAXX 01041 10126 41217 82206 10099 20095 30036 40052 57010 75866 886// 333 88704=
10126,2012,01,01,05,00,AAXX 01051 10126 41225 82306 10100 20096 30034 40050 57011 75866 876// 333 87704=
10126,2012,01,01,06,00,AAXX 01061 10126 11225 82307 10101 20096 30033 40049 56007 60022 72166 876// 333 10102 20049 31005 70029 87704=
10126,2012,01,01,07,00,AAXX 01071 10126 41220 82306 10101 20096 30034 40050 55002 75155 877// 333 87704=
10126,2012,01,01,08,00,AAXX 01081 10126 41215 82306 10102 20098 30040 40056 53006 76366 877// 333 87704=
10126,2012,01,01,09,00,AAXX 01091 10126 41257 82506 10106 20099 30044 40060 53011 72166 877// 333 83706 87708=
10126,2012,01,01,10,00,AAXX 01101 10126 42462 82407 10107 20095 30046 40062 52012 8453/ 333 84612 87360=
10126,2012,01,01,11,00,AAXX 01111 10126 42465 72406 10108 20094 30047 40063 51007 8113/ 333 81812 87363=
10126,2012,01,01,12,00,AAXX 01121 10126 41470 72306 10108 20095 30045 40061 50001 70162 82131 333 82812 83363 87080=
10126,2012,01,01,13,00,AAXX 01131 10126 42475 72205 10109 20092 30046 40062 50000 84101 333 84812 86080=
10126,2012,01,01,14,00,AAXX 01141 10126 42475 72305 10111 20094 30041 40057 58006 876// 333 87710=
10126,2012,01,01,15,00,AAXX 01151 10126 42475 82205 10112 20098 30039 40055 57007 875// 333 85710 87629=
10126,2012,01,01,16,00,AAXX 01161 10126 42475 82104 10111 20098 30033 40049 57013 875// 333 85710 87624=
10126,2012,01,01,17,00,AAXX 01171 10126 41358 82005 10109 20099 30026 40042 57015 76152 877// 333 87707=
10126,2012,01,01,18,00,AAXX 01181 10126 11358 82005 10110 20101 30016 40032 57023 60022 72165 877// 333 10114 20099 31009 87707=
10126,2012,01,01,19,00,AAXX 01191 10126 41250 81804 10109 20102 30005 40021 57028 75862 877// 333 87705=
10126,2012,01,01,20,00,AAXX 01201 10126 41250 81705 10108 20108 39989 40005 57037 76166 875// 333 86704 87613=
10126,2012,01,01,21,00,AAXX 01211 10126 41240 82503 10101 20095 39971 49987 57045 76162 875// 333 85704 87614=
10126,2012,01,01,22,00,AAXX 01221 10126 41240 82108 10119 20110 39957 49973 57048 76166 875// 333 85705 87613=
10126,2012,01,01,23,00,AAXX 01231 10126 41265 82803 10094 20086 39966 49982 55023 76166 875// 333 82705 83630 87656=
10129,2012,01,01,00,00,AAXX 01001 10129 07005 82005 10074 20073 30063 40076 58006 69921 73053 333 55/// 20123 30117 55300 20000 30000 69907 88/00=
10129,2012,01,01,01,00,AAXX 01011 10129 47011 71906 10081 20080 30054 40067 58014 75153 333 55300 20000 30000 87/01=
10129,2012,01,01,02,00,AAXX 01021 10129 47114 72007 10083 20082 30054 40067 56013 72365 333 55300 20000 30000 87/02=
10129,2012,01,01,03,00,AAXX 01031 10129 27232 72006 10086 20085 30050 40063 56013 72365 333 55300 20000 30000 69937 87/03=
10129,2012,01,01,04,00,AAXX 01041 10129 47226 82106 10086 20085 30045 40058 58009 72365 333 55300 20000 30000 88/06=
10129,2012,01,01,05,00,AAXX 01051 10129 47214 82206 10083 20082 30042 40055 56012 72365 333 55300 20000 30000 88/05=
10129,2012,01,01,06,00,AAXX 01061 10129 07237 72208 10087 20086 30042 40055 56008 69962 76165 333 10088 20040 3/004 55003 55300 20000 30000 69917 70008 87/06=
10129,2012,01,01,07,00,AAXX 01071 10129 47223 82208 10087 20086 30043 40056 55002 72365 333 55300 20000 30000 88/05=
10129,2012,01,01,08,00,AAXX 01081 10129 47217 82208 10086 20085 30046 40059 53004 72365 333 55300 20000 30000 88/05=
10129,2012,01,01,09,00,AAXX 01091 10129 27238 82308 10089 20088 30048 40061 53006 72365 333 20040 3/004 55300 20002 30002 69977 87/06 88/09=
10129,2012,01,01,10,00,AAXX 01101 10129 47360 82510 10099 20098 30055 40068 53012 72250 333 55300 20002 30002 87/07 87/11 88/17=
10129,2012,01,01,11,00,AAXX 01111 10129 47460 82408 10102 20096 30057 40070 52011 72250 333 55300 20084 30084 87/16 87/23 88/32=
10129,2012,01,01,12,00,AAXX 01121 10129 07460 82307 10096 20087 30052 40065 50004 69981 70065 333 55300 20181 30181 69917 86/15 88/65=
10129,2012,01,01,13,00,AAXX 01131 10129 45460 82407 10098 20085 30056 40069 53001 333 55300 20200 30198 87/16 88/21=
10129,2012,01,01,14,00,AAXX 01141 10129 45460 32206 10094 20083 30051 40064 57006 333 55300 20230 30217 83/15=
10129,2012,01,01,15,00,AAXX 01151 10129 35560 81804 10103 20091 30050 40063 58002 333 55300 20052 30052 82/23 88/37 88/66=
10129,2012,01,01,16,00,AAXX 01161 10129 45459 82004 10104 20095 30045 40058 57011 333 55300 20000 30000 86/16 87/24 88/31=
10129,2012,01,01,17,00,AAXX 01171 10129 47460 71805 10106 20094 30040 40053 58011 75760 333 55300 20000 30000 87/15 87/27=
10129,2012,01,01,18,00,AAXX 01181 10129 07460 81906 10106 20100 30031 40044 58019 69982 72365 333 10109 20084 3/008 55300 20000 30000 69907 87/10 88/57 88/60=
10129,2012,01,01,19,00,AAXX 01191 10129 47360 81905 10106 20106 30019 40032 58026 75865 333 55300 20000 30000 85/07 87/36 88/48=
10129,2012,01,01,20,00,AAXX 01201 10129 47260 71806 10111 20108 30002 40015 58038 76266 333 55300 20000 30000 87/06 87/11=
10129,2012,01,01,21,00,AAXX 01211 10129 27260 71809 10115 20110 39984 49997 58047 76265 333 55300 20000 30000 60067 84/06 87/14 87/25 91113=
10129,2012,01,01,22,00,AAXX 01221 10129 47460 82010 10118 20110 39971 49983 56048 76266 333 55300 20000 30000 84/10 87/14 88/33 91114=
10129,2012,01,01,23,00,AAXX 01231 10129 47460 82012 10118 20109 39960 49972 56042 75865 333 55300 20000 30000 86/12 87/18 88/31 91116 91212=
10130,2012,01,01,00,00,AAXX 01001 10130 07/01 /1703 10050 20049 30064 40070 58009 69901 73053 333 55300 69907=
10130,2012,01,01,01,00,AAXX 01011 10130 47/02 /1604 10056 20056 30056 40062 58012 75253 333 55300=
10130,2012,01,01,02,00,AAXX 01021 10130 47/06 /1705 10063 20063 30052 40058 56018 75165 333 55300=
10130,2012,01,01,03,00,AAXX 01031 10130 27/10 /1906 10075 20075 30047 40052 56017 72365 333 55300 69977=
10130,2012,01,01,04,00,AAXX 01041 10130 47/12 /2107 10085 20085 30041 40046 58015 72365 333 55300=
10130,2012,01,01,05,00,AAXX 01051 10130 47110 82107 10086 20086 30038 40043 56014 75765 333 55300 87/02 88/06=
10130,2012,01,01,06,00,AAXX 01061 10130 07215 72208 10088 20088 30036 40041 56011 60012 75765 333 10088 20032 3/003 55012 55300 69957 70014 87/04=
10130,2012,01,01,07,00,AAXX 01071 10130 47209 72208 10091 20090 30036 40041 56005 75265 333 55300 87/03=
10130,2012,01,01,08,00,AAXX 01081 10130 47210 72209 10093 20092 30039 40044 53001 72253 333 55300 87/03=
10130,2012,01,01,09,00,AAXX 01091 10130 27114 72209 10095 20095 30042 40047 53006 75265 333 20032 3/003 55300 69957 87/03=
10130,2012,01,01,10,00,AAXX 01101 10130 47243 72410 10096 20095 30049 40054 53013 72365 333 55300 85/03 87/10 91114=
10130,2012,01,01,11,00,AAXX 01111 10130 45359 82409 10094 20090 30051 40056 51012 333 55300 86/08 87/12 88/31 91114 91211=
10130,2012,01,01,12,00,AAXX 01121 10130 07462 82407 10093 20088 30048 40053 50006 69981 70065 333 55300 69937 87/10 87/28 88/70 91114 91211=
10130,2012,01,01,13,00,AAXX 01131 10130 45960 82409 10099 20091 30047 40052 58002 333 55302 88/67=
10130,2012,01,01,14,00,AAXX 01141 10130 45967 82309 10100 20090 30048 40053 55003 333 55303 87/74 88/76=
10130,2012,01,01,15,00,AAXX 01151 10130 35466 82106 10095 20086 30047 40052 57001 333 55300 86/14 87/65 88/74=
10130,2012,01,01,16,00,AAXX 01161 10130 45465 82105 10091 20083 30045 40050 58002 333 55300 83/14 88/62 88/72=
10130,2012,01,01,17,00,AAXX 01171 10130 45461 81705 10097 20090 30038 40043 58010 333 55300 87/11 88/30 88/36=
10130,2012,01,01,18,00,AAXX 01181 10130 15458 81906 10100 20093 30031 40036 58016 69982 333 10101 20088 3/009 55300 83/12 88/59 88/62=
10130,2012,01,01,19,00,AAXX 01191 10130 47356 81806 10099 20094 30021 40026 58024 76165 333 55300 87/08 88/56 88/58=
10130,2012,01,01,20,00,AAXX 01201 10130 47329 71805 10099 20095 30011 40016 58027 76265 333 55300 87/07 87/15 87/32=
10130,2012,01,01,21,00,AAXX 01211 10130 27/12 /1603 10100 20098 39992 49997 58039 76365 333 55300 60067=
10130,2012,01,01,22,00,AAXX 01221 10130 47/57 /1904 10107 20106 39968 49973 58053 76266 333 55300=
10130,2012,01,01,23,00,AAXX 01231 10130 47321 72503 10095 20095 39965 49970 56046 76366 333 55300 87/08 87/23=
10131,2012,01,01,00,00,AAXX 01001 10131 17001 82003 10067 20065 30054 40069 58010 69911 73065 333 55/// 20140 30132 55300 20000 30000 88/00=
10131,2012,01,01,01,00,AAXX 01011 10131 47009 81803 10073 20071 30047 40062 58013 75165 333 55300 20000 30000 88/01=
10131,2012,01,01,02,00,AAXX 01021 10131 47222 82005 10085 20085 30045 40060 56015 75165 333 55300 20000 30000 88/03=
10131,2012,01,01,03,00,AAXX 01031 10131 27222 82105 10089 20086 30039 40054 56015 72365 333 55300 20000 30000 69977 88/03=
10131,2012,01,01,04,00,AAXX 01041 10131 47216 82205 10091 20087 30034 40049 58013 71000 333 55300 20000 30000 88/03=
10131,2012,01,01,05,00,AAXX 01051 10131 41219 82205 10094 20090 30031 40045 56014 72162 876// 333 55300 20000 30000 87704 96010 98019=
10131,2012,01,01,06,00,AAXX 01061 10131 01226 82206 10097 20092 30031 40045 56008 60022 76165 876// 222// 02050 333 10097 20034 31003 55004 55300 20000 30000 60017 70027 87704 96010 98026=
10131,2012,01,01,07,00,AAXX 01071 10131 41220 82307 10098 20093 30031 40045 56003 75866 876// 333 55300 20000 30000 87704 96010 98020=
10131,2012,01,01,08,00,AAXX 01081 10131 41224 82206 10099 20099 30033 40047 53002 76165 876// 333 55300 20000 30000 87704 96010 98024=
10131,2012,01,01,09,00,AAXX 01091 10131 21226 82306 10101 20096 30037 40051 53006 75865 876// 333 20034 3/003 55300 20005 30005 60017 87704 96010 98026=
10131,2012,01,01,10,00,AAXX 01101 10131 41260 82407 10098 20093 30043 40057 53012 72165 876// 333 55300 20041 30041 87704=
10131,2012,01,01,11,00,AAXX 01111 10131 42466 82407 10102 20091 30044 40058 51011 875// 333 55300 20164 30163 85615 87621=
10131,2012,01,01,12,00,AAXX 01121 10131 01470 72406 10103 20089 30041 40055 50004 60011 70265 8353/ 333 31/// 55300 20205 30205 69917 83614 87365=
10131,2012,01,01,13,00,AAXX 01131 10131 42475 72306 10107 20091 30041 40055 58002 82502 333 55302 20371 30333 82613 87076=
10131,2012,01,01,14,00,AAXX 01141 10131 42473 62206 10105 20086 30042 40056 55002 81502 333 55303 20363 30305 81617 86080=
10131,2012,01,01,15,00,AAXX 01151 10131 32475 72105 10103 20085 30040 40054 58001 83532 333 55300 20089 30088 83619 87080=
10131,2012,01,01,16,00,AAXX 01161 10131 42475 72103 10104 20088 30037 40051 58004 875// 333 55300 20003 30003 83618 87650=
10131,2012,01,01,17,00,AAXX 01171 10131 47468 71904 10107 20092 30030 40044 58012 72365 333 55300 20000 30000 82/18 87/29=
10131,2012,01,01,18,00,AAXX 01181 10131 07463 81904 10107 20094 30023 40037 58017 60012 72365 333 10109 20097 3/009 55300 20000 30000 69907 87/13 88/22 88/41=
10131,2012,01,01,19,00,AAXX 01191 10131 47360 71905 10108 20098 30011 40025 58026 72365 333 55300 20000 30000 87/08 87/50 87/58=
10131,2012,01,01,20,00,AAXX 01201 10131 47317 71804 10106 20099 30000 40014 58030 76360 333 55300 20000 30000 85/08 87/29 87/44=
10131,2012,01,01,21,00,AAXX 01211 10131 27128 71203 10102 20097 39975 49989 58048 76265 333 55300 20000 30000 60097 85/02 87/05 87/11=
10131,2012,01,01,22,00,AAXX 01221 10131 47335 72608 10113 20100 39963 49977 58048 76266 333 55300 20000 30000 86/08 87/12 91114=
10131,2012,01,01,23,00,AAXX 01231 10131 47250 72804 10099 20093 39961 49975 56039 76266 333 55300 20000 30000 86/06 87/10=
10136,2012,01,01,00,00,AAXX 01001 10136 41/02 92103 10069 20066 30031 40070 57009 74754 333 89/01=
10136,2012,01,01,01,00,AAXX 01011 10136 41110 82104 10077 20075 30024 40062 57013 75144 886// 333 88703=
10136,2012,01,01,02,00,AAXX 01021 10136 41116 82206 10085 20085 30020 40058 57016 75155 886// 333 88702=
10136,2012,01,01,03,00,AAXX 01031 10136 41114 82206 10087 20085 30017 40055 57013 75154 886// 333 88702=
10136,2012,01,01,04,00,AAXX 01041 10136 41116 82305 10090 20087 30012 40050 57012 75155 886// 333 88703=
10136,2012,01,01,05,00,AAXX 01051 10136 41116 82406 10092 20090 30010 40048 57011 75155 886// 333 88703=
10136,2012,01,01,06,00,AAXX 01061 10136 11120 82406 10094 20091 30009 40047 57009 60022 75865 886// 333 10094 20033 31003 70018 88703=
10136,2012,01,01,07,00,AAXX 01071 10136 41115 82406 10094 20091 30009 40047 56002 75866 886// 333 88702=
10136,2012,01,01,08,00,AAXX 01081 10136 41112 82406 10095 20095 30012 40050 53002 75866 886// 333 88702=
10136,2012,01,01,09,00,AAXX 01091 10136 41115 82407 10097 20097 30014 40052 53006 75866 886// 333 88702=
10136,2012,01,01,10,00,AAXX 01101 10136 41145 82507 10100 20096 30022 40060 52012 72162 876// 333 87703=
10136,2012,01,01,11,00,AAXX 01111 10136 42260 72506 10102 20095 30021 40059 51009 875// 333 81706 87613=
10136,2012,01,01,12,00,AAXX 01121 10136 41466 72506 10102 20094 30019 40057 50005 70262 8117/ 333 81816 83363 87365=
10136,2012,01,01,13,00,AAXX 01131 10136 42464 72406 10102 20093 30020 40058 55002 82102 333 82815 87073=
10136,2012,01,01,14,00,AAXX 01141 10136 42470 72406 10100 20088 30020 40058 55001 83532 333 83614 87071=
10136,2012,01,01,15,00,AAXX 01151 10136 42567 72304 10099 20087 30018 40056 58002 83532 333 83625 83364 87070=
10136,2012,01,01,16,00,AAXX 01161 10136 42465 72104 10102 20091 30015 40053 58005 8657/ 333 83614 85620 87364=
10136,2012,01,01,17,00,AAXX 01171 10136 41462 72104 10104 20093 30008 40046 58012 72022 875// 333 82615 84628 87645=
10136,2012,01,01,18,00,AAXX 01181 10136 11362 82005 10104 20095 30001 40039 58017 60012 72152 875// 333 10107 20093 32009 86707 87617=
10136,2012,01,01,19,00,AAXX 01191 10136 41360 82005 10106 20098 39989 40027 57026 72122 875// 333 85707 87645=
10136,2012,01,01,20,00,AAXX 01201 10136 41230 81904 10106 20100 39974 40012 57032 76262 8572/ 333 85705 88530=
10136,2012,01,01,21,00,AAXX 01211 10136 41240 81907 10113 20108 39952 49990 57049 76362 8572/ 333 85705 88520 91013 91113=
10136,2012,01,01,22,00,AAXX 01221 10136 41250 82108 10115 20108 39938 49976 57050 76366 8672/ 333 86706 88525 91114=
10136,2012,01,01,23,00,AAXX 01231 10136 41245 82208 10118 20110 39927 49965 57051 76366 8672/ 333 86706 88525=
10139,2012,01,01,00,00,AAXX 01001 10139 17002 82003 10059 20058 30063 40077 58004 69921 73053 333 55/// 20169 30151 55300 20000 30000 88/00=
10139,2012,01,01,01,00,AAXX 01011 10139 47004 82004 10069 20068 30056 40070 58011 73053 333 55300 20000 30000 88/00=
10139,2012,01,01,02,00,AAXX 01021 10139 47105 72105 10080 20079 30055 40069 56012 75253 333 55300 20000 30000 87/02=
10139,2012,01,01,03,00,AAXX 01031 10139 27111 82204 10083 20082 30051 40065 56012 75165 333 55300 20000 30000 69937 88/03=
10139,2012,01,01,04,00,AAXX 01041 10139 47118 72205 10088 20087 30045 40059 58011 72365 333 55300 20000 30000 87/03=
10139,2012,01,01,05,00,AAXX 01051 10139 47221 82205 10095 20095 30041 40055 57014 76265 333 55300 20000 30000 88/04 88/08=
10139,2012,01,01,06,00,AAXX 01061 10139 07214 82205 10097 20097 30041 40055 56010 60012 75865 333 10097 20035 3/003 55013 55300 20000 30000 69957 70013 88/04=
10139,2012,01,01,07,00,AAXX 01071 10139 47216 82205 10097 20097 30042 40056 55003 72365 333 55300 20000 30000 87/04 88/07=
10139,2012,01,01,08,00,AAXX 01081 10139 47219 82305 10099 20096 30046 40060 53005 75150 333 55300 20000 30000 88/04=
10139,2012,01,01,09,00,AAXX 01091 10139 27223 82406 10104 20100 30046 40060 51005 76365 333 20035 3/003 55300 20000 30000 69967 87/05 88/08=
10139,2012,01,01,10,00,AAXX 01101 10139 47360 82506 10107 20107 30051 40065 53009 72365 333 55300 20034 30034 87/06 88/11=
10139,2012,01,01,11,00,AAXX 01111 10139 47367 82606 10108 20099 30055 40069 53009 75150 333 55300 20040 30040 83/07 87/11 88/26=
10139,2012,01,01,12,00,AAXX 01121 10139 07471 72405 10108 20096 30050 40064 50004 60011 72265 333 55300 20213 30213 69987 85/14 87/33 87/65=
10139,2012,01,01,13,00,AAXX 01131 10139 45469 62405 10109 20095 30052 40066 51001 333 55300 20265 30264 85/14 86/18 86/23=
10139,2012,01,01,14,00,AAXX 01141 10139 45475 72404 10109 20094 30051 40065 56004 333 55300 20219 30217 84/16 85/23 87/42=
10139,2012,01,01,15,00,AAXX 01151 10139 35464 72304 10107 20095 30051 40065 51001 333 55300 20059 30059 82/14 84/18 87/32=
10139,2012,01,01,16,00,AAXX 01161 10139 45466 82103 10107 20093 30044 40058 58008 333 55300 20000 30000 81/16 88/26=
10139,2012,01,01,17,00,AAXX 01171 10139 47461 72003 10104 20092 30041 40055 58010 75165 333 55300 20000 30000 87/17 87/26=
10139,2012,01,01,18,00,AAXX 01181 10139 07350 82105 10107 20100 30033 40047 58018 60022 75765 333 10111 20096 3/009 55300 20000 30000 69917 85/08 87/13 88/24=
10139,2012,01,01,19,00,AAXX 01191 10139 47350 82005 10109 20103 30023 40037 58021 75765 333 55300 20000 30000 86/08 87/17 88/44=
10139,2012,01,01,20,00,AAXX 01201 10139 47357 82005 10113 20107 30008 40022 58033 75765 333 55300 20000 30000 88/07 88/13=
10139,2012,01,01,21,00,AAXX 01211 10139 27328 72007 10115 20109 39990 40004 58043 76265 333 55300 20000 30000 60047 86/07 87/11 87/20=
10139,2012,01,01,22,00,AAXX 01221 10139 47456 72108 10119 20109 39975 49989 57048 76266 333 55300 20000 30000 86/12 87/17 87/23 91114=
10139,2012,01,01,23,00,AAXX 01231 10139 47457 82108 10119 20110 39965 49979 56043 75866 333 55300 20000 30000 87/11 87/17 88/22 91114=
10142,2012,01,01,00,00,AAXX 01001 10142 06002 81602 10044 20044 30044 40075 57007 69921 333 55300 69907 88/00=
10142,2012,01,01,01,00,AAXX 01011 10142 46002 81402 10049 20049 30038 40069 58010 333 55300 88/00=
10142,2012,01,01,02,00,AAXX 01021 10142 46002 81403 10055 20055 30032 40063 58015 333 55300 88/00=
10142,2012,01,01,03,00,AAXX 01031 10142 26008 81603 10062 20062 30028 40059 56016 333 55300 69947 88/01=
10142,2012,01,01,04,00,AAXX 01041 10142 46115 81704 10075 20075 30021 40052 58017 333 55300 88/02=
10142,2012,01,01,05,00,AAXX 01051 10142 46111 81904 10083 20083 30017 40048 57015 333 55300 88/02=
10142,2012,01,01,06,00,AAXX 01061 10142 06214 82004 10088 20088 30014 40045 56014 60022 333 10088 20031 3/003 55001 55300 60027 70025 88/03=
10142,2012,01,01,07,00,AAXX 01071 10142 46224 82105 10095 20095 30014 40045 56007 333 55300 88/04=
10142,2012,01,01,08,00,AAXX 01081 10142 46213 82205 10097 20097 30017 40048 55000 333 55300 88/04=
10142,2012,01,01,09,00,AAXX 01091 10142 26220 82205 10099 20099 30018 40049 53004 333 20031 3/003 55300 60037 88/04=
10142,2012,01,01,10,00,AAXX 01101 10142 46230 82305 10101 20101 30023 40054 53009 333 55300 88/04=
10142,2012,01,01,11,00,AAXX 01111 10142 46356 72405 10103 20102 30024 40055 52007 333 55300 87/07=
10142,2012,01,01,12,00,AAXX 01121 10142 06466 82304 10104 20097 30025 40056 51007 60031 333 55300 69967 87/12 88/17 88/30=
10142,2012,01,01,13,00,AAXX 01131 10142 46472 82304 10104 20094 30025 40056 51002 333 55300 87/13 87/19 88/28=
10142,2012,01,01,14,00,AAXX 01141 10142 46472 82305 10105 20093 30026 40057 52002 333 55300 84/12 87/22 88/32=
10142,2012,01,01,15,00,AAXX 01151 10142 36477 82104 10102 20090 30027 40058 53002 333 55300 88/17=
10142,2012,01,01,16,00,AAXX 01161 10142 46576 82104 10098 20086 30024 40055 58001 333 55300 85/23 86/49 88/64=
10142,2012,01,01,17,00,AAXX 01171 10142 46564 81803 10098 20090 30020 40051 58006 333 55300 83/20 84/27 88/38=
10142,2012,01,01,18,00,AAXX 01181 10142 06562 81703 10101 20092 30012 40043 58015 60032 333 10105 20089 3/008 55300 69907 82/25 87/48 88/50=
10142,2012,01,01,19,00,AAXX 01191 10142 46358 81804 10104 20096 30003 40034 58021 333 55300 86/08 87/12 88/23=
10142,2012,01,01,20,00,AAXX 01201 10142 46257 81705 10105 20100 39989 40020 58031 333 55300 87/05 88/50=
10142,2012,01,01,21,00,AAXX 01211 10142 26215 71902 10103 20100 39975 40006 58037 333 55300 60037 85/05 86/08 87/33=
10142,2012,01,01,22,00,AAXX 01221 10142 46356 81706 10112 20109 39955 49985 58048 333 55300 87/06 88/11=
10142,2012,01,01,23,00,AAXX 01231 10142 46450 71807 10114 20109 39937 49967 58052 333 55300 87/10 87/19 87/26=
10146,2012,01,01,00,00,AAXX 01001 10146 07002 81703 10047 20045 30065 40082 57008 69941 73065 333 55300 69917 88/00=
10146,2012,01,01,01,00,AAXX 01011 10146 47090 81502 10050 20048 30061 40078 58008 73033 333 55300 88/00=
10146,2012,01,01,02,00,AAXX 01021 10146 47000 81603 10055 20055 30057 40074 57012 73033 333 55300 88/00=
10146,2012,01,01,03,00,AAXX 01031 10146 27002 81603 10058 20057 30052 40069 58013 75265 333 55300 69937 88/00=
10146,2012,01,01,04,00,AAXX 01041 10146 47219 81903 10076 20075 30048 40065 57013 75165 333 55300 88/03=
10146,2012,01,01,05,00,AAXX 01051 10146 47222 81903 10083 20082 30042 40059 58015 75150 333 55300 88/03=
10146,2012,01,01,06,00,AAXX 01061 10146 07220 82104 10090 20089 30039 40056 56013 60012 76265 333 10090 20033 3/003 55005 55300 69967 70016 88/03=
10146,2012,01,01,07,00,AAXX 01071 10146 47219 82104 10095 20095 30040 40057 55008 76265 333 55300 88/04=
10146,2012,01,01,08,00,AAXX 01081 10146 47217 82204 10099 20096 30043 40060 53001 75765 333 55300 88/05=
10146,2012,01,01,09,00,AAXX 01091 10146 27231 82204 10101 20097 30042 40059 50003 72365 333 20033 3/003 55300 60027 88/04=
10146,2012,01,01,10,00,AAXX 01101 10146 47217 82305 10104 20100 30046 40063 53006 75265 333 55300 88/05 88/09=
10146,2012,01,01,11,00,AAXX 01111 10146 47256 82404 10107 20102 30047 40064 53004 75155 333 55300 87/06 88/09=
10146,2012,01,01,12,00,AAXX 01121 10146 07369 82504 10108 20099 30049 40066 51007 60031 72265 333 55300 60017 84/07 87/30 88/37=
10146,2012,01,01,13,00,AAXX 01131 10146 45475 82304 10109 20096 30046 40063 50000 333 55300 81/11 85/16 88/22=
10146,2012,01,01,14,00,AAXX 01141 10146 45474 72204 10108 20093 30050 40067 53003 333 55300 81/12 84/18 87/35=
10146,2012,01,01,15,00,AAXX 01151 10146 35473 12303 10102 20088 30051 40068 53002 333 55300 81/19=
10146,2012,01,01,16,00,AAXX 01161 10146 45461 51802 10086 20076 30047 40064 50001 333 55300 82/19 85/67=
10146,2012,01,01,17,00,AAXX 01171 10146 45659 71802 10096 20089 30045 40062 58005 333 55300 87/34=
10146,2012,01,01,18,00,AAXX 01181 10146 15560 81803 10102 20092 30038 40055 58013 60032 333 10110 20084 3/006 55300 87/20 88/31 88/50=
10146,2012,01,01,19,00,AAXX 01191 10146 47350 71803 10103 20098 30029 40046 58018 75765 333 55300 87/06 87/12 87/18=
10146,2012,01,01,20,00,AAXX 01201 10146 47356 71804 10109 20103 30016 40033 58029 75765 333 55300 87/07 87/12=
10146,2012,01,01,21,00,AAXX 01211 10146 27339 81805 10114 20107 39999 40016 58039 76265 333 55300 69997 87/09 88/14=
10146,2012,01,01,22,00,AAXX 01221 10146 47358 81906 10117 20109 39983 40000 58046 76266 333 55300 86/08 87/11 88/15=
10146,2012,01,01,23,00,AAXX 01231 10146 47463 81907 10119 20108 39969 49986 56047 75766 333 55300 87/12 88/18 88/23 91113=
10147,2012,01,01,00,00,AAXX 01001 10147 01/01 91602 10045 20045 30065 40084 56006 69941 74764 333 31/// 55/// 20161 30141 42660 55300 20000 30000 41210 69927=
10147,2012,01,01,01,00,AAXX 01011 10147 41/01 91502 10046 20045 30062 40081 58005 74544 333 55300 20000 30000 41216=
10147,2012,01,01,02,00,AAXX 01021 10147 41/02 91403 10051 20050 30057 40075 58010 74344 333 55300 20000 30000 41222=
10147,2012,01,01,03,00,AAXX 01031 10147 21008 81603 10060 20060 30051 40069 58014 75864 886// 333 55300 20000 30000 41235 69917 88701 96043=
10147,2012,01,01,04,00,AAXX 01041 10147 41125 81703 10070 20070 30047 40065 56015 75864 886// 333 55300 20000 30000 41251 84702 87603=
10147,2012,01,01,05,00,AAXX 01051 10147 41132 82005 10088 20088 30041 40059 57016 72162 886// 333 55300 20000 30000 41274 88703=
10147,2012,01,01,06,00,AAXX 01061 10147 01140 82105 10094 20092 30038 40056 56013 60012 75064 886// 333 10094 20035 31003 55006 55300 20000 30000 41291 69957 70011 87703=
10147,2012,01,01,07,00,AAXX 01071 10147 41140 82206 10097 20097 30038 40056 56009 75866 886// 333 55300 20000 30000 41298 87703=
10147,2012,01,01,08,00,AAXX 01081 10147 41130 82206 10100 20096 30042 40060 53001 75966 886// 333 55300 20000 30000 41302 87703=
10147,2012,01,01,09,00,AAXX 01091 10147 21145 82206 10103 20099 30041 40059 50003 72066 886// 333 20035 3/003 55300 20012 30009 41306 60017 82703 87705=
10147,2012,01,01,10,00,AAXX 01101 10147 41145 82305 10106 20106 30044 40062 51006 75122 886// 333 55300 20045 30041 41312 82703 87706=
10147,2012,01,01,11,00,AAXX 01111 10147 41145 82406 10109 20104 30044 40062 53002 75055 886// 333 55300 20063 30057 41318 82703 87707=
10147,2012,01,01,12,00,AAXX 01121 10147 01363 82605 10111 20102 30047 40065 52006 60021 72065 875// 333 31/// 55300 20138 30131 41305 69957 84709 87622=
10147,2012,01,01,13,00,AAXX 01131 10147 42470 82304 10109 20097 30045 40063 50001 8651/ 333 55300 20246 30236 41219 81710 86618 88463=
10147,2012,01,01,14,00,AAXX 01141 10147 42475 72405 10110 20096 30048 40066 52004 85531 333 55300 20146 30138 41257 82615 85633=
10147,2012,01,01,15,00,AAXX 01151 10147 32475 72304 10104 20089 30048 40066 53001 81531 333 55300 20115 30105 41055 81615 87075=
10147,2012,01,01,16,00,AAXX 01161 10147 42470 62203 10092 20084 30047 40065 50002 81531 333 55300 20006 30005 41071 81615 83363 85075=
10147,2012,01,01,17,00,AAXX 01171 10147 42565 82104 10104 20096 30043 40061 58005 875// 333 55300 20000 30000 41168 87626=
10147,2012,01,01,18,00,AAXX 01181 10147 01361 81804 10109 20097 30037 40055 58011 60022 75122 875// 333 10111 20088 31007 55300 20000 30000 41277 69907 84707 87614=
10147,2012,01,01,19,00,AAXX 01191 10147 41357 81604 10107 20101 30028 40046 58019 75865 877// 333 55300 20000 30000 41313 87709=
10147,2012,01,01,20,00,AAXX 01201 10147 41358 81704 10111 20105 30016 40034 58027 75162 877// 333 55300 20000 30000 41318 87708=
10147,2012,01,01,22,00,AAXX 01221 10147 41362 81807 10121 20111 39982 40000 58046 76166 875// 333 55300 20000 30000 41329 85708 87612=
10147,2012,01,01,23,00,AAXX 01231 10147 41460 82009 10124 20111 39970 49988 56046 76166 875// 333 55300 20000 30000 41331 85610 87615 91113=
10150,2012,01,01,00,00,AAXX 01001 10150 07/// /1703 10035 20035 30047 40082 56008 69931 72265 333 55/// 20073 30073 55300 20000 30000 69927=
10150,2012,01,01,01,00,AAXX 01011 10150 45/// /1503 10037 20035 30041 40076 58009 333 55300 20000 30000=
10150,2012,01,01,02,00,AAXX 01021 10150 45/// /1703 10041 20039 30038 40072 58010 333 55300 20000 30000=
10150,2012,01,01,03,00,AAXX 01031 10150 35/// /1704 10045 20045 30031 40065 58016 333 55300 20000 30000=
10150,2012,01,01,04,00,AAXX 01041 10150 47/// /1704 10051 20049 30026 40060 58015 75165 333 55300 20000 30000=
10150,2012,01,01,05,00,AAXX 01051 10150 471// 71804 10059 20057 30019 40053 57019 72365 333 55300 20000 30000 87/02=
10150,2012,01,01,06,00,AAXX 01061 10150 071// 81905 10072 20069 30013 40047 58018 69962 70065 333 10072 20030 3/003 55000 55300 20000 30000 69937 70006 88/01=
10150,2012,01,01,07,00,AAXX 01071 10150 471// 72005 10081 20078 30012 40046 56014 75765 333 55300 20000 30000 87/02=
10150,2012,01,01,08,00,AAXX 01081 10150 472// 72105 10090 20085 30014 40048 55005 75165 333 55300 20000 30000 87/04=
10150,2012,01,01,09,00,AAXX 01091 10150 272// 82206 10097 20091 30013 40047 54000 72365 333 20030 3/003 55300 20004 30004 60027 87/04 88/11=
10150,2012,01,01,10,00,AAXX 01101 10150 472// 72306 10100 20094 30018 40052 53006 72365 333 55300 20043 30043 87/04 87/10=
10150,2012,01,01,11,00,AAXX 01111 10150 472// 72406 10102 20095 30018 40052 53004 75165 333 55300 20085 30085 86/05 87/14=
10150,2012,01,01,12,00,AAXX 01121 10150 072// 72507 10105 20092 30018 40052 51005 60021 72265 333 55300 20065 30065 69937 83/06 87/10 87/28=
10150,2012,01,01,13,00,AAXX 01131 10150 454// 82506 10104 20088 30018 40052 54000 333 55300 20132 30132 86/13 87/23 88/28=
10150,2012,01,01,14,00,AAXX 01141 10150 454// 82405 10105 20087 30021 40055 53003 333 55300 20130 30130 87/13 87/19 88/28=
10150,2012,01,01,15,00,AAXX 01151 10150 354// 72305 10104 20088 30022 40056 53004 333 55300 20017 30017 87/12 87/17 87/29=
10150,2012,01,01,16,00,AAXX 01161 10150 454// 82204 10101 20084 30022 40056 51004 333 55300 20000 30000 85/15 88/20=
10150,2012,01,01,17,00,AAXX 01171 10150 455// 82104 10096 20080 30023 40057 52002 333 55300 20000 30000 84/24 88/62 88/65=
10150,2012,01,01,18,00,AAXX 01181 10150 154// 81805 10092 20080 30014 40048 58008 60022 333 10106 20071 3/007 55300 20000 30000 81/17 88/43 88/61=
10150,2012,01,01,19,00,AAXX 01191 10150 475// 81805 10094 20083 30008 40042 58014 72365 333 55300 20000 30000 82/22 87/50 88/59=
10150,2012,01,01,20,00,AAXX 01201 10150 472// 71805 10097 20090 39997 40031 58026 72365 333 55300 20000 30000 83/05 87/08=
10150,2012,01,01,21,00,AAXX 01211 10150 272// 71805 10100 20093 39982 40015 58032 75865 333 55300 20000 30000 69937 83/04 87/15 87/38=
10150,2012,01,01,22,00,AAXX 01221 10150 472// 71706 10105 20100 39960 49993 58048 76266 333 55300 20000 30000 87/06 87/12=
10150,2012,01,01,23,00,AAXX 01231 10150 473// 71908 10113 20104 39946 49979 56051 76266 333 55300 20000 30000 87/09 87/15=
10152,2012,01,01,00,00,AAXX 01001 10152 07106 72006 10036 20036 30083 40085 55003 69951 75265 333 55300 69947 86/02 87/07=
10152,2012,01,01,01,00,AAXX 01011 10152 47018 72006 10038 20035 30077 40079 58008 72365 333 55300 87/01=
10152,2012,01,01,02,00,AAXX 01021 10152 47015 71906 10041 20039 30071 40073 58010 71000 333 55300 86/01 87/04=
10152,2012,01,01,03,00,AAXX 01031 10152 27014 71906 10044 20042 30067 40069 56016 71065 333 55300 69917 87/01 87/05=
10152,2012,01,01,04,00,AAXX 01041 10152 47025 72004 10049 20048 30062 40064 56015 72030 333 55300 86/01 87/05=
10152,2012,01,01,05,00,AAXX 01051 10152 47/21 /1906 10052 20051 30053 40055 58018 72250 333 55300=
10152,2012,01,01,06,00,AAXX 01061 10152 07122 72106 10061 20060 30047 40049 58020 69992 72365 333 10061 20035 3/003 55000 55300 69937 70009 87/01 87/07=
10152,2012,01,01,07,00,AAXX 01071 10152 47115 72106 10066 20065 30046 40048 56016 76260 333 55300 87/01 87/07=
10152,2012,01,01,08,00,AAXX 01081 10152 47226 72105 10070 20069 30046 40048 56007 75165 333 55300 87/03=
10152,2012,01,01,09,00,AAXX 01091 10152 27214 72105 10073 20072 30046 40048 56001 72365 333 20035 3/003 55300 60027 86/03 87/09=
10152,2012,01,01,10,00,AAXX 01101 10152 47223 72304 10085 20085 30047 40049 53001 75150 333 55300 87/05=
10152,2012,01,01,11,00,AAXX 01111 10152 47228 72405 10090 20089 30048 40050 53002 75150 333 55300 87/06 87/13=
10152,2012,01,01,12,00,AAXX 01121 10152 07361 72506 10099 20095 30049 40051 52003 60021 75165 333 55300 69917 87/07 87/16=
10152,2012,01,01,13,00,AAXX 01131 10152 47468 72504 10103 20090 30047 40049 50000 72250 333 55300 84/14 85/21 87/30=
10152,2012,01,01,14,00,AAXX 01141 10152 45476 82404 10099 20086 30052 40054 53004 333 55300 82/13 87/30 88/69=
10152,2012,01,01,15,00,AAXX 01151 10152 27471 82403 10093 20081 30054 40056 53005 70050 333 55300 69907 87/13 88/19 88/34=
10152,2012,01,01,16,00,AAXX 01161 10152 45465 82203 10079 20071 30057 40059 51010 333 55300 87/14 87/23 88/66=
10152,2012,01,01,17,00,AAXX 01171 10152 45564 72204 10078 20070 30057 40059 51005 333 55300 86/22 87/27 87/65=
10152,2012,01,01,18,00,AAXX 01181 10152 17457 81805 10072 20068 30049 40051 58005 60022 71050 333 10104 20061 3/006 55300 85/10 88/36 88/43=
10152,2012,01,01,19,00,AAXX 01191 10152 47647 81905 10071 20068 30045 40047 58012 72365 333 55300 88/47 88/57 88/59=
10152,2012,01,01,20,00,AAXX 01201 10152 47224 71807 10076 20076 30032 40034 58025 75165 333 55300 81/05 86/19 87/37=
10152,2012,01,01,21,00,AAXX 01211 10152 27231 71807 10078 20077 30018 40020 58031 76165 333 55300 69937 87/06 87/25 87/32=
10152,2012,01,01,22,00,AAXX 01221 10152 47319 71808 10084 20083 30000 40002 58045 76265 333 55300 87/08=
10152,2012,01,01,23,00,AAXX 01231 10152 47356 82011 10095 20095 39983 49985 58049 76266 333 55300 86/09 87/14 88/32 91211=
10156,2012,01,01,00,00,AAXX 01001 10156 07218 81703 10032 20030 30068 40090 55005 69931 72265 333 55/// 20085 30085 55300 20000 30000 69937 88/03=
10156,2012,01,01,01,00,AAXX 01011 10156 47112 81704 10033 20032 30063 40085 58007 72030 333 55300 20000 30000 88/02=
10156,2012,01,01,02,00,AAXX 01021 10156 47110 71704 10037 20036 30059 40081 58008 72030 333 55300 20000 30000 87/02=
10156,2012,01,01,03,00,AAXX 01031 10156 27109 71603 10041 20041 30053 40075 58015 73030 333 55300 20000 30000 69917 87/01=
10156,2012,01,01,04,00,AAXX 01041 10156 47107 81603 10051 20051 30048 40070 58015 75253 333 55300 20000 30000 88/01=
10156,2012,01,01,05,00,AAXX 01051 10156 47231 81704 10062 20061 30042 40063 57017 75165 333 55300 20000 30000 88/04=
10156,2012,01,01,06,00,AAXX 01061 10156 07226 71705 10067 20065 30037 40058 57016 69992 72265 333 10067 20028 3/003 55000 55300 20000 30000 69957 70009 87/04=
10156,2012,01,01,07,00,AAXX 01071 10156 47217 81905 10075 20075 30037 40058 56011 75165 333 55300 20000 30000 88/03=
10156,2012,01,01,08,00,AAXX 01081 10156 47229 82006 10083 20081 30037 40058 56005 76165 333 55300 20000 30000 88/06=
10156,2012,01,01,09,00,AAXX 01091 10156 27329 72207 10094 20091 30038 40059 53001 75765 333 20028 3/003 55300 20008 30008 60027 87/06=
10156,2012,01,01,10,00,AAXX 01101 10156 47326 72307 10100 20095 30038 40059 52001 75265 333 55300 20061 30061 87/07=
10156,2012,01,01,11,00,AAXX 01111 10156 47341 82406 10102 20098 30039 40060 52002 75165 333 55300 20102 30102 87/07 88/11=
10156,2012,01,01,12,00,AAXX 01121 10156 07356 82406 10104 20099 30042 40063 53004 60021 75165 333 55300 20077 30077 69967 87/08 88/13=
10156,2012,01,01,13,00,AAXX 01131 10156 47472 82506 10106 20095 30040 40061 50002 72365 333 55300 20162 30162 84/13 85/17 88/35=
10156,2012,01,01,14,00,AAXX 01141 10156 45478 82407 10106 20092 30045 40066 53006 333 55300 20127 30127 82/17 85/29 88/36=
10156,2012,01,01,15,00,AAXX 01151 10156 27476 22405 10098 20084 30045 40066 53003 70065 333 55300 20092 30092 69917 81/15=
10156,2012,01,01,16,00,AAXX 01161 10156 45970 62204 10092 20079 30045 40066 51005 333 55300 20002 30002 86/77=
10156,2012,01,01,17,00,AAXX 01171 10156 45463 71803 10091 20081 30046 40067 53001 333 55300 20000 30000 82/15 85/59 87/66=
10156,2012,01,01,18,00,AAXX 01181 10156 17661 81804 10096 20087 30038 40059 58007 60022 70065 333 10107 20067 3/006 55300 20000 30000 81/34 87/61 88/64=
10156,2012,01,01,19,00,AAXX 01191 10156 47444 81804 10098 20093 30032 40053 58013 75165 333 55300 20000 30000 83/13 87/21 88/28=
10156,2012,01,01,20,00,AAXX 01201 10156 47316 81805 10104 20099 30021 40042 58025 75865 333 55300 20000 30000 88/07=
10156,2012,01,01,21,00,AAXX 01211 10156 27342 81806 10109 20102 30006 40027 58032 76165 333 55300 20000 30000 69967 83/07 87/11 88/31=
10156,2012,01,01,22,00,AAXX 01221 10156 47323 71807 10111 20104 39988 40009 58044 74365 333 55300 20000 30000 86/09 87/12 87/16=
10156,2012,01,01,23,00,AAXX 01231 10156 47459 71909 10116 20105 39974 49995 56047 76166 333 55300 20000 30000 87/11 87/19 87/24 91113=
10161,2012,01,01,00,00,AAXX 01001 10161 07231 71804 10028 20023 30068 40088 57006 69901 72265 333 55/// 20084 30084 55300 20000 30000 69907 87/03=
10161,2012,01,01,01,00,AAXX 01011 10161 47/38 /1704 10029 20025 30065 40085 56008 75165 333 55300 20000 30000=
10161,2012,01,01,02,00,AAXX 01021 10161 47/29 /1704 10031 20027 30060 40080 58009 72250 333 55300 20000 30000=
10161,2012,01,01,03,00,AAXX 01031 10161 27/28 /1904 10035 20035 30054 40074 58014 71065 333 55300 20000 30000 69917=
10161,2012,01,01,04,00,AAXX 01041 10161 47/20 /1805 10039 20035 30049 40069 57016 71000 333 55300 20000 30000=
10161,2012,01,01,05,00,AAXX 01051 10161 47/14 /1804 10044 20041 30043 40063 57017 75150 333 55300 20000 30000=
10161,2012,01,01,06,00,AAXX 01061 10161 07/15 /1905 10054 20050 30037 40057 58017 69952 75265 333 10054 20027 3/002 55000 55300 20000 30000 69947 70005=
10161,2012,01,01,07,00,AAXX 01071 10161 47119 81905 10064 20060 30035 40055 56014 72250 333 55300 20000 30000 88/02=
10161,2012,01,01,08,00,AAXX 01081 10161 47125 72006 10070 20066 30033 40053 56010 76265 333 55300 20000 30000 87/02=
10161,2012,01,01,09,00,AAXX 01091 10161 27124 72006 10078 20078 30033 40052 56004 72365 333 20027 3/002 55300 20003 30003 60027 87/03=
10161,2012,01,01,10,00,AAXX 01101 10161 47130 72106 10089 20089 30034 40053 55001 72250 333 55300 20061 30061 84/03 85/10 87/15=
10161,2012,01,01,11,00,AAXX 01111 10161 47343 72206 10097 20092 30035 40054 53002 72250 333 55300 20118 30118 87/07 87/13=
10161,2012,01,01,12,00,AAXX 01121 10161 07350 72307 10103 20094 30036 40055 52003 60021 75165 333 55300 20130 30130 69907 87/07=
10161,2012,01,01,13,00,AAXX 01131 10161 47467 82306 10105 20093 30035 40054 50001 72365 333 55300 20131 30131 82/10 88/62 88/65=
10161,2012,01,01,14,00,AAXX 01141 10161 45480 72306 10104 20086 30038 40057 53003 333 55300 20148 30147 81/13 85/26 87/30=
10161,2012,01,01,15,00,AAXX 01151 10161 27478 82205 10102 20083 30041 40060 53005 70065 333 55300 20057 30057 69907 82/14 88/31 88/78=
10161,2012,01,01,16,00,AAXX 01161 10161 45472 82105 10091 20077 30043 40062 51008 333 55300 20000 30000 81/14 88/28 88/67=
10161,2012,01,01,17,00,AAXX 01171 10161 45464 82003 10090 20077 30047 40066 53009 333 55300 20000 30000 86/12 88/22 88/65=
10161,2012,01,01,18,00,AAXX 01181 10161 17459 81903 10087 20077 30039 40058 58002 60022 70065 333 10106 20055 3/005 55300 20000 30000 81/10 88/64 88/68=
10161,2012,01,01,19,00,AAXX 01191 10161 45563 81804 10094 20082 30033 40052 58010 333 55300 20000 30000 84/28 88/58 88/63=
10161,2012,01,01,20,00,AAXX 01201 10161 47239 71704 10092 20085 30023 40042 58024 75165 333 55300 20000 30000 87/06=
10161,2012,01,01,21,00,AAXX 01211 10161 27258 81705 10101 20095 30009 40028 58030 72365 333 55300 20000 30000 69927 88/05=
10161,2012,01,01,22,00,AAXX 01221 10161 47357 81707 10107 20098 39990 40009 58043 76165 333 55300 20000 30000 88/07 88/24 88/49=
10161,2012,01,01,23,00,AAXX 01231 10161 47363 81907 10110 20100 39975 49994 58048 76165 333 55300 20000 30000 88/07 88/23 91113=
10162,2012,01,01,00,00,AAXX 01001 10162 07207 81702 10026 20026 30009 40093 57006 69911 75165 333 55/// 20103 30102 55300 20000 30000 69917 88/03=
10162,2012,01,01,01,00,AAXX 01011 10162 47111 81802 10028 20026 30007 40091 57006 75355 333 55300 20000 30000 88/03=
10162,2012,01,01,02,00,AAXX 01021 10162 47114 81702 10030 20029 30001 40085 58010 72365 333 55300 20000 30000 88/02=
10162,2012,01,01,03,00,AAXX 01031 10162 27006 82002 10033 20033 30000 40084 56009 73065 333 55300 20000 30000 69937 88/01=
10162,2012,01,01,04,00,AAXX 01041 10162 47004 81803 10039 20039 39995 40078 56012 73033 333 55300 20000 30000 88/01=
10162,2012,01,01,05,00,AAXX 01051 10162 41/06 91903 10044 20044 39990 40073 58011 75144 333 55300 20000 30000 96043=
10162,2012,01,01,06,00,AAXX 01061 10162 01/09 92003 10050 20050 39985 40068 57015 69962 76165 333 10051 20026 31002 55000 55300 20000 30000 69927 70006 96043=
10162,2012,01,01,07,00,AAXX 01071 10162 41117 81903 10059 20059 39983 40066 56012 72164 876// 333 55300 20000 30000 87702=
10162,2012,01,01,08,00,AAXX 01081 10162 41118 82107 10073 20072 39983 40065 56007 76162 877// 333 55300 20000 30000 87703=
10162,2012,01,01,09,00,AAXX 01091 10162 21118 82105 10075 20075 39982 40064 56003 76364 877// 333 20026 3/002 55300 20000 30000 60027 87703=
10162,2012,01,01,10,00,AAXX 01101 10162 41119 82206 10083 20081 39981 40063 58002 72166 886// 333 55300 20038 30038 88703=
10162,2012,01,01,11,00,AAXX 01111 10162 41115 82205 10087 20085 39982 40064 55001 75352 886// 333 55300 20076 30076 88703=
10162,2012,01,01,12,00,AAXX 01121 10162 01225 82406 10098 20095 39982 40063 55000 60031 72165 876// 333 31/// 55300 20057 30056 60017 87704=
10162,2012,01,01,13,00,AAXX 01131 10162 41240 82506 10102 20098 39981 40062 50000 75152 877// 333 55300 20054 30054 87705=
10162,2012,01,01,14,00,AAXX 01141 10162 41470 62406 10102 20094 39984 40065 53002 72052 86100 333 55300 20112 30112 86810=
10162,2012,01,01,15,00,AAXX 01151 10162 21470 72305 10100 20090 39988 40069 53006 70352 875// 333 55300 20043 30042 69907 87613=
10162,2012,01,01,16,00,AAXX 01161 10162 42568 62304 10091 20081 39989 40071 51008 82506 333 55300 20000 30000 82630 86279=
10162,2012,01,01,17,00,AAXX 01171 10162 45459 62003 10088 20082 39990 40072 51006 333 55300 20000 30000 81/14 84/34 86/64=
10162,2012,01,01,18,00,AAXX 01181 10162 17557 61903 10091 20086 39985 40067 58003 60032 71065 333 10104 20051 3/005 55300 20000 30000 84/29 86/65 86/67=
10162,2012,01,01,19,00,AAXX 01191 10162 47230 81903 10096 20091 39981 40063 58008 75250 333 55300 20000 30000 82/04 86/19 88/24=
10162,2012,01,01,20,00,AAXX 01201 10162 47226 81903 10102 20097 39970 40051 58020 72250 333 55300 20000 30000 87/05 88/11=
10162,2012,01,01,22,00,AAXX 01221 10162 47258 81903 10106 20100 39944 40025 58037 76165 333 55300 20000 30000 88/06=
10162,2012,01,01,23,00,AAXX 01231 10162 47378 82005 10107 20098 39928 40009 58042 75165 333 55300 20000 30000 87/08 88/14=
10168,2012,01,01,00,00,AAXX 01001 10168 17230 81502 10024 20019 30021 40094 58009 60001 71000 333 55300 88/04 88/14 88/18=
10168,2012,01,01,01,00,AAXX 01011 10168 47219 81602 10025 20020 30021 40094 57005 75154 333 55300 88/04=
10168,2012,01,01,02,00,AAXX 01021 10168 47/11 /1603 10025 20025 30016 40089 57010 75150 333 55300=
10168,2012,01,01,03,00,AAXX 01031 10168 27/21 /1703 10027 20025 30014 40087 58007 72254 333 55300 69917=
10168,2012,01,01,04,00,AAXX 01041 10168 47/17 /1603 10031 20030 30010 40083 56011 72254 333 55300=
10168,2012,01,01,05,00,AAXX 01051 10168 47/05 /1603 10034 20033 30006 40079 58010 73030 333 55300=
10168,2012,01,01,06,00,AAXX 01061 10168 07/04 /1603 10038 20038 30001 40074 58013 69912 75154 333 10038 20021 3/001 55000 55300 69907 70001=
10168,2012,01,01,07,00,AAXX 01071 10168 47/13 /1804 10045 20045 39999 40072 56011 75865 333 55300=
10168,2012,01,01,08,00,AAXX 01081 10168 47124 71804 10052 20052 39998 40070 56008 75165 333 55300 87/01=
10168,2012,01,01,09,00,AAXX 01091 10168 27115 71904 10064 20064 39996 40068 57005 76265 333 20021 3/001 55300 60017 87/02 87/06=
10168,2012,01,01,10,00,AAXX 01101 10168 47224 81904 10072 20072 39994 40066 58005 76266 333 55300 87/03 88/10=
10168,2012,01,01,11,00,AAXX 01111 10168 47256 72204 10085 20085 39994 40065 56004 72365 333 55300 87/05=
10168,2012,01,01,12,00,AAXX 01121 10168 07223 72204 10092 20090 39991 40062 58005 60041 76265 333 55300 60037 87/03=
10168,2012,01,01,13,00,AAXX 01131 10168 47237 72405 10095 20095 39990 40061 58004 75165 333 55300 87/04 87/12=
10168,2012,01,01,14,00,AAXX 01141 10168 47259 82405 10100 20097 39991 40062 55003 72250 333 55300 87/06 87/12 88/27=
10168,2012,01,01,15,00,AAXX 01151 10168 27369 82504 10100 20094 30000 40071 53009 70065 333 55300 69937 87/09 87/20 88/29=
10168,2012,01,01,16,00,AAXX 01161 10168 45466 82103 10096 20090 30000 40071 51010 333 55300 84/10 87/31 88/76=
10168,2012,01,01,17,00,AAXX 01171 10168 45563 82103 10089 20084 30004 40075 51013 333 55300 82/26 88/73 88/80=
10168,2012,01,01,18,00,AAXX 01181 10168 17456 82003 10086 20086 39998 40069 58002 60052 71065 333 10102 20038 3/004 55300 82/14 87/62 88/66=
10168,2012,01,01,19,00,AAXX 01191 10168 47456 81903 10091 20089 39996 40067 58004 71000 333 55300 82/11 84/20 88/26=
10168,2012,01,01,20,00,AAXX 01201 10168 47214 81603 10081 20080 39987 40058 58017 72253 333 55300 87/05 87/16 88/21=
10168,2012,01,01,21,00,AAXX 01211 10168 27249 81804 10099 20098 39977 40048 58021 75153 333 55300 69907 88/04=
10168,2012,01,01,22,00,AAXX 01221 10168 47367 81805 10107 20102 39964 40035 58032 76165 333 55300 88/07 88/28=
10168,2012,01,01,23,00,AAXX 01231 10168 47356 81705 10102 20097 39948 40019 58039 76265 333 55300 87/07 88/27 88/56=
10170,2012,01,01,00,00,AAXX 01001 10170 01430 81504 10024 20014 30076 40092 58014 69901 71061 885// 333 31/// 55/// 20167 30113 55300 20000 30000 69907 88617 98030=
10170,2012,01,01,01,00,AAXX 01011 10170 41557 81703 10028 20014 30076 40092 56009 71022 885// 333 55300 20000 30000 88621=
10170,2012,01,01,02,00,AAXX 01021 10170 41256 81603 10026 20017 30070 40086 56013 71022 886// 333 55300 20000 30000 88706=
10170,2012,01,01,03,00,AAXX 01031 10170 31256 81703 10029 20021 30065 40081 58011 71022 886// 333 55300 20000 30000 88704=
10170,2012,01,01,04,00,AAXX 01041 10170 41256 81704 10033 20025 30061 40077 56015 72122 886// 333 55300 20000 30000 88704=
10170,2012,01,01,05,00,AAXX 01051 10170 41145 81704 10036 20030 30054 40070 58016 71022 886// 333 55300 20000 30000 88703 98045=
10170,2012,01,01,06,00,AAXX 01061 10170 01145 81704 10040 20036 30048 40064 58017 69902 72062 886// 333 10040 20020 31001 55023 55300 20000 30000 69907 79999 88702 98045=
10170,2012,01,01,07,00,AAXX 01071 10170 41125 81704 10047 20047 30045 40061 56016 75862 877// 333 55300 20000 30000 87703 98025=
10170,2012,01,01,08,00,AAXX 01081 10170 41231 81805 10055 20055 30044 40060 56010 75866 877// 333 55300 20000 30000 87704 98031=
10170,2012,01,01,09,00,AAXX 01091 10170 21250 81805 10063 20059 30040 40056 58008 76362 877// 333 20020 3/001 55300 20010 30010 60047 87704 92504 98050=
10170,2012,01,01,10,00,AAXX 01101 10170 41260 81905 10075 20070 30040 40056 56005 76166 877// 333 55300 20041 30041 87706=
10170,2012,01,01,11,00,AAXX 01111 10170 41359 82104 10086 20086 30039 40055 56005 72122 877// 333 55300 20086 30085 87707=
10170,2012,01,01,12,00,AAXX 01121 10170 01256 82105 10095 20090 30037 40053 58003 60041 72162 877// 333 32/// 55300 20101 30099 69987 87706=
10170,2012,01,01,13,00,AAXX 01131 10170 41464 82305 10106 20095 30041 40057 53001 72122 877// 333 55300 20094 30093 87710=
10170,2012,01,01,14,00,AAXX 01141 10170 42375 82404 10105 20093 30040 40056 53001 885// 333 55300 20091 30090 84709 88628=
10170,2012,01,01,15,00,AAXX 01151 10170 21480 82204 10102 20088 30045 40061 53008 70162 888// 333 55300 20046 30045 69907 83813 88633=
10170,2012,01,01,16,00,AAXX 01161 10170 42480 72104 10100 20086 30048 40064 53007 878// 333 55300 20000 30000 83816 87633=
10170,2012,01,01,17,00,AAXX 01171 10170 42575 82104 10100 20086 30051 40067 51011 885// 333 55300 20000 30000 88633=
10170,2012,01,01,18,00,AAXX 01181 10170 11565 72004 10093 20081 30046 40062 50001 60042 70162 8355/ 333 10107 20040 32004 55300 20000 30000 83627 85364=
10170,2012,01,01,19,00,AAXX 01191 10170 42663 71904 10094 20083 30044 40060 58004 8351/ 333 55300 20000 30000 83643 86458=
10170,2012,01,01,20,00,AAXX 01201 10170 42263 81703 10096 20087 30034 40050 58017 885// 333 55300 20000 30000 82706 88650=
10170,2012,01,01,21,00,AAXX 01211 10170 21260 81804 10099 20091 30022 40038 58024 75022 877// 333 55300 20000 30000 69907 87706=
10170,2012,01,01,22,00,AAXX 01221 10170 41258 81805 10105 20098 30008 40023 58036 76052 877// 333 55300 20000 30000 87705=
10170,2012,01,01,23,00,AAXX 01231 10170 41347 71805 10109 20101 39990 40005 58044 76166 877// 333 55300 20000 30000 87707 98047=
10172,2012,01,01,00,00,AAXX 01001 10172 42460 81403 10020 20013 30025 40099 57010 885// 333 88619=
10172,2012,01,01,01,00,AAXX 01011 10172 41257 81503 10020 20014 30023 40097 57008 71022 886// 333 88705=
10172,2012,01,01,02,00,AAXX 01021 10172 41235 81602 10021 20017 30018 40092 57011 75162 877// 333 87704=
10172,2012,01,01,03,00,AAXX 01031 10172 41125 81602 10024 20022 30014 40087 57011 75165 877// 333 87702=
10172,2012,01,01,04,00,AAXX 01041 10172 41145 81702 10029 20026 30010 40083 57013 75155 877// 333 87703=
10172,2012,01,01,05,00,AAXX 01051 10172 41130 81603 10032 20030 30006 40079 57012 75022 887// 333 88702=
10172,2012,01,01,06,00,AAXX 01061 10172 11017 81703 10037 20035 39998 40071 58016 69902 72065 886// 333 10037 20011 31000 55001 79999 88701=
10172,2012,01,01,07,00,AAXX 01071 10172 41016 81804 10044 20042 39997 40070 57013 75852 887// 333 88701=
10172,2012,01,01,08,00,AAXX 01081 10172 41129 81804 10053 20051 39995 40068 57011 75165 877// 333 87702=
10172,2012,01,01,09,00,AAXX 01091 10172 41126 82004 10060 20057 39993 40065 58005 76165 877// 333 87703=
10172,2012,01,01,10,00,AAXX 01101 10172 41240 81904 10067 20067 39992 40064 56005 76366 877// 333 87704=
10172,2012,01,01,11,00,AAXX 01111 10172 41256 82104 10078 20078 39989 40061 57006 72122 877// 333 87704=
10172,2012,01,01,12,00,AAXX 01121 10172 41229 82104 10088 20088 39988 40060 57005 75165 877// 333 87704=
10172,2012,01,01,13,00,AAXX 01131 10172 41134 82204 10089 20085 39989 40061 55003 75155 877// 333 87703=
10172,2012,01,01,14,00,AAXX 01141 10172 41243 82203 10092 20088 39987 40058 57002 72055 877// 333 87706=
10172,2012,01,01,15,00,AAXX 01151 10172 41460 72404 10101 20093 39996 40067 52008 70152 875// 333 85615 87635=
10172,2012,01,01,16,00,AAXX 01161 10172 42664 72203 10093 20085 39997 40068 53008 875// 333 87634=
10172,2012,01,01,17,00,AAXX 01171 10172 42665 72003 10088 20081 30001 40073 52014 875// 333 87634=
10172,2012,01,01,18,00,AAXX 01181 10172 11565 52003 10085 20078 39997 40069 50001 60042 70152 83530 333 10101 20037 31004 83630 85366=
10172,2012,01,01,19,00,AAXX 01191 10172 42460 71903 10083 20078 39995 40067 58002 8351/ 333 81615 83650 87462=
10172,2012,01,01,20,00,AAXX 01201 10172 42260 81803 10089 20085 39986 40058 57015 875// 333 81705 87622=
10172,2012,01,01,21,00,AAXX 01211 10172 41256 81703 10097 20097 39974 40045 58023 75122 877// 333 87704=
10172,2012,01,01,22,00,AAXX 01221 10172 41258 81805 10104 20097 39962 40033 58033 75855 877// 333 87706=
10172,2012,01,01,23,00,AAXX 01231 10172 41358 81805 10106 20099 39944 40015 58042 76266 875// 333 86708 87620=
10180,2012,01,01,00,00,AAXX 01001 10180 17549 81504 10017 20012 30091 40096 58014 60001 71000 333 55300 83/30 88/37=
10180,2012,01,01,01,00,AAXX 01011 10180 47543 81603 10016 20011 30090 40095 56010 71000 333 55300 87/29 88/35 88/48=
10180,2012,01,01,02,00,AAXX 01021 10180 47544 81604 10017 20011 30084 40089 57013 71000 333 55300 82/25 87/37 88/45=
10180,2012,01,01,03,00,AAXX 01031 10180 37340 81704 10020 20014 30078 40083 58013 71000 333 55300 83/07 85/12 88/35=
10180,2012,01,01,04,00,AAXX 01041 10180 47219 81804 10024 20019 30072 40077 57018 71000 333 55300 87/06 87/19 88/24=
10180,2012,01,01,05,00,AAXX 01051 10180 47243 81804 10029 20024 30068 40073 56016 72250 333 55300 88/05 88/13 88/19=
10180,2012,01,01,06,00,AAXX 01061 10180 07250 81804 10033 20029 30063 40068 56015 69902 71050 333 10033 20004 3/000 55002 55300 69907 79999 88/04=
10180,2012,01,01,07,00,AAXX 01071 10180 47236 81704 10037 20037 30058 40063 58014 75165 333 55300 88/04=
10180,2012,01,01,08,00,AAXX 01081 10180 47215 71806 10047 20047 30053 40058 57015 76365 333 55300 87/05 87/15=
10180,2012,01,01,09,00,AAXX 01091 10180 27225 82005 10049 20047 30052 40057 56011 76265 333 20004 3/000 55300 60027 88/04=
10180,2012,01,01,10,00,AAXX 01101 10180 47220 82004 10057 20055 30049 40054 56009 75866 333 55300 87/05 88/08=
10180,2012,01,01,11,00,AAXX 01111 10180 47363 82205 10080 20075 30046 40051 58007 72365 333 55300 88/07 88/10=
10180,2012,01,01,12,00,AAXX 01121 10180 07225 82206 10085 20085 30045 40050 56007 60051 75165 333 55300 60037 88/05=
10180,2012,01,01,13,00,AAXX 01131 10180 47256 82205 10089 20086 30044 40049 56005 72250 333 55300 87/05 88/08=
10180,2012,01,01,14,00,AAXX 01141 10180 47358 72305 10098 20093 30044 40049 56002 72250 333 55300 87/08 87/19=
10180,2012,01,01,15,00,AAXX 01151 10180 27468 72405 10099 20091 30050 40055 53005 70050 333 55300 69927 83/10 87/34=
10180,2012,01,01,16,00,AAXX 01161 10180 45472 72304 10098 20088 30053 40058 53009 333 55300 83/16 85/26 87/31=
10180,2012,01,01,17,00,AAXX 01171 10180 45471 72204 10090 20080 30057 40062 51013 333 55300 85/16 87/37 87/68=
10180,2012,01,01,18,00,AAXX 01181 10180 17968 72205 10090 20081 30052 40057 50002 60052 70050 333 10101 20033 3/003 55300 87/66=
10180,2012,01,01,19,00,AAXX 01191 10180 45968 82206 10091 20080 30052 40057 58001 333 55300 83/63 88/66=
10180,2012,01,01,20,00,AAXX 01201 10180 47760 81904 10087 20080 30046 40051 58011 72365 333 55300 81/56 87/59 88/61=
10180,2012,01,01,21,00,AAXX 01211 10180 27658 81804 10088 20083 30036 40041 58016 72265 333 55300 69907 81/38 88/56 88/59=
10180,2012,01,01,22,00,AAXX 01221 10180 47356 81705 10097 20092 30022 40027 58030 75165 333 55300 85/06 87/16 88/21=
10180,2012,01,01,23,00,AAXX 01231 10180 47250 81807 10104 20098 30004 40009 58042 76265 333 55300 88/06=
10184,2012,01,01,00,00,AAXX 01001 10184 01240 81502 10016 20010 30101 40109 58011 69901 72142 885// 333 31/// 55/// 20088 30084 55300 20000 30000 69907 85706 88650=
10184,2012,01,01,01,00,AAXX 01011 10184 41750 11503 10013 20006 30095 40103 58014 71011 81500 333 55300 20000 30000 81650=
10184,2012,01,01,02,00,AAXX 01021 10184 41656 81402 10016 20008 30093 40101 56013 71011 885// 333 55300 20000 30000 88649=
10184,2012,01,01,03,00,AAXX 01031 10184 31557 81603 10019 20009 30087 40095 57014 71011 888// 333 55300 20000 30000 82822 88642=
10184,2012,01,01,04,00,AAXX 01041 10184 41550 81604 10019 20010 30082 40090 58013 71022 888// 333 55300 20000 30000 81821 88638=
10184,2012,01,01,05,00,AAXX 01051 10184 41350 81703 10022 20013 30078 40086 56015 71022 876// 333 55300 20000 30000 87707=
10184,2012,01,01,06,00,AAXX 01061 10184 01250 81804 10026 20019 30076 40084 56011 69902 72122 877// 333 10026 21001 31100 55005 55300 20000 30000 69907 79999 87705=
10184,2012,01,01,07,00,AAXX 01071 10184 41225 81804 10029 20023 30070 40078 58012 71022 876// 333 55300 20000 30000 87704=
10184,2012,01,01,08,00,AAXX 01081 10184 41105 81704 10033 20029 30066 40074 58012 76142 876// 333 55300 20000 30000 87703 96046=
10184,2012,01,01,09,00,AAXX 01091 10184 21108 81704 10041 20037 30062 40070 56014 76164 876// 333 21001 3/100 55300 20000 30000 69947 87703 96046=
10184,2012,01,01,10,00,AAXX 01101 10184 41212 81805 10052 20048 30059 40067 56011 76364 877// 333 55300 20012 30012 87704 96028=
10184,2012,01,01,11,00,AAXX 01111 10184 41113 81904 10060 20056 30054 40062 58012 76366 877// 333 55300 20006 30006 87703=
10184,2012,01,01,12,00,AAXX 01121 10184 01258 82104 10076 20071 30054 40062 56008 60041 75864 877// 333 31/// 55300 20035 30035 60047 87705=
10184,2012,01,01,13,00,AAXX 01131 10184 41245 82104 10084 20079 30052 40060 56007 76066 877// 333 55300 20082 30082 87704=
10184,2012,01,01,14,00,AAXX 01141 10184 41240 82104 10089 20084 30053 40061 55001 76066 877// 333 55300 20015 30015 87704=
10184,2012,01,01,15,00,AAXX 01151 10184 21240 82104 10092 20088 30054 40062 55000 72064 877// 333 55300 20000 30000 69917 87704 96028=
10184,2012,01,01,16,00,AAXX 01161 10184 42358 52103 10094 20087 30060 40068 53008 84630 333 55300 20000 30000 83708=
10184,2012,01,01,17,00,AAXX 01171 10184 42558 62203 10091 20085 30064 40072 53011 86100 333 55300 20000 30000 86833=
10184,2012,01,01,18,00,AAXX 01181 10184 11660 62104 10092 20083 30062 40070 50008 60052 70365 82110 333 10095 20026 31002 55300 20000 30000 82834 86467 96446 99050=
10184,2012,01,01,19,00,AAXX 01191 10184 42963 62103 10091 20082 30058 40066 58002 86010 333 55300 20000 30000 86464 99050=
10184,2012,01,01,20,00,AAXX 01201 10184 42963 71903 10087 20079 30058 40066 56006 8707/ 333 55300 20000 30000 85359 87463=
10184,2012,01,01,22,00,AAXX 01221 10184 41257 81803 10096 20091 30037 40045 58021 71022 885// 333 55300 20000 30000 85705 88627=
10184,2012,01,01,23,00,AAXX 01231 10184 41259 81704 10102 20095 30022 40030 58036 76062 885// 333 55300 20000 30000 86706 88626=
10193,2012,01,01,00,00,AAXX 01001 10193 17857 71903 10010 20002 30110 40113 57009 60001 71000 333 55/// 20086 30086 55300 20000 30000 87/57 87/58=
10193,2012,01,01,01,00,AAXX 01011 10193 47757 71803 10010 20001 30106 40109 58010 71000 333 55300 20000 30000 87/56 87/57=
10193,2012,01,01,02,00,AAXX 01021 10193 47757 81904 10012 20002 30105 40108 56008 71000 333 55300 20000 30000 88/50=
10193,2012,01,01,03,00,AAXX 01031 10193 37656 71904 10013 20002 30099 40102 58011 71000 333 55300 20000 30000 87/43=
10193,2012,01,01,04,00,AAXX 01041 10193 47356 81904 10014 20003 30096 40099 58010 71000 333 55300 20000 30000 84/08 88/44=
10193,2012,01,01,05,00,AAXX 01051 10193 47350 82005 10015 20004 30092 40095 56013 71000 333 55300 20000 30000 87/07 88/21 88/39=
10193,2012,01,01,06,00,AAXX 01061 10193 17247 82105 10017 20007 30092 40095 56007 60002 71000 333 10017 20009 3/000 55000 55300 20000 30000 70000 88/06 88/35=
10193,2012,01,01,07,00,AAXX 01071 10193 47237 82006 10020 20012 30086 40089 58010 71000 333 55300 20000 30000 88/04=
10193,2012,01,01,08,00,AAXX 01081 10193 47231 82006 10021 20014 30085 40088 58007 71000 333 55300 20000 30000 88/04=
10193,2012,01,01,09,00,AAXX 01091 10193 27115 72106 10025 20025 30080 40083 56012 75765 333 20009 3/000 55300 20031 30031 69907 87/02=
10193,2012,01,01,10,00,AAXX 01101 10193 47229 82106 10035 20031 30075 40078 58011 72365 333 55300 20053 30053 88/04=
10193,2012,01,01,11,00,AAXX 01111 10193 47231 82106 10048 20043 30069 40072 58016 76265 333 55300 20103 30103 87/05 87/08 88/11=
10193,2012,01,01,12,00,AAXX 01121 10193 07243 72106 10055 20055 30065 40068 56015 60021 76265 333 55300 20064 30064 60027 85/05 87/11 87/28=
10193,2012,01,01,13,00,AAXX 01131 10193 47334 72204 10068 20068 30064 40067 56011 75265 333 55300 20129 30129 87/08=
10193,2012,01,01,14,00,AAXX 01141 10193 47358 82204 10076 20076 30065 40068 55004 75165 333 55300 20050 30050 87/07 87/11 88/29=
10193,2012,01,01,15,00,AAXX 01151 10193 27357 82404 10086 20081 30064 40067 57001 72265 333 55300 20013 30013 69987 88/08=
10193,2012,01,01,16,00,AAXX 01161 10193 47260 82404 10092 20086 30071 40074 53007 72250 333 55300 20000 30000 82/06 87/10 88/32=
10193,2012,01,01,17,00,AAXX 01171 10193 45462 82504 10093 20086 30072 40075 53007 333 55300 20000 30000 86/10 87/14 88/34=
10193,2012,01,01,18,00,AAXX 01181 10193 07962 72403 10086 20079 30076 40079 51012 60032 70065 333 10094 20016 3/002 55300 20000 30000 69917 81/68 86/76 87/78=
10193,2012,01,01,19,00,AAXX 01191 10193 47956 72003 10078 20073 30071 40074 50000 71000 333 55300 20000 30000 86/62 87/66 87/72=
10193,2012,01,01,20,00,AAXX 01201 10193 47956 82104 10075 20075 30072 40075 50000 71000 333 55300 20000 30000 83/61 87/63 88/65=
10193,2012,01,01,21,00,AAXX 01211 10193 37456 82104 10084 20080 30063 40066 58013 71000 333 55300 20000 30000 81/13 85/57 88/63=
10193,2012,01,01,22,00,AAXX 01221 10193 47256 82105 10093 20089 30053 40056 58018 71000 333 55300 20000 30000 88/04 88/29=
10193,2012,01,01,23,00,AAXX 01231 10193 45259 82105 10097 20092 30043 40046 58029 333 55300 20000 30000 86/06 87/20 88/37=
10200,2012,01,01,00,00,AAXX 01001 10200 07/11 /2005 10087 20087 30068 40066 57011 69931 75165 333 55/// 20051 30051 55300 20000 30000 69937=
10200,2012,01,01,01,00,AAXX 01011 10200 47/13 /2105 10090 20090 30065 40063 57010 72365 333 55300 20000 30000=
10200,2012,01,01,02,00,AAXX 01021 10200 47234 82204 10095 20095 30063 40061 56009 72365 333 55300 20000 30000 88/05=
10200,2012,01,01,03,00,AAXX 01031 10200 27218 72105 10096 20095 30058 40056 58010 72365 333 55300 20000 30000 69927 86/03 87/10=
10200,2012,01,01,04,00,AAXX 01041 10200 47116 72105 10097 20096 30054 40052 58011 72365 333 55300 20000 30000 87/02=
10200,2012,01,01,05,00,AAXX 01051 10200 41128 82205 10099 20097 30053 40051 56010 75866 877// 333 55300 20000 30000 87703 96010=
10200,2012,01,01,06,00,AAXX 01061 10200 01245 82205 10103 20099 30054 40052 55004 69992 72065 877// 333 10103 20062 32006 55000 55300 20000 30000 69947 70018 87705 96010=
10200,2012,01,01,07,00,AAXX 01071 10200 47238 82105 10101 20099 30052 40050 58002 72365 333 55300 20000 30000 86/03 87/07 88/11=
10200,2012,01,01,08,00,AAXX 01081 10200 47257 82305 10103 20101 30061 40059 53008 75165 333 55300 20000 30000 86/03 87/06 88/11=
10200,2012,01,01,09,00,AAXX 01091 10200 27468 72406 10106 20098 30065 40063 53011 72265 333 20062 3/006 55300 20017 30017 60017 87/12 87/17=
10200,2012,01,01,10,00,AAXX 01101 10200 45469 82405 10107 20097 30068 40066 51016 333 55300 20080 30080 88/10 88/64 88/67=
10200,2012,01,01,11,00,AAXX 01111 10200 45476 82204 10108 20097 30068 40066 51007 333 55300 20289 30285 85/11 88/63=
10200,2012,01,01,12,00,AAXX 01121 10200 17481 82305 10110 20095 30067 40065 50002 60011 70065 333 55300 20302 30301 86/12 88/67 88/69=
10200,2012,01,01,13,00,AAXX 01131 10200 45481 72305 10113 20097 30061 40059 58007 333 55300 20291 30285 87/10=
10200,2012,01,01,14,00,AAXX 01141 10200 45484 72205 10114 20099 30059 40057 58009 333 55300 20209 30205 87/13 87/32 87/64=
10200,2012,01,01,15,00,AAXX 01151 10200 35474 72106 10109 20098 30055 40053 56012 333 55300 20027 30027 87/10=
10200,2012,01,01,16,00,AAXX 01161 10200 47462 82004 10108 20097 30049 40047 58012 75150 333 55300 20000 30000 88/10 88/21=
10200,2012,01,01,17,00,AAXX 01171 10200 47356 81904 10107 20102 30042 40040 58017 75765 333 55300 20000 30000 88/07=
10200,2012,01,01,18,00,AAXX 01181 10200 07261 71904 10107 20102 30032 40030 58023 60012 72365 333 10114 20100 3/010 55300 20000 30000 69907 85/05 87/09 87/17=
10200,2012,01,01,19,00,AAXX 01191 10200 47240 71804 10107 20105 30020 40018 58029 76360 333 55300 20000 30000 84/03 85/10 87/57=
10200,2012,01,01,20,00,AAXX 01201 10200 47/12 /2302 10102 20100 30002 40000 58040 76366 333 55300 20000 30000=
10200,2012,01,01,22,00,AAXX 01221 10200 47/33 /2808 10092 20089 39986 49984 55034 76386 333 55300 20000 30000 91113=
10200,2012,01,01,23,00,AAXX 01231 10200 47580 72502 10082 20079 39987 49985 55015 76166 333 55300 20000 30000 81/28 86/58 87/59=
10215,2012,01,01,00,00,AAXX 01001 10215 07105 42203 10088 20087 30063 40078 58006 69911 75165 333 55300 69917 83/02 84/82=
10215,2012,01,01,01,00,AAXX 01011 10215 47214 82203 10091 20089 30058 40073 58010 72365 333 55300 88/03=
10215,2012,01,01,02,00,AAXX 01021 10215 47221 82204 10094 20092 30057 40072 56010 72250 333 55300 88/03=
10215,2012,01,01,03,00,AAXX 01031 10215 27330 8//// 10100 20095 30053 40068 56010 72365 333 55300 69937 87/07 88/11=
10215,2012,01,01,04,00,AAXX 01041 10215 47319 82204 10102 20095 30049 40064 58009 72364 333 55300 87/07 88/10=
10215,2012,01,01,05,00,AAXX 01051 10215 47222 82305 10102 20096 30047 40062 56010 72365 333 55300 87/05 88/10=
10215,2012,01,01,06,00,AAXX 01061 10215 07220 82305 10104 20098 30046 40061 56007 60012 72365 333 10104 20049 3/005 55000 55300 69997 70021 88/05=
10215,2012,01,01,07,00,AAXX 01071 10215 47216 82205 10104 20100 30046 40061 56003 72365 333 55300 87/04 88/07=
10215,2012,01,01,08,00,AAXX 01081 10215 47216 72305 10106 20106 30051 40066 53004 75150 333 55300 87/04=
10215,2012,01,01,09,00,AAXX 01091 10215 27236 8//// 10108 20108 30053 40068 53007 72365 333 20049 3/005 55300 69967 88/05=
10215,2012,01,01,10,00,AAXX 01101 10215 45364 72506 10112 20101 30058 40073 52012 333 55300 84/09 85/14 87/25=
10215,2012,01,01,11,00,AAXX 01111 10215 45468 82505 10114 20098 30058 40073 51007 333 55300 83/12 87/25 88/66=
10215,2012,01,01,12,00,AAXX 01121 10215 17473 72404 10113 20096 30054 40069 50001 69961 70065 333 55300 85/16 87/22=
10215,2012,01,01,13,00,AAXX 01131 10215 45466 82204 10115 20100 30056 40071 55002 333 55300 86/14 87/20 88/36=
10215,2012,01,01,14,00,AAXX 01141 10215 45470 72303 10117 20098 30051 40066 58007 333 55300 84/16 87/24=
10215,2012,01,01,15,00,AAXX 01151 10215 37465 8//// 10115 20098 30050 40065 58004 7//// 333 55300 86/15 88/21=
10215,2012,01,01,16,00,AAXX 01161 10215 45463 82102 10114 20097 30046 40061 56010 333 55300 86/14 88/20=
10215,2012,01,01,17,00,AAXX 01171 10215 47358 82103 10112 20106 30040 40055 58011 75165 333 55300 87/07 87/13 88/19=
10215,2012,01,01,18,00,AAXX 01181 10215 07341 82003 10113 20107 30030 40045 58020 60012 75265 333 10118 20103 3/010 55300 69977 81/08 87/44 88/50=
10215,2012,01,01,19,00,AAXX 01191 10215 47250 81903 10115 20115 30017 40032 58029 76265 333 55300 87/05 88/09=
10215,2012,01,01,20,00,AAXX 01201 10215 47315 81904 10117 20111 30002 40017 58038 76366 333 55300 87/08 87/12 88/19=
10215,2012,01,01,21,00,AAXX 01211 10215 27350 8//// 10121 20112 39987 40002 58043 76265 333 55300 60067 84/09 87/12 88/17=
10215,2012,01,01,22,00,AAXX 01221 10215 47450 82106 10123 20113 39975 49990 56042 76266 333 55300 87/12 88/20=
10215,2012,01,01,23,00,AAXX 01231 10215 47459 82207 10125 20113 39967 49982 56035 76266 333 55300 87/13 88/19 91113=
10224,2012,01,01,00,00,AAXX 01001 10224 01108 82003 10078 20077 30077 40083 56005 69901 74652 886// 333 32/// 55/// 20143 30137 55300 20000 30000 69907 88703=
10224,2012,01,01,01,00,AAXX 01011 10224 41117 82004 10084 20082 30071 40077 58008 75142 886// 333 55300 20000 30000 88703 96010=
10224,2012,01,01,02,00,AAXX 01021 10224 41119 82004 10087 20085 30070 40076 56009 75855 886// 333 55300 20000 30000 88703 96010=
10224,2012,01,01,03,00,AAXX 01031 10224 21240 82104 10093 20090 30066 40072 56011 75065 886// 333 55300 20000 30000 69917 88704=
10224,2012,01,01,04,00,AAXX 01041 10224 41245 82104 10099 20095 30062 40068 58009 75055 886// 333 55300 20000 30000 88704 96010=
10224,2012,01,01,05,00,AAXX 01051 10224 41250 82104 10100 20094 30059 40065 56011 75055 886// 333 55300 20000 30000 88704 96010=
10224,2012,01,01,06,00,AAXX 01061 10224 01245 82205 10102 20096 30058 40064 56008 69922 76165 886// 333 10102 20040 32004 55001 55300 20000 30000 69917 70003 87705 96010=
10224,2012,01,01,07,00,AAXX 01071 10224 41223 82306 10103 20098 30061 40067 55001 75362 887// 333 55300 20000 30000 87704=
10224,2012,01,01,08,00,AAXX 01081 10224 41240 82205 10105 20105 30063 40069 53004 72055 887// 333 55300 20000 30000 84704 87706=
10224,2012,01,01,09,00,AAXX 01091 10224 21235 82305 10107 20102 30064 40070 51006 75165 887// 333 20040 3/004 55300 20033 30033 69917 84704 87708=
10224,2012,01,01,10,00,AAXX 01101 10224 41358 82406 10111 20106 30070 40076 53009 72055 887// 333 55300 20068 30067 87707=
10224,2012,01,01,11,00,AAXX 01111 10224 41468 72505 10115 20105 30072 40078 53009 72052 878// 333 55300 20161 30160 85811 87630=
10224,2012,01,01,12,00,AAXX 01121 10224 01470 72505 10115 20099 30069 40075 50005 69921 70265 878// 333 32/// 55300 20250 30249 69917 83815 86627=
10224,2012,01,01,13,00,AAXX 01131 10224 42470 72305 10116 20102 30069 40075 58001 878// 333 55300 20234 30233 83811 85617 87630=
10224,2012,01,01,14,00,AAXX 01141 10224 42475 72304 10117 20099 30066 40072 57006 878// 333 55300 20151 30151 82812 87627=
10224,2012,01,01,15,00,AAXX 01151 10224 32475 72104 10114 20098 30063 40069 58006 8487/ 333 55300 20095 30095 81815 83628 87362=
10224,2012,01,01,16,00,AAXX 01161 10224 42470 72003 10111 20100 30059 40065 58010 8657/ 333 55300 20008 30008 86612 87362=
10224,2012,01,01,17,00,AAXX 01171 10224 41365 72004 10112 20104 30054 40060 58012 72162 875// 333 55300 20000 30000 83708 86613 87627=
10224,2012,01,01,18,00,AAXX 01181 10224 01370 82005 10115 20106 30047 40053 58016 69932 72162 887// 333 10118 20101 32010 55300 20000 30000 69917 87708=
10224,2012,01,01,19,00,AAXX 01191 10224 41262 81905 10116 20108 30036 40042 58023 75055 877// 333 55300 20000 30000 82706 87709=
10224,2012,01,01,20,00,AAXX 01201 10224 41360 81806 10117 20109 30022 40028 58032 75865 877// 333 55300 20000 30000 82707 87709=
10224,2012,01,01,22,00,AAXX 01221 10224 41460 82008 10120 20109 39996 40002 56040 76166 875// 333 55300 20000 30000 85710 87619=
10224,2012,01,01,23,00,AAXX 01231 10224 41460 82009 10124 20109 39986 49992 56036 76366 8452/ 333 55300 20000 30000 84615 88525 91114=
10235,2012,01,01,00,00,AAXX 01001 10235 07/02 /2002 10059 20058 39998 40092 56003 69911 73053 333 55/// 20236 30167 55300 20000 30000 69907=
10235,2012,01,01,01,00,AAXX 01011 10235 47/01 /2003 10065 20065 39994 40088 58005 73033 333 55300 20000 30000=
10235,2012,01,01,02,00,AAXX 01021 10235 47/03 /1903 10068 20068 39993 40087 57006 73033 333 55300 20000 30000=
10235,2012,01,01,03,00,AAXX 01031 10235 27/10 /1803 10070 20070 39990 40084 56008 75165 333 55300 20000 30000 69927=
10235,2012,01,01,04,00,AAXX 01041 10235 47/13 /2004 10080 20080 39986 40079 58008 75865 333 55300 20000 30000=
10235,2012,01,01,05,00,AAXX 01051 10235 47131 72204 10093 20093 39982 40075 58011 72365 333 55300 20000 30000 87/03=
10235,2012,01,01,06,00,AAXX 01061 10235 07243 72104 10095 20095 39981 40074 56009 69992 72265 333 10095 20031 3/003 55023 55300 20000 30000 69967 70011 87/04=
10235,2012,01,01,07,00,AAXX 01071 10235 47225 72204 10098 20095 39981 40074 56005 76265 333 55300 20000 30000 87/04=
10235,2012,01,01,08,00,AAXX 01081 10235 47218 72205 10100 20097 39984 40077 53002 75165 333 55300 20000 30000 87/03=
10235,2012,01,01,09,00,AAXX 01091 10235 27244 72204 10102 20098 39985 40078 53004 76165 333 20031 3/003 55300 20000 30000 60027 87/03=
10235,2012,01,01,10,00,AAXX 01101 10235 47223 72305 10105 20105 39987 40080 51006 75265 333 55300 20055 30055 87/04 87/13=
10235,2012,01,01,11,00,AAXX 01111 10235 47257 72406 10109 20104 39988 40080 52004 75150 333 55300 20063 30063 87/05 87/10=
10235,2012,01,01,12,00,AAXX 01121 10235 07373 82505 10110 20102 39990 40082 52005 60021 72365 333 55300 20098 30098 69947 87/09 88/28 88/66=
10235,2012,01,01,13,00,AAXX 01131 10235 45469 82304 10110 20101 39986 40078 58001 333 55300 20161 30161 82/11 88/62 88/70=
10235,2012,01,01,14,00,AAXX 01141 10235 45371 72405 10113 20103 39988 40080 54000 333 55300 20148 30148 84/09 87/30 87/62=
10235,2012,01,01,15,00,AAXX 01151 10235 27368 82003 10108 20100 39985 40077 56005 72365 333 55300 20041 30041 69907 85/09 88/16 88/35=
10235,2012,01,01,16,00,AAXX 01161 10235 45469 82103 10111 20103 39984 40076 58002 333 55300 20001 30001 87/10 88/57 88/60=
10235,2012,01,01,17,00,AAXX 01171 10235 45269 81904 10108 20102 39979 40071 58009 333 55300 20000 30000 87/06 88/09 88/14=
10235,2012,01,01,18,00,AAXX 01181 10235 07259 81905 10111 20105 39973 40065 58012 60022 72265 333 10113 20094 3/009 55300 20000 30000 69907 87/05 88/11 88/16=
10235,2012,01,01,19,00,AAXX 01191 10235 45264 81906 10114 20107 39968 40060 57016 333 55300 20000 30000 88/05 88/20=
10235,2012,01,01,20,00,AAXX 01201 10235 47269 81905 10114 20106 39957 40049 58022 75165 333 55300 20000 30000 87/05 88/09=
10235,2012,01,01,21,00,AAXX 01211 10235 27280 81806 10113 20107 39944 40036 58029 76165 333 55300 20000 30000 69967 87/05 88/15=
10235,2012,01,01,22,00,AAXX 01221 10235 47368 71806 10114 20106 39930 40022 58038 76165 333 55300 20000 30000 85/08 87/14 87/34=
10235,2012,01,01,23,00,AAXX 01231 10235 47487 81807 10119 20106 39919 40011 56038 75165 333 55300 20000 30000 85/12 87/19 88/28=
10238,2012,01,01,00,00,AAXX 01001 10238 41/05 91701 10045 20045 30001 40097 56002 74554 333 89/00=
10238,2012,01,01,01,00,AAXX 01011 10238 41/03 91702 10055 20055 39997 40092 58004 74744 333 89/00=
10238,2012,01,01,02,00,AAXX 01021 10238 41/03 91602 10064 20059 39996 40091 58005 74544 333 89/00=
10238,2012,01,01,03,00,AAXX 01031 10238 41/03 91802 10070 20065 39992 40087 57009 75144 333 89/01=
10238,2012,01,01,04,00,AAXX 01041 10238 41/05 91803 10075 20075 39990 40084 57007 75854 333 89/01=
10238,2012,01,01,05,00,AAXX 01051 10238 41120 81904 10083 20077 39985 40079 57011 72164 886// 333 88702=
10238,2012,01,01,06,00,AAXX 01061 10238 11230 81903 10087 20087 39983 40077 57009 60022 71065 876// 333 10088 20031 31003 70020 87704=
10238,2012,01,01,07,00,AAXX 01071 10238 41225 81903 10095 20088 39983 40077 56007 76162 876// 333 87704=
10238,2012,01,01,08,00,AAXX 01081 10238 41215 82003 10098 20091 39987 40081 53002 75866 876// 333 87704=
10238,2012,01,01,09,00,AAXX 01091 10238 41115 82003 10101 20093 39988 40082 53005 76365 877// 333 87703=
10238,2012,01,01,10,00,AAXX 01101 10238 41112 82003 10104 20096 39989 40082 51006 75966 877// 333 87703=
10238,2012,01,01,11,00,AAXX 01111 10238 41230 82003 10107 20099 39991 40084 52004 75166 876// 333 87705=
10238,2012,01,01,12,00,AAXX 01121 10238 41256 82103 10109 20100 39991 40084 51003 72065 876// 333 84706 87709=
10238,2012,01,01,13,00,AAXX 01131 10238 42358 82103 10111 20101 39988 40081 58001 875// 333 85707 87614=
10238,2012,01,01,14,00,AAXX 01141 10238 42460 82103 10112 20101 39989 40082 55002 875// 333 85610 87628=
10238,2012,01,01,15,00,AAXX 01151 10238 42360 81903 10110 20100 39988 40081 57003 875// 333 85707 87612=
10238,2012,01,01,16,00,AAXX 01161 10238 42460 81903 10110 20100 39987 40080 58001 875// 333 87613=
10238,2012,01,01,17,00,AAXX 01171 10238 42560 71903 10109 20099 39983 40076 57005 875// 333 87624=
10238,2012,01,01,18,00,AAXX 01181 10238 12360 81703 10110 20099 39976 40069 57012 60022 875// 333 10112 20087 32008 85707 87615=
10238,2012,01,01,19,00,AAXX 01191 10238 42360 81804 10111 20101 39970 40063 57017 876// 333 87707=
10238,2012,01,01,20,00,AAXX 01201 10238 41258 81603 10112 20102 39961 40054 57023 76122 886// 333 88705=
10238,2012,01,01,21,00,AAXX 01211 10238 41358 81704 10113 20102 39948 40041 57027 75165 875// 333 85707 87615=
10238,2012,01,01,22,00,AAXX 01221 10238 41558 81704 10115 20100 39935 40028 57035 76165 875// 333 87622=
10238,2012,01,01,23,00,AAXX 01231 10238 41557 81705 10119 20099 39925 40017 57036 76166 875// 333 87622=
10246,2012,01,01,00,00,AAXX 01001 10246 NIL=
10246,2012,01,01,01,00,AAXX 01011 10246 NIL=
10246,2012,01,01,02,00,AAXX 01021 10246 NIL=
10246,2012,01,01,04,00,AAXX 01041 10246 NIL=
10246,2012,01,01,05,00,AAXX 01051 10246 NIL=
10246,2012,01,01,06,00,AAXX 01061 10246 NIL=
10246,2012,01,01,07,00,AAXX 01071 10246 NIL=
10246,2012,01,01,08,00,AAXX 01081 10246 NIL=
10246,2012,01,01,10,00,AAXX 01101 10246 NIL=
10246,2012,01,01,11,00,AAXX 01111 10246 NIL=
10246,2012,01,01,12,00,AAXX 01121 10246 NIL=
10246,2012,01,01,13,00,AAXX 01131 10246 NIL=
10246,2012,01,01,14,00,AAXX 01141 10246 NIL=
10246,2012,01,01,16,00,AAXX 01161 10246 NIL=
10246,2012,01,01,17,00,AAXX 01171 10246 NIL=
10246,2012,01,01,18,00,AAXX 01181 10246 NIL=
10246,2012,01,01,19,00,AAXX 01191 10246 NIL=
10246,2012,01,01,20,00,AAXX 01201 10246 NIL=
10246,2012,01,01,22,00,AAXX 01221 10246 NIL=
10246,2012,01,01,23,00,AAXX 01231 10246 NIL=
10249,2012,01,01,00,00,AAXX 01001 10249 07003 81504 10033 20031 30035 40092 56004 69951 73065 333 55/// 20156 30136 55300 20000 30000 69927 88/00=
10249,2012,01,01,01,00,AAXX 01011 10249 47002 81604 10037 20035 30030 40087 58006 73053 333 55300 20000 30000 88/00=
10249,2012,01,01,02,00,AAXX 01021 10249 47001 81503 10040 20038 30029 40086 58006 73033 333 55300 20000 30000 88/00=
10249,2012,01,01,03,00,AAXX 01031 10249 27001 81604 10046 20046 30024 40081 57011 73053 333 55300 20000 30000 69907 88/00=
10249,2012,01,01,04,00,AAXX 01041 10249 47001 81604 10051 20049 30020 40076 58010 75153 333 55300 20000 30000 88/00=
10249,2012,01,01,05,00,AAXX 01051 10249 47115 71706 10067 20065 30015 40071 57014 72365 333 55300 20000 30000 87/02 87/07=
10249,2012,01,01,06,00,AAXX 01061 10249 07110 81706 10072 20070 30010 40066 58014 69992 72365 333 10072 20029 3/002 55007 55300 20000 30000 69947 70009 87/02 88/06=
10249,2012,01,01,07,00,AAXX 01071 10249 47216 81805 10081 20079 30010 40066 56010 76265 333 55300 20000 30000 88/03=
10249,2012,01,01,08,00,AAXX 01081 10249 47224 81905 10089 20087 30011 40067 55004 76265 333 55300 20000 30000 87/05 88/09=
10249,2012,01,01,09,00,AAXX 01091 10249 27250 82005 10097 20097 30012 40067 53002 72365 333 20029 3/002 55300 20010 30010 60017 88/05 88/10=
10249,2012,01,01,10,00,AAXX 01101 10249 47250 82106 10101 20096 30013 40068 52003 72365 333 55300 20060 30060 87/05 88/09=
10249,2012,01,01,11,00,AAXX 01111 10249 47358 82206 10105 20099 30014 40069 52003 72365 333 55300 20078 30078 88/06=
10249,2012,01,01,12,00,AAXX 01121 10249 07258 82206 10107 20101 30016 40071 53004 60011 75165 333 55300 20088 30088 69937 87/06 88/11=
10249,2012,01,01,13,00,AAXX 01131 10249 47477 52306 10107 20094 30013 40068 50000 72250 333 55300 20192 30192 81/11 84/33 85/66=
10249,2012,01,01,14,00,AAXX 01141 10249 45472 22307 10106 20093 30015 40070 52001 333 55300 20202 30193 82/17=
10249,2012,01,01,15,00,AAXX 01151 10249 27472 52205 10102 20090 30016 40071 55000 70050 333 55300 20067 30067 69907 82/14 83/20 85/39=
10249,2012,01,01,16,00,AAXX 01161 10249 45466 32004 10099 20089 30016 40071 51003 333 55300 20000 30000 83/16=
10249,2012,01,01,17,00,AAXX 01171 10249 45569 71804 10096 20086 30015 40070 50000 333 55300 20000 30000 87/27 87/63=
10249,2012,01,01,18,00,AAXX 01181 10249 17459 81604 10097 20090 30011 40066 58005 60012 70050 333 10109 20072 3/007 55300 20000 30000 86/17 88/23=
10249,2012,01,01,19,00,AAXX 01191 10249 47359 81705 10107 20101 30004 40059 58012 76165 333 55300 20000 30000 83/09 87/21 88/38=
10249,2012,01,01,20,00,AAXX 01201 10249 47358 81705 10109 20102 39995 40050 58020 72365 333 55300 20000 30000 86/07 87/12 88/17=
10249,2012,01,01,21,00,AAXX 01211 10249 27366 81706 10112 20103 39980 40035 58031 76165 333 55300 20000 30000 69917 87/08 88/21 88/49=
10249,2012,01,01,22,00,AAXX 01221 10249 47364 71807 10112 20105 39965 40020 58039 75765 333 55300 20000 30000 87/06 87/14=
10249,2012,01,01,23,00,AAXX 01231 10249 47461 71808 10115 20102 39953 40008 56042 75865 333 55300 20000 30000 84/13 87/20 87/35 91113=
10253,2012,01,01,00,00,AAXX 01001 10253 07109 81703 10037 20035 30073 40095 56003 60011 73065 333 55300 69977 88/02=
10253,2012,01,01,01,00,AAXX 01011 10253 47003 81601 10039 20038 30072 40094 56003 73033 333 55300 88/01=
10253,2012,01,01,02,00,AAXX 01021 10253 47005 71502 10044 20043 30069 40091 58004 73033 333 55300 87/00=
10253,2012,01,01,03,00,AAXX 01031 10253 37002 81702 10049 20048 30065 40087 58008 73033 333 55300 88/00=
10253,2012,01,01,04,00,AAXX 01041 10253 47111 81702 10054 20053 30064 40086 56008 72030 333 55300 88/02=
10253,2012,01,01,05,00,AAXX 01051 10253 47213 71903 10064 20064 30060 40082 57009 75165 333 55300 87/04 87/10 87/15=
10253,2012,01,01,06,00,AAXX 01061 10253 07227 81903 10069 20068 30055 40077 58010 60022 72265 333 10069 20030 3/003 55035 55300 69977 70017 88/04 88/08=
10253,2012,01,01,07,00,AAXX 01071 10253 47250 81903 10076 20075 30055 40077 56009 71000 333 55300 88/06=
10253,2012,01,01,08,00,AAXX 01081 10253 47239 81903 10080 20077 30056 40078 55004 72365 333 55300 88/06=
10253,2012,01,01,09,00,AAXX 01091 10253 27237 82104 10084 20082 30055 40077 50000 75165 333 20030 3/003 55300 69997 88/06=
10253,2012,01,01,10,00,AAXX 01101 10253 47350 82205 10092 20088 30055 40077 50000 72250 333 55300 88/06 88/12=
10253,2012,01,01,11,00,AAXX 01111 10253 47356 82205 10099 20093 30053 40075 58003 71000 333 55300 87/08 88/11=
10253,2012,01,01,12,00,AAXX 01121 10253 07370 82305 10107 20100 30054 40076 55001 69991 72365 333 55300 69907 87/08 87/13 88/18=
10253,2012,01,01,13,00,AAXX 01131 10253 45458 72403 10111 20104 30053 40075 56002 333 55300 87/11 87/17=
10253,2012,01,01,14,00,AAXX 01141 10253 47478 82304 10115 20103 30055 40077 53002 72250 333 55300 86/15 87/20 88/63=
10253,2012,01,01,15,00,AAXX 01151 10253 27474 72403 10114 20100 30057 40079 53003 70050 333 55300 69907 83/18 85/22 87/40=
10253,2012,01,01,16,00,AAXX 01161 10253 45470 82002 10107 20102 30057 40079 51004 333 55300 85/17 88/32=
10253,2012,01,01,17,00,AAXX 01171 10253 45465 81803 10112 20104 30056 40078 50001 333 55300 86/13 88/27 88/62=
10253,2012,01,01,18,00,AAXX 01181 10253 17463 81803 10111 20104 30052 40074 58005 69992 70050 333 10117 20070 3/007 55300 81/10 86/23 88/27=
10253,2012,01,01,19,00,AAXX 01191 10253 47569 81904 10111 20103 30045 40067 58012 72365 333 55300 85/21 88/61 88/62=
10253,2012,01,01,20,00,AAXX 01201 10253 47362 81803 10110 20103 30039 40061 58017 72250 333 55300 85/09 88/24 88/36=
10253,2012,01,01,21,00,AAXX 01211 10253 27582 81804 10113 20102 30027 40049 58025 70065 333 55300 69907 86/25 87/47 88/63=
10253,2012,01,01,22,00,AAXX 01221 10253 47559 81805 10114 20102 30013 40035 58032 76265 333 55300 87/33 87/46 88/50=
10253,2012,01,01,23,00,AAXX 01231 10253 47580 81906 10115 20102 30001 40023 57038 76165 333 55300 87/32 88/58 88/60=
10261,2012,01,01,00,00,AAXX 01001 10261 01113 81603 10032 20028 30073 40102 58005 69971 75165 877// 333 31/// 55/// 20273 30178 55300 20000 30000 69977 87702=
10261,2012,01,01,01,00,AAXX 01011 10261 41114 81502 10035 20035 30073 40102 56004 75355 877// 333 55300 20000 30000 87703=
10261,2012,01,01,02,00,AAXX 01021 10261 41120 81503 10037 20037 30070 40099 58005 72055 886// 333 55300 20000 30000 88702=
10261,2012,01,01,03,00,AAXX 01031 10261 21/07 91602 10038 20035 30068 40097 58005 74752 333 55300 20000 30000 69957 96251=
10261,2012,01,01,04,00,AAXX 01041 10261 41/09 91502 10043 20040 30065 40094 57008 74344 333 55300 20000 30000=
10261,2012,01,01,05,00,AAXX 01051 10261 41218 81602 10052 20049 30062 40091 58008 75142 885// 333 55300 20000 30000 85704 88621=
10261,2012,01,01,06,00,AAXX 01061 10261 01212 81703 10057 20057 30058 40087 58010 60012 75354 877// 333 10057 20024 31002 55034 55300 20000 30000 69927 70014 87704=
10261,2012,01,01,07,00,AAXX 01071 10261 41112 81803 10063 20059 30057 40085 56008 72022 877// 333 55300 20000 30000 87703=
10261,2012,01,01,08,00,AAXX 01081 10261 41225 81803 10070 20066 30057 40085 56005 71022 876// 333 55300 20007 30007 87704=
10261,2012,01,01,09,00,AAXX 01091 10261 21215 82003 10077 20071 30056 40084 57002 75352 877// 333 20024 3/002 55300 20033 30033 69977 87705=
10261,2012,01,01,10,00,AAXX 01101 10261 41312 82004 10084 20078 30057 40085 55000 75155 877// 333 55300 20083 30083 87708=
10261,2012,01,01,11,00,AAXX 01111 10261 41418 82104 10092 20084 30055 40083 58002 75122 877// 333 55300 20232 30231 87710=
10261,2012,01,01,12,00,AAXX 01121 10261 01325 82204 10099 20091 30054 40082 58002 60021 72052 876// 333 31/// 55300 20197 30197 60017 87709=
10261,2012,01,01,13,00,AAXX 01131 10261 41320 82304 10105 20097 30053 40081 56004 72052 877// 333 55300 20167 30166 87709=
10261,2012,01,01,14,00,AAXX 01141 10261 41350 82304 10108 20101 30052 40080 57003 72055 877// 333 55300 20107 30107 87708=
10261,2012,01,01,15,00,AAXX 01151 10261 21457 82302 10107 20099 30056 40084 53002 71052 885// 333 55300 20093 30092 69917 88611=
10261,2012,01,01,16,00,AAXX 01161 10261 42463 82203 10108 20099 30058 40086 53005 885// 333 55300 20005 30005 88615=
10261,2012,01,01,17,00,AAXX 01171 10261 41465 81903 10107 20098 30059 40087 51007 72022 8557/ 333 55300 20000 30000 85615 88460=
10261,2012,01,01,18,00,AAXX 01181 10261 01462 81803 10105 20097 30055 40083 58001 60022 70352 888// 333 10109 20057 31005 55300 20000 30000 69907 83811 88617=
10261,2012,01,01,19,00,AAXX 01191 10261 41558 81703 10106 20098 30052 40080 58006 75152 875// 333 55300 20000 30000 87625=
10261,2012,01,01,20,00,AAXX 01201 10261 41470 81803 10106 20098 30043 40071 58016 72055 8357/ 333 55300 20000 30000 83619 88460=
10261,2012,01,01,21,00,AAXX 01211 10261 21586 81804 10111 20096 30032 40060 58023 70352 875// 333 55300 20000 30000 69917 87628=
10261,2012,01,01,22,00,AAXX 01221 10261 41680 81804 10112 20097 30022 40050 58030 76162 875// 333 55300 20000 30000 87634=
10261,2012,01,01,23,00,AAXX 01231 10261 41582 81804 10110 20099 30008 40036 58035 76066 8352/ 333 55300 20000 30000 83633 88459=
10264,2012,01,01,00,00,AAXX 01001 10264 06220 81702 10024 20019 39988 40096 58007 69901 333 55/// 20194 30171 55300 20000 30000 69907 88/03=
10264,2012,01,01,01,00,AAXX 01011 10264 46126 81803 10026 20026 39987 40095 58005 333 55300 20000 30000 88/03=
10264,2012,01,01,02,00,AAXX 01021 10264 46130 71803 10028 20025 39984 40092 56008 333 55300 20000 30000 87/03=
10264,2012,01,01,03,00,AAXX 01031 10264 26142 81702 10031 20028 39981 40089 58007 333 55300 20000 30000 69927 88/02=
10264,2012,01,01,04,00,AAXX 01041 10264 46013 81905 10034 20032 39978 40086 57009 333 55300 20000 30000 86/01 88/08=
10264,2012,01,01,05,00,AAXX 01051 10264 41008 81804 10039 20038 39974 40081 58010 74642 886// 333 55300 20000 30000 88701=
10264,2012,01,01,06,00,AAXX 01061 10264 01014 81804 10044 20043 39972 40079 56009 69932 75864 886// 333 10044 20019 31001 55010 55300 20000 30000 69917 70003 88701=
10264,2012,01,01,07,00,AAXX 01071 10264 41235 81804 10052 20051 39970 40077 56008 76366 877// 333 55300 20000 30000 87704=
10264,2012,01,01,08,00,AAXX 01081 10264 41130 81905 10060 20059 39970 40077 56004 76062 877// 333 55300 20000 30000 87703=
10264,2012,01,01,09,00,AAXX 01091 10264 21120 82105 10069 20068 39968 40074 57004 76162 877// 333 20019 3/001 55300 20017 30017 60017 87702=
10264,2012,01,01,10,00,AAXX 01101 10264 41250 82105 10077 20077 39967 40073 58003 76366 877// 333 55300 20069 30069 87704=
10264,2012,01,01,11,00,AAXX 01111 10264 41250 82204 10085 20085 39966 40071 56004 72122 876// 333 55300 20079 30079 87704=
10264,2012,01,01,12,00,AAXX 01121 10264 01140 82204 10091 20088 39965 40070 57003 60031 75862 877// 333 31/// 55300 20094 30094 60027 87703=
10264,2012,01,01,13,00,AAXX 01131 10264 41256 82304 10097 20097 39962 40067 58005 76022 877// 333 55300 20101 30101 87705=
10264,2012,01,01,14,00,AAXX 01141 10264 41262 82404 10101 20096 39963 40068 55003 72162 877// 333 55300 20072 30072 87706=
10264,2012,01,01,15,00,AAXX 01151 10264 21264 82404 10101 20096 39971 40076 53006 70262 886// 333 55300 20044 30044 69917 88706=
10264,2012,01,01,16,00,AAXX 01161 10264 42462 72203 10100 20094 39972 40077 52010 875// 333 55300 20000 30000 87613=
10264,2012,01,01,17,00,AAXX 01171 10264 46461 82103 10099 20093 39975 40080 51012 333 55300 20000 30000 83/12 88/33=
10264,2012,01,01,18,00,AAXX 01181 10264 06462 82003 10103 20097 39969 40074 58002 60032 333 10103 20044 3/004 55300 20000 30000 69907 82/12 88/34 88/63=
10264,2012,01,01,19,00,AAXX 01191 10264 46260 81904 10102 20096 39967 40072 58005 333 55300 20000 30000 85/05 87/09 88/26=
10264,2012,01,01,20,00,AAXX 01201 10264 46240 81904 10102 20097 39957 40062 58018 333 55300 20000 30000 87/04 88/08 88/22=
10264,2012,01,01,21,00,AAXX 01211 10264 26263 81905 10105 20100 39946 40050 58023 333 55300 20000 30000 69917 87/05 87/09 88/15=
10264,2012,01,01,22,00,AAXX 01221 10264 46473 81805 10104 20096 39936 40040 57031 333 55300 20000 30000 82/15 87/56 88/58=
10264,2012,01,01,23,00,AAXX 01231 10264 46377 71805 10103 20096 39922 40026 58035 333 55300 20000 30000 82/09 87/26 87/41=
10267,2012,01,01,00,00,AAXX 01001 10267 07118 81503 10022 20018 30058 40108 57006 69911 75165 333 55300 69917 86/02 87/63 88/66=
10267,2012,01,01,01,00,AAXX 01011 10267 47125 81603 10024 20021 30057 40107 56005 72250 333 55300 85/02 86/62 88/65=
10267,2012,01,01,02,00,AAXX 01021 10267 47/24 /1703 10026 20026 30057 40107 56003 75150 333 55300=
10267,2012,01,01,03,00,AAXX 01031 10267 27/35 /1603 10029 20027 30051 40101 58007 72250 333 55300 69937=
10267,2012,01,01,04,00,AAXX 01041 10267 47/07 /1703 10033 20031 30049 40098 58008 73053 333 55300=
10267,2012,01,01,05,00,AAXX 01051 10267 47/05 /1803 10037 20036 30048 40097 56009 73033 333 55300=
10267,2012,01,01,06,00,AAXX 01061 10267 07/06 /1803 10042 20041 30045 40094 58006 69942 73053 333 10042 20010 3/101 55017 55300 69907 70004=
10267,2012,01,01,07,00,AAXX 01071 10267 47114 81804 10047 20045 30043 40092 58006 75253 333 55300 87/03 87/64 88/65=
10267,2012,01,01,08,00,AAXX 01081 10267 47116 81903 10055 20055 30043 40092 56005 75365 333 55300 85/02 87/64 88/66=
10267,2012,01,01,09,00,AAXX 01091 10267 27256 72006 10063 20061 30040 40089 58005 72365 333 20010 3/101 55300 60017 84/04 85/63 87/65=
10267,2012,01,01,10,00,AAXX 01101 10267 47350 72106 10072 20070 30040 40089 57003 76265 333 55300 85/09 87/65=
10267,2012,01,01,11,00,AAXX 01111 10267 47359 72106 10078 20075 30037 40086 57006 72365 333 55300 86/07 86/63 87/65=
10267,2012,01,01,12,00,AAXX 01121 10267 07363 72206 10085 20080 30037 40085 57003 60031 70065 333 55300 60027 86/08 87/63 87/65=
10267,2012,01,01,13,00,AAXX 01131 10267 47250 72105 10087 20087 30033 40081 58007 76165 333 55300 85/04 86/62 87/65=
10267,2012,01,01,14,00,AAXX 01141 10267 47250 72205 10094 20091 30035 40083 55002 75165 333 55300 87/05 87/62 87/65=
10267,2012,01,01,15,00,AAXX 01151 10267 27257 72204 10094 20091 30039 40087 53002 72265 333 55300 69927 85/05 87/63 87/66=
10267,2012,01,01,16,00,AAXX 01161 10267 45559 72205 10096 20096 30040 40088 51007 333 55300 87/30 87/64 87/66=
10267,2012,01,01,17,00,AAXX 01171 10267 47240 72004 10085 20085 30043 40091 51008 71000 333 55300 84/04 87/20 87/62=
10267,2012,01,01,18,00,AAXX 01181 10267 17561 81903 10093 20091 30040 40088 50001 60032 70065 333 10096 20042 3/004 55300 88/25 88/63 88/65=
10267,2012,01,01,19,00,AAXX 01191 10267 45068 71904 10097 20097 30040 40088 50000 333 55300 81/00 86/28 87/64=
10267,2012,01,01,20,00,AAXX 01201 10267 47464 71705 10097 20097 30030 40078 58013 75165 333 55300 86/19 87/47 87/63=
10267,2012,01,01,21,00,AAXX 01211 10267 27579 71805 10100 20095 30020 40068 58020 72365 333 55300 69917 87/23 87/63 87/66=
10267,2012,01,01,22,00,AAXX 01221 10267 47659 71907 10105 20096 30011 40059 56029 76260 333 55300 84/34 86/60 87/65=
10267,2012,01,01,23,00,AAXX 01231 10267 47680 61807 10106 20098 39996 40044 58034 75765 333 55300 82/35 85/63 86/65=
10268,2012,01,01,00,00,AAXX 01001 10268 06/// /1703 10020 20009 30013 40101 58010 69901 333 55300 69907=
10268,2012,01,01,01,00,AAXX 01011 10268 46/// /1805 10021 20014 30012 40100 57007 333 55300=
10268,2012,01,01,02,00,AAXX 01021 10268 46/// /1804 10022 20016 30009 40097 56009 333 55300=
10268,2012,01,01,03,00,AAXX 01031 10268 26/// /1806 10024 20020 30006 40094 58007 333 55300 69917=
10268,2012,01,01,04,00,AAXX 01041 10268 46/// /1906 10026 20026 30002 40090 58010 333 55300=
10268,2012,01,01,05,00,AAXX 01051 10268 46/// /1907 10029 20026 30002 40090 56007 333 55300=
10268,2012,01,01,06,00,AAXX 01061 10268 06/// /1906 10032 20029 39998 40086 57008 69912 333 10032 20013 3/002 55000 55300 69907 70001=
10268,2012,01,01,07,00,AAXX 01071 10268 46/// /1805 10036 20036 39993 40081 58009 333 55300=
10268,2012,01,01,08,00,AAXX 01081 10268 46/// /1907 10043 20041 39992 40079 56010 333 55300=
10268,2012,01,01,09,00,AAXX 01091 10268 26/// ///// 10050 20048 39990 40077 56008 333 20013 3/002 55300 69947=
10268,2012,01,01,10,00,AAXX 01101 10268 46/// ///// 10051 20049 39989 40076 57004 333 55300=
10268,2012,01,01,11,00,AAXX 01111 10268 46/// ///// 10059 20057 39985 40072 58007 333 55300=
10268,2012,01,01,12,00,AAXX 01121 10268 06/// ///// 10067 20065 39984 40070 57006 60031 333 55300 60037=
10268,2012,01,01,13,00,AAXX 01131 10268 46/// /2106 10087 20085 39981 40067 56008 333 55300=
10268,2012,01,01,14,00,AAXX 01141 10268 46/// /2106 10090 20087 39982 40068 55003 333 55300=
10268,2012,01,01,15,00,AAXX 01151 10268 26/// /2105 10074 20072 39988 40074 53004 333 55300 69917=
10268,2012,01,01,16,00,AAXX 01161 10268 46/// /2104 10084 20080 39991 40077 53010 333 55300=
10268,2012,01,01,17,00,AAXX 01171 10268 46/// /2104 10070 20066 39994 40080 51012 333 55300=
10268,2012,01,01,18,00,AAXX 01181 10268 16/// /2004 10071 20068 39990 40076 50002 60032 333 10093 20032 3/004 55300=
10268,2012,01,01,19,00,AAXX 01191 10268 46/// /2005 10072 20070 39989 40075 58002 333 55300=
10268,2012,01,01,20,00,AAXX 01201 10268 46/// /1905 10073 20071 39983 40069 58011 333 55300=
10268,2012,01,01,21,00,AAXX 01211 10268 26/// /1806 10092 20091 39970 40056 58020 333 55300 69907=
10268,2012,01,01,22,00,AAXX 01221 10268 46/// /1807 10094 20093 39961 40046 58028 333 55300=
10268,2012,01,01,23,00,AAXX 01231 10268 46/// /1908 10094 20091 39948 40033 57035 333 55300=
10270,2012,01,01,00,00,AAXX 01001 10270 06344 81604 10023 20015 30058 40114 58005 69901 222// 06041 333 55300 69907 85/07 87/25 88/37=
10270,2012,01,01,01,00,AAXX 01011 10270 46221 81604 10022 20020 30056 40112 57007 222// 06041 333 55300 88/03=
10270,2012,01,01,02,00,AAXX 01021 10270 46113 81703 10024 20023 30056 40112 56005 222// 06040 333 55300 88/02=
10270,2012,01,01,03,00,AAXX 01031 10270 26112 81704 10026 20025 30052 40108 58006 222// 06041 333 55300 69917 88/02=
10270,2012,01,01,04,00,AAXX 01041 10270 46119 81803 10030 20030 30050 40106 58006 222// 06041 333 55300 88/01=
10270,2012,01,01,05,00,AAXX 01051 10270 46/04 /1803 10035 20035 30047 40103 56009 222// 06041 333 55300=
10270,2012,01,01,06,00,AAXX 01061 10270 06/06 /1803 10039 20039 30047 40103 56005 69912 222// 06041 333 10039 20008 3/100 55004 55300 69907 70001=
10270,2012,01,01,07,00,AAXX 01071 10270 46237 81803 10044 20044 30046 40102 56004 222// 06041 333 55300 87/04 87/09 88/26=
10270,2012,01,01,08,00,AAXX 01081 10270 46221 81804 10046 20045 30045 40101 58002 222// 06042 333 55300 88/03=
10270,2012,01,01,09,00,AAXX 01091 10270 NIL=
10270,2012,01,01,10,00,AAXX 01101 10270 46247 81904 10062 20061 30040 40095 58006 222// 06042 333 55300 88/03 88/13=
10270,2012,01,01,11,00,AAXX 01111 10270 46257 82004 10071 20070 30037 40092 57008 222// 06043 333 55300 86/06 87/14 88/22=
10270,2012,01,01,12,00,AAXX 01121 10270 06360 82203 10082 20081 30037 40092 56005 60021 222// 06044 333 55300 60027 88/07=
10270,2012,01,01,13,00,AAXX 01131 10270 46260 82104 10088 20085 30033 40088 58007 222// 06045 333 55300 85/05 88/10=
10270,2012,01,01,14,00,AAXX 01141 10270 46360 82303 10094 20091 30036 40090 55001 222// 06046 333 55300 87/06 88/10=
10270,2012,01,01,15,00,AAXX 01151 10270 NIL=
10270,2012,01,01,16,00,AAXX 01161 10270 46360 82203 10096 20096 30041 40095 53008 222// 06046 333 55300 87/09 87/14 88/35=
10270,2012,01,01,17,00,AAXX 01171 10270 46460 82103 10093 20088 30042 40097 52006 222// 06045 333 55300 81/14 85/26 88/38=
10270,2012,01,01,18,00,AAXX 01181 10270 06560 82002 10087 20087 30040 40095 50003 60022 222// 06045 333 10098 20039 3/004 55300 69917 83/22 87/61 88/63=
10270,2012,01,01,19,00,AAXX 01191 10270 46560 81903 10082 20079 30039 40094 58002 222// 06047 333 55300 82/20 88/35 88/61=
10270,2012,01,01,20,00,AAXX 01201 10270 46560 71803 10082 20080 30033 40088 58009 222// 06048 333 55300 85/27 87/32 87/56=
10270,2012,01,01,22,00,AAXX 01221 10270 46560 81905 10090 20087 30013 40067 58026 222// 06047 333 55300 82/29 88/56 88/58=
10270,2012,01,01,23,00,AAXX 01231 10270 46660 81905 10093 20089 30004 40058 56029 222// 06047 333 55300 84/40 84/50 88/57=
10281,2012,01,01,00,00,AAXX 01001 10281 41656 71703 10015 20005 39995 40111 57007 71022 875// 333 87640=
10281,2012,01,01,01,00,AAXX 01011 10281 42558 71802 10013 20005 39991 40107 57010 875// 333 83630 87650=
10281,2012,01,01,02,00,AAXX 01021 10281 42258 71803 10016 20007 39987 40103 58010 875// 333 85706 87620=
10281,2012,01,01,03,00,AAXX 01031 10281 42258 71803 10018 20010 39983 40098 57012 875// 333 85706 87636=
10281,2012,01,01,04,00,AAXX 01041 10281 41256 71903 10019 20013 39980 40095 57011 71022 876// 333 87705=
10281,2012,01,01,05,00,AAXX 01051 10281 41235 81904 10021 20017 39978 40093 56009 71022 886// 333 88704=
10281,2012,01,01,06,00,AAXX 01061 10281 11130 81803 10024 20021 39974 40089 57009 60002 71011 886// 333 10025 21001 31101 55000 70000 88703=
10281,2012,01,01,07,00,AAXX 01071 10281 41005 81804 10029 20027 39973 40088 57007 74622 886// 333 88701=
10281,2012,01,01,08,00,AAXX 01081 10281 41004 81903 10034 20033 39969 40084 57009 74644 886// 333 88701=
10281,2012,01,01,09,00,AAXX 01091 10281 41108 82004 10044 20043 39965 40079 58009 75164 886// 333 88703 91009=
10281,2012,01,01,10,00,AAXX 01101 10281 41118 82104 10055 20055 39964 40078 56009 75854 886// 333 88702=
10281,2012,01,01,11,00,AAXX 01111 10281 41135 82104 10063 20060 39960 40073 57009 76366 887// 333 88703=
10281,2012,01,01,12,00,AAXX 01121 10281 41158 82204 10073 20068 39959 40072 57007 72166 887// 333 88703=
10281,2012,01,01,13,00,AAXX 01131 10281 41230 82205 10079 20079 39958 40071 56005 75862 887// 333 88704=
10281,2012,01,01,14,00,AAXX 01141 10281 41225 82204 10084 20079 39960 40072 54000 75866 887// 333 88704=
10281,2012,01,01,15,00,AAXX 01151 10281 41235 82205 10089 20089 39960 40072 53001 75866 887// 333 88705=
10281,2012,01,01,16,00,AAXX 01161 10281 41235 82404 10090 20085 39966 40078 52008 75866 887// 333 88705=
10281,2012,01,01,17,00,AAXX 01171 10281 41460 72404 10083 20077 39969 40082 53009 72166 875// 333 84713 87632=
10281,2012,01,01,18,00,AAXX 01181 10281 11465 52204 10092 20084 39969 40081 51009 60032 70162 85500 333 10092 20024 31002 83713 85632=
10281,2012,01,01,19,00,AAXX 01191 10281 42260 82104 10090 20084 39963 40075 58003 875// 333 84705 87632=
10281,2012,01,01,20,00,AAXX 01201 10281 41257 82103 10094 20088 39963 40075 56006 71022 876// 333 87704=
10281,2012,01,01,21,00,AAXX 01211 10281 42258 81803 10098 20091 39952 40064 58017 875// 333 85705 87623=
10281,2012,01,01,22,00,AAXX 01221 10281 41256 81804 10100 20092 39942 40054 58021 75122 877// 333 87705=
10281,2012,01,01,23,00,AAXX 01231 10281 41260 81804 10101 20092 39927 40038 58036 72152 876// 333 87705=
10282,2012,01,01,00,00,AAXX 01001 10282 17646 71702 10008 20003 39970 40115 58005 60001 71000 333 55/// 20093 30093 55300 20000 30000 85/45 87/50 87/57=
10282,2012,01,01,01,00,AAXX 01011 10282 47531 71702 10008 20003 39966 40111 57010 71000 333 55300 20000 30000 83/30 87/41 87/50=
10282,2012,01,01,02,00,AAXX 01021 10282 47230 81803 10009 20005 39965 40110 56007 71000 333 55300 20000 30000 88/06 88/23=
10282,2012,01,01,03,00,AAXX 01034 10282 20228 58002 70021 82818 84635=
10282,2012,01,01,04,00,AAXX 01041 10282 47903 01804 10015 20015 39957 40101 58009 73030 333 55300 20000 30000=
10282,2012,01,01,05,00,AAXX 01051 10282 47901 01804 10016 20016 39955 40099 56010 73033 333 55300 20000 30000=
10282,2012,01,01,06,00,AAXX 01061 10282 17/00 /1804 10020 20020 39951 40095 58009 60002 73030 333 10020 20000 3/101 55000 55300 20000 30000 70000=
10282,2012,01,01,07,00,AAXX 01071 10282 47/01 /1903 10024 20024 39952 40096 55005 73033 333 55300 20000 30000=
10282,2012,01,01,08,00,AAXX 01081 10282 47/01 /1805 10032 20032 39950 40093 56005 73033 333 55300 20000 30000=
10282,2012,01,01,10,00,AAXX 01101 10282 47124 62005 10051 20051 39945 40087 58007 75865 333 55300 20061 30061 86/02=
10282,2012,01,01,11,00,AAXX 01111 10282 47137 72105 10057 20057 39941 40083 58009 76265 333 55300 20076 30076 87/02=
10282,2012,01,01,12,00,AAXX 01121 10282 07156 82205 10069 20068 39939 40080 56009 60021 72365 333 55300 20081 30081 60017 88/03=
10282,2012,01,01,13,00,AAXX 01131 10282 47130 72305 10077 20076 39938 40079 56007 75165 333 55300 20074 30074 87/02=
10282,2012,01,01,14,00,AAXX 01141 10282 47150 82204 10083 20082 39940 40080 55001 72365 333 55300 20046 30046 88/03=
10282,2012,01,01,16,00,AAXX 01161 10282 47258 82404 10090 20089 39945 40085 53007 72250 333 55300 20000 30000 88/03=
10282,2012,01,01,17,00,AAXX 01171 10282 45258 72304 10090 20087 39948 40088 53008 333 55300 20000 30000 87/06 87/12 87/30=
10282,2012,01,01,18,00,AAXX 01181 10282 07257 82303 10092 20090 39950 40090 51011 60022 71065 333 10092 20020 3/002 55300 20000 30000 69917 87/04 88/08=
10282,2012,01,01,19,00,AAXX 01191 10282 47150 32104 10091 20090 39943 40083 58002 71000 333 55300 20000 30000 83/03=
10282,2012,01,01,20,00,AAXX 01201 10282 47150 42105 10094 20092 39941 40081 58007 76165 333 55300 20000 30000 84/03=
10282,2012,01,01,22,00,AAXX 01221 10282 47217 71905 10094 20092 39923 40063 58020 75865 333 55300 20000 30000 87/03=
10282,2012,01,01,23,00,AAXX 01231 10282 47260 71907 10099 20095 39910 40049 58031 76265 333 55300 20000 30000 87/04 87/08=
10289,2012,01,01,00,00,AAXX 01001 10289 17632 81504 10008 20008 30043 40114 58007 60001 71000 333 55300 88/46=
10289,2012,01,01,01,00,AAXX 01011 10289 47646 81404 10009 20005 30039 40110 58009 71000 333 55300 88/35=
10289,2012,01,01,02,00,AAXX 01021 10289 47640 81504 10007 20007 30039 40110 56007 71000 333 55300 84/36 88/44 88/57=
10289,2012,01,01,03,00,AAXX 01031 10289 37338 81504 10008 20005 30035 40106 57008 71000 333 55300 82/06 84/25 88/38=
10289,2012,01,01,04,00,AAXX 01041 10289 47235 81505 10009 20006 30033 40104 58006 71000 333 55300 88/05 88/13 88/34=
10289,2012,01,01,05,00,AAXX 01051 10289 47229 81505 10011 20008 30030 40101 56009 71000 333 55300 88/03=
10289,2012,01,01,06,00,AAXX 01061 10289 17121 81604 10012 20011 30029 40100 56006 60002 71000 333 10012 20002 3/101 55000 55300 70000 88/01=
10289,2012,01,01,07,00,AAXX 01071 10289 47/06 /1605 10014 20014 30028 40099 56005 73030 333 55300=
10289,2012,01,01,08,00,AAXX 01081 10289 47/04 /1506 10018 20018 30023 40094 58007 73033 333 55300=
10289,2012,01,01,09,00,AAXX 01091 10289 27019 61605 10027 20027 30020 40091 58009 72253 333 20002 3/101 55300 69907 85/01 86/06=
10289,2012,01,01,10,00,AAXX 01101 10289 47124 71805 10043 20043 30016 40086 56012 72365 333 55300 83/03 87/13 87/19=
10289,2012,01,01,11,00,AAXX 01111 10289 47119 71806 10051 20050 30012 40082 58011 75150 333 55300 86/02 87/11 87/31=
10289,2012,01,01,12,00,AAXX 01121 10289 07233 72006 10060 20059 30008 40078 57012 69971 76265 333 55300 69977 87/05 87/50=
10289,2012,01,01,13,00,AAXX 01131 10289 47256 72005 10070 20069 30008 40077 56008 72365 333 55300 87/04=
10289,2012,01,01,14,00,AAXX 01141 10289 47250 72106 10078 20076 30006 40075 56006 72250 333 55300 87/04 87/09=
10289,2012,01,01,15,00,AAXX 01151 10289 27237 82106 10081 20079 30008 40077 55000 71065 333 55300 69927 88/04=
10289,2012,01,01,16,00,AAXX 01161 10289 47250 82205 10083 20082 30012 40081 53004 72250 333 55300 86/05 88/22 88/63=
10289,2012,01,01,17,00,AAXX 01171 10289 47357 82204 10082 20080 30016 40085 53010 71000 333 55300 83/09 88/27 88/63=
10289,2012,01,01,18,00,AAXX 01181 10289 07558 82104 10081 20079 30018 40087 51010 69992 70065 333 10086 20012 3/001 55300 69907 87/25 88/62 88/66=
10289,2012,01,01,19,00,AAXX 01191 10289 47256 82005 10085 20085 30014 40083 50002 71000 333 55300 86/05 87/26 88/62=
10289,2012,01,01,20,00,AAXX 01201 10289 47256 72005 10090 20088 30013 40082 58003 71000 333 55300 87/04 87/57 87/63=
10289,2012,01,01,21,00,AAXX 01211 10289 27257 81805 10090 20088 30004 40073 58014 76165 333 55300 69907 84/05 88/59 88/62=
10289,2012,01,01,22,00,AAXX 01221 10289 47558 81905 10092 20089 39997 40066 58017 72365 333 55300 83/20 88/56 88/62=
10289,2012,01,01,23,00,AAXX 01231 10289 45459 71806 10096 20096 39983 40052 58030 333 55300 84/10 87/28 87/57=
10291,2012,01,01,00,00,AAXX 01001 10291 11640 71503 10003 21001 30050 40120 58006 60001 70422 875// 333 34/// 55/// 20129 30129 55300 20000 30000 87646 96004=
10291,2012,01,01,01,00,AAXX 01011 10291 41750 81503 10003 21002 30046 40116 58009 71022 875// 333 55300 20000 30000 87650=
10291,2012,01,01,02,00,AAXX 01021 10291 41540 71604 10004 21002 30046 40116 56009 71022 875// 333 55300 20000 30000 87633=
10291,2012,01,01,03,00,AAXX 01031 10291 31240 81503 10005 21001 30042 40111 57008 71022 876// 333 55300 20000 30000 87706=
10291,2012,01,01,04,00,AAXX 01041 10291 41235 81603 10007 20001 30040 40109 58006 71022 886// 333 55300 20000 30000 88705=
10291,2012,01,01,05,00,AAXX 01051 10291 41230 81503 10009 20003 30039 40108 56007 71022 886// 333 55300 20000 30000 88704=
10291,2012,01,01,06,00,AAXX 01061 10291 01115 81603 10010 20006 30038 40107 56004 69902 72022 886// 333 10010 21003 31102 55000 55300 20000 30000 69907 79999 88702=
10291,2012,01,01,07,00,AAXX 01071 10291 41/04 91604 10012 20010 30037 40106 57003 74722 333 55300 20000 30000=
10291,2012,01,01,08,00,AAXX 01081 10291 41/03 91503 10018 20016 30034 40103 58005 74744 333 55300 20001 30001=
10291,2012,01,01,09,00,AAXX 01091 10291 21/04 91604 10024 20022 30032 40101 58006 74342 333 21003 3/102 55300 20049 30049 69907=
10291,2012,01,01,10,00,AAXX 01101 10291 41112 81603 10033 20031 30028 40097 58009 75142 886// 333 55300 20056 30056 88703=
10291,2012,01,01,11,00,AAXX 01111 10291 41112 81803 10046 20046 30025 40093 58009 75155 886// 333 55300 20127 30127 88703=
10291,2012,01,01,12,00,AAXX 01121 10291 01218 82004 10063 20061 30019 40087 58013 69981 76154 886// 333 31/// 55300 20085 30084 69987 88704=
10291,2012,01,01,13,00,AAXX 01131 10291 41250 82204 10078 20076 30017 40084 56011 72122 876// 333 55300 20138 30138 87706=
10291,2012,01,01,14,00,AAXX 01141 10291 41250 82204 10087 20087 30017 40084 56008 72122 876// 333 55300 20096 30096 87706=
10291,2012,01,01,15,00,AAXX 01151 10291 21250 82203 10091 20086 30018 40085 55001 71062 876// 333 55300 20009 30009 69937 87705=
10291,2012,01,01,16,00,AAXX 01161 10291 41257 82405 10096 20090 30022 40089 53005 71022 876// 333 55300 20000 30000 87705=
10291,2012,01,01,17,00,AAXX 01171 10291 41558 72404 10097 20090 30028 40095 53011 72122 875// 333 55300 20000 30000 87633=
10291,2012,01,01,18,00,AAXX 01181 10291 01360 72003 10094 20087 30029 40096 51011 60012 70262 876// 333 10098 20010 31001 55300 20000 30000 69907 87709=
10291,2012,01,01,19,00,AAXX 01191 10291 42260 81904 10094 20089 30025 40092 50003 876// 333 55300 20000 30000 87705=
10291,2012,01,01,20,00,AAXX 01201 10291 42260 81905 10094 20089 30025 40092 58003 876// 333 55300 20000 30000 87705=
10291,2012,01,01,21,00,AAXX 01211 10291 32258 81805 10096 20091 30014 40081 58015 875// 333 55300 20000 30000 83705 87636=
10291,2012,01,01,22,00,AAXX 01221 10291 41260 81804 10097 20091 30009 40076 58016 72162 875// 333 55300 20000 30000 81706 87646=
10291,2012,01,01,23,00,AAXX 01231 10291 41265 81805 10101 20094 39995 40062 58030 72122 875// 333 55300 20000 30000 82706 87640=
10304,2012,01,01,00,00,AAXX 01001 10304 NIL=
10304,2012,01,01,01,00,AAXX 01011 10304 NIL=
10304,2012,01,01,02,00,AAXX 01021 10304 NIL=
10304,2012,01,01,04,00,AAXX 01041 10304 NIL=
10304,2012,01,01,05,00,AAXX 01051 10304 NIL=
10304,2012,01,01,06,00,AAXX 01061 10304 NIL=
10304,2012,01,01,07,00,AAXX 01071 10304 NIL=
10304,2012,01,01,08,00,AAXX 01081 10304 NIL=
10304,2012,01,01,10,00,AAXX 01101 10304 NIL=
10304,2012,01,01,11,00,AAXX 01111 10304 NIL=
10304,2012,01,01,12,00,AAXX 01121 10304 NIL=
10304,2012,01,01,13,00,AAXX 01131 10304 NIL=
10304,2012,01,01,14,00,AAXX 01141 10304 NIL=
10304,2012,01,01,16,00,AAXX 01161 10304 NIL=
10304,2012,01,01,17,00,AAXX 01171 10304 NIL=
10304,2012,01,01,18,00,AAXX 01181 10304 NIL=
10304,2012,01,01,19,00,AAXX 01191 10304 NIL=
10304,2012,01,01,20,00,AAXX 01201 10304 NIL=
10304,2012,01,01,22,00,AAXX 01221 10304 NIL=
10304,2012,01,01,23,00,AAXX 01231 10304 NIL=
10305,2012,01,01,00,00,AAXX 01001 10305 06/// /2103 10099 20095 30054 40086 58004 69911 333 55300 69917=
10305,2012,01,01,01,00,AAXX 01011 10305 46/// /2204 10102 20096 30051 40083 58006 333 55300=
10305,2012,01,01,02,00,AAXX 01021 10305 46/// /2204 10105 20098 30051 40082 56005 333 55300=
10305,2012,01,01,03,00,AAXX 01031 10305 26/// /2205 10105 20098 30049 40080 56005 333 55300 69907=
10305,2012,01,01,04,00,AAXX 01041 10305 46/// /2204 10104 20099 30043 40074 58008 333 55300=
10305,2012,01,01,05,00,AAXX 01051 10305 41218 82204 10107 20101 30042 40073 56009 72162 876// 333 55300 87706 96010 96261=
10305,2012,01,01,06,00,AAXX 01061 10305 01007 82205 10107 20107 30040 40071 56009 69922 75165 876// 333 10109 20083 31008 55000 55300 69917 70016 87701 96046 96260 96461=
10305,2012,01,01,07,00,AAXX 01071 10305 41338 82204 10109 20103 30043 40074 55000 75865 877// 333 55300 87707 96010 96151=
10305,2012,01,01,08,00,AAXX 01081 10305 41224 82205 10111 20106 30047 40078 53005 72165 876// 333 55300 87706 96010 96258 96251=
10305,2012,01,01,09,00,AAXX 01091 10305 21336 82404 10112 20107 30052 40083 53012 72065 876// 333 20083 3/008 55300 69957 87707 96010 96253=
10305,2012,01,01,10,00,AAXX 01101 10305 41342 82404 10115 20108 30056 40087 52013 72165 876// 333 55300 87709 96010 96258 96251=
10305,2012,01,01,11,00,AAXX 01111 10305 41456 72404 10118 20108 30055 40086 50008 71022 875// 333 55300 85710 87618=
10305,2012,01,01,12,00,AAXX 01121 10305 01342 72304 10116 20109 30050 40081 58002 69951 72065 875// 333 31/// 55300 69907 85709 87618 96010 96251 96461=
10305,2012,01,01,13,00,AAXX 01131 10305 42460 72303 10119 20107 30051 40082 55005 878// 333 55300 84811 86620 96210=
10305,2012,01,01,14,00,AAXX 01141 10305 41242 82103 10118 20108 30042 40073 58013 72052 876// 333 55300 87706 96010 96251=
10305,2012,01,01,15,00,AAXX 01151 10305 21217 82003 10119 20110 30039 40070 58011 75865 877// 333 55300 69907 87705 96010 96451=
10305,2012,01,01,16,00,AAXX 01161 10305 41332 82004 10118 20112 30033 40064 56018 75862 877// 333 55300 87707 96010=
10305,2012,01,01,17,00,AAXX 01171 10305 46/// /1904 10119 20113 30024 40055 58018 333 55300=
10305,2012,01,01,18,00,AAXX 01181 10305 06/// /1905 10119 20112 30014 40045 58025 60012 333 10121 20107 3/010 55300 69977=
10305,2012,01,01,19,00,AAXX 01191 10305 46/// /1907 10119 20113 30002 40033 58031 333 55300=
10305,2012,01,01,20,00,AAXX 01201 10305 46/// /1907 10123 20112 39989 40020 58035 333 55300 91114=
10305,2012,01,01,21,00,AAXX 01211 10305 26/// /2008 10127 20113 39977 40008 57037 333 55300 60027 91116=
10305,2012,01,01,22,00,AAXX 01221 10305 46/// /2007 10126 20113 39969 40000 56033 333 55300 91115=
10305,2012,01,01,23,00,AAXX 01231 10305 46/// /2106 10126 20114 39962 49993 56027 333 55300 91116=
10306,2012,01,01,00,00,AAXX 01001 10306 NIL=
10306,2012,01,01,01,00,AAXX 01011 10306 NIL=
10306,2012,01,01,02,00,AAXX 01021 10306 NIL=
10306,2012,01,01,04,00,AAXX 01041 10306 NIL=
10306,2012,01,01,05,00,AAXX 01051 10306 NIL=
10306,2012,01,01,06,00,AAXX 01061 10306 NIL=
10306,2012,01,01,07,00,AAXX 01071 10306 NIL=
10306,2012,01,01,08,00,AAXX 01081 10306 NIL=
10306,2012,01,01,10,00,AAXX 01101 10306 NIL=
10306,2012,01,01,11,00,AAXX 01111 10306 NIL=
10306,2012,01,01,12,00,AAXX 01121 10306 NIL=
10306,2012,01,01,13,00,AAXX 01131 10306 NIL=
10306,2012,01,01,14,00,AAXX 01141 10306 NIL=
10306,2012,01,01,16,00,AAXX 01161 10306 NIL=
10306,2012,01,01,17,00,AAXX 01171 10306 NIL=
10306,2012,01,01,18,00,AAXX 01181 10306 NIL=
10306,2012,01,01,19,00,AAXX 01191 10306 NIL=
10306,2012,01,01,20,00,AAXX 01201 10306 NIL=
10306,2012,01,01,22,00,AAXX 01221 10306 NIL=
10306,2012,01,01,23,00,AAXX 01231 10306 NIL=
10309,2012,01,01,00,00,AAXX 01001 10309 07221 82304 10102 20096 30039 40096 56005 69951 75165 333 55/// 20047 30047 55300 20000 30000 69957 88/06=
10309,2012,01,01,01,00,AAXX 01011 10309 47339 82205 10103 20094 30037 40094 58004 72250 333 55300 20000 30000 88/08 88/13=
10309,2012,01,01,02,00,AAXX 01021 10309 47334 82305 10103 20095 30037 40094 56004 72250 333 55300 20000 30000 87/07 87/11 88/26=
10309,2012,01,01,04,00,AAXX 01041 10309 47250 82205 10105 20099 30030 40086 58007 72250 333 55300 20000 30000 88/06=
10309,2012,01,01,05,00,AAXX 01051 10309 47219 82206 10106 20100 30029 40085 56008 75865 333 55300 20000 30000 88/06=
10309,2012,01,01,06,00,AAXX 01061 10309 07225 82206 10107 20102 30028 40084 56006 60022 75865 333 10107 20092 3/008 55000 55300 20000 30000 60017 70036 87/05 88/09=
10309,2012,01,01,07,00,AAXX 01071 10309 47260 82206 10109 20102 30030 40086 55000 75165 333 55300 20000 30000 88/06=
10309,2012,01,01,08,00,AAXX 01081 10309 47330 82305 10110 20103 30033 40089 53004 75865 333 55300 20000 30000 88/06=
10309,2012,01,01,10,00,AAXX 01101 10309 47263 72304 10113 20107 30042 40098 52012 75165 333 55300 20061 30061 87/06=
10309,2012,01,01,11,00,AAXX 01111 10309 47246 72204 10115 20109 30039 40095 50006 75250 333 55300 20116 30116 87/06=
10309,2012,01,01,12,00,AAXX 01121 10309 07257 82304 10116 20110 30035 40091 58004 60011 75165 333 55300 20088 30088 69977 87/06 87/09 88/19=
10309,2012,01,01,13,00,AAXX 01131 10309 47366 82304 10118 20110 30031 40087 58011 72365 333 55300 20114 30114 86/07 88/17 88/26=
10309,2012,01,01,14,00,AAXX 01141 10309 47256 82105 10117 20112 30026 40082 58013 75165 333 55300 20074 30074 87/06 88/10=
10309,2012,01,01,16,00,AAXX 01161 10309 47357 72006 10118 20112 30017 40073 57014 75165 333 55300 20000 30000 87/07 87/12=
10309,2012,01,01,17,00,AAXX 01171 10309 47359 82006 10118 20110 30009 40065 58017 76165 333 55300 20000 30000 87/07 87/11 88/16=
10309,2012,01,01,18,00,AAXX 01181 10309 07350 82008 10120 20112 39997 40053 58025 60032 75765 333 10120 20107 3/010 55300 20000 30000 69957 87/07 88/11=
10309,2012,01,01,19,00,AAXX 01191 10309 47472 82009 10122 20109 39987 40043 58030 75765 333 55300 20000 30000 87/11 88/16 91113=
10309,2012,01,01,20,00,AAXX 01201 10309 47482 72008 10123 20108 39975 40031 57034 72365 333 55300 20000 30000 85/13 87/18 91113=
10309,2012,01,01,22,00,AAXX 01221 10309 47567 82110 10131 20108 39957 40013 56030 76165 333 55300 20000 30000 87/22 88/28 91117=
10309,2012,01,01,23,00,AAXX 01231 10309 47565 82110 10129 20109 39949 40005 56026 75765 333 55300 20000 30000 87/20 87/25 88/29 91116 91211=
10312,2012,01,01,00,00,AAXX 01001 10312 07105 82204 10088 20085 39966 40092 57005 69931 75165 333 55/// 20062 30062 55300 20000 30000 69927 88/03=
10312,2012,01,01,01,00,AAXX 01011 10312 47240 82305 10094 20091 39962 40087 58008 72253 333 55300 20000 30000 88/04=
10312,2012,01,01,02,00,AAXX 01021 10312 47341 82205 10097 20091 39965 40090 55002 72250 333 55300 20000 30000 88/06=
10312,2012,01,01,04,00,AAXX 01041 10312 47325 82204 10097 20090 39958 40083 58004 75150 333 55300 20000 30000 88/06=
10312,2012,01,01,05,00,AAXX 01051 10312 47242 82206 10100 20094 39955 40080 57010 75165 333 55300 20000 30000 88/06=
10312,2012,01,01,06,00,AAXX 01061 10312 07257 82205 10103 20096 39955 40080 56007 69962 75165 333 10103 20058 3/006 55000 55300 20000 30000 69927 70015 88/06=
10312,2012,01,01,07,00,AAXX 01071 10312 47333 82206 10104 20096 39956 40081 55002 76265 333 55300 20000 30000 88/06=
10312,2012,01,01,08,00,AAXX 01081 10312 47350 82306 10107 20098 39959 40084 53004 75265 333 55300 20000 30000 88/07=
10312,2012,01,01,10,00,AAXX 01101 10312 47268 82405 10109 20102 39967 40092 53011 75155 333 55300 20071 30071 88/06=
10312,2012,01,01,11,00,AAXX 01111 10312 47382 82406 10112 20103 39966 40091 50007 75165 333 55300 20136 30136 88/07 88/12=
10312,2012,01,01,12,00,AAXX 01121 10312 07383 82306 10115 20104 39960 40084 58002 69931 72265 333 55300 20166 30166 69927 87/08 88/14=
10312,2012,01,01,13,00,AAXX 01131 10312 47371 72305 10115 20105 39960 40084 56007 72365 333 55300 20156 30156 87/07 87/11 87/19=
10312,2012,01,01,14,00,AAXX 01141 10312 47376 72204 10116 20107 39957 40081 56009 72365 333 55300 20141 30141 87/08 87/12 87/18=
10312,2012,01,01,16,00,AAXX 01161 10312 47363 72105 10114 20106 39950 40074 58010 75165 333 55300 20000 30000 87/08 87/12 87/21=
10312,2012,01,01,17,00,AAXX 01171 10312 47361 82005 10115 20105 39944 40068 58013 72365 333 55300 20000 30000 87/08 88/13=
10312,2012,01,01,18,00,AAXX 01181 10312 07366 82106 10117 20107 39936 40060 58018 69972 72365 333 10118 20102 3/010 55300 20000 30000 69947 86/07 88/12=
10312,2012,01,01,19,00,AAXX 01191 10312 47336 81907 10116 20108 39927 40051 58023 76165 333 55300 20000 30000 87/08 88/14=
10312,2012,01,01,20,00,AAXX 01201 10312 47468 82008 10118 20104 39917 40041 58027 75765 333 55300 20000 30000 87/12 87/16 88/22 91113=
10312,2012,01,01,22,00,AAXX 01221 10312 47588 72009 10126 20100 39892 40015 57035 76165 333 55300 20000 30000 87/23 87/28 91115=
10312,2012,01,01,23,00,AAXX 01231 10312 47461 72109 10122 20102 39885 40008 56032 75765 333 55300 20000 30000 85/19 87/25 91115=
10315,2012,01,01,00,00,AAXX 01001 10315 01125 82003 10097 20095 30033 40096 57003 69901 72052 886// 333 31/// 55/// 20056 30056 55300 20000 30000 69907 88703=
10315,2012,01,01,01,00,AAXX 01011 10315 41230 82003 10099 20096 30031 40094 58004 75152 886// 333 55300 20000 30000 88706=
10315,2012,01,01,02,00,AAXX 01021 10315 41357 82204 10103 20096 30032 40095 55002 72022 876// 333 55300 20000 30000 87709=
10315,2012,01,01,03,00,AAXX 01031 10315 21457 82104 10104 20096 30028 40091 58005 71052 876// 333 55300 20000 30000 69917 87710=
10315,2012,01,01,04,00,AAXX 01041 10315 41256 82104 10105 20098 30026 40089 58005 71022 876// 333 55300 20000 30000 87706=
10315,2012,01,01,05,00,AAXX 01051 10315 41240 82104 10105 20105 30022 40085 57010 76322 876// 333 55300 20000 30000 87705=
10315,2012,01,01,06,00,AAXX 01061 10315 01256 82104 10107 20102 30022 40085 56006 69962 72165 877// 333 10108 20076 32007 55000 55300 20000 30000 69957 70024 87705=
10315,2012,01,01,07,00,AAXX 01071 10315 41156 82105 10108 20108 30024 40087 55002 72162 875// 333 55300 20000 30000 82703 86706 87610=
10315,2012,01,01,08,00,AAXX 01081 10315 41257 82204 10110 20104 30027 40090 53005 75052 875// 333 55300 20000 30000 86706 87611=
10315,2012,01,01,09,00,AAXX 01091 10315 21348 82205 10112 20107 30030 40093 53008 75165 875// 333 20076 3/007 55300 20011 30011 69907 86707 87612=
10315,2012,01,01,10,00,AAXX 01101 10315 41257 82306 10115 20115 30035 40098 53011 75865 875// 333 55300 20087 30087 82704 86706 87612=
10315,2012,01,01,11,00,AAXX 01111 10315 41256 82305 10116 20111 30035 40098 51008 75862 875// 333 55300 20145 30145 82704 86708 87613=
10315,2012,01,01,12,00,AAXX 01121 10315 01250 82104 10117 20117 30028 40091 58002 69931 75865 875// 333 32/// 55300 20157 30157 69937 81704 85707 87612=
10315,2012,01,01,13,00,AAXX 01131 10315 41250 82204 10120 20115 30028 40091 57007 75065 875// 333 55300 20206 30206 81705 85708 87613=
10315,2012,01,01,14,00,AAXX 01141 10315 41140 82103 10119 20114 30024 40087 56011 75865 875// 333 55300 20171 30171 82703 86706 87610=
10315,2012,01,01,15,00,AAXX 01151 10315 21256 81904 10118 20115 30021 40084 58007 75965 875// 333 55300 20026 30026 69967 82704 85708 87613=
10315,2012,01,01,16,00,AAXX 01161 10315 41256 81804 10118 20115 30015 40078 58013 76066 875// 333 55300 20000 30000 82704 86706 87611=
10315,2012,01,01,17,00,AAXX 01171 10315 41240 81904 10118 20118 30009 40072 58015 75165 876// 333 55300 20000 30000 82704 86706 87709=
10315,2012,01,01,18,00,AAXX 01181 10315 01257 81905 10119 20119 30000 40063 58021 60012 75865 887// 333 10120 20107 32010 55300 20000 30000 69937 81704 83706 86708 96010=
10315,2012,01,01,19,00,AAXX 01191 10315 41135 81906 10120 20115 39991 40054 58024 75866 877// 333 55300 20000 30000 81703 83705 86709 96010=
10315,2012,01,01,20,00,AAXX 01201 10315 41361 81805 10120 20113 39978 40041 58031 76366 8652/ 333 55300 20000 30000 81708 84612 85650=
10315,2012,01,01,21,00,AAXX 01211 10315 21480 81907 10128 20112 39967 40029 58033 72166 885// 333 55300 20000 30000 60017 83618 87624=
10315,2012,01,01,22,00,AAXX 01221 10315 41480 81907 10134 20108 39957 40019 56034 76022 885// 333 55300 20000 30000 81615 87625=
10315,2012,01,01,23,00,AAXX 01231 10315 41465 82008 10131 20110 39952 40014 56026 76166 875// 333 55300 20000 30000 81612 84617 86622 91114=
10320,2012,01,01,00,50,AAXX 01014 10320 46218 /2106 10098 20097 30017 40102 58003 90050 333 88/03 555 7/098=
10320,2012,01,01,01,50,AAXX 01024 10320 46214 /2006 10100 20098 30019 40103 54000 90150 333 87/04 84/11 555 7/098=
10320,2012,01,01,03,50,AAXX 01044 10320 46338 /2007 10102 20094 30014 40098 58003 90350 333 87/09 555 7/097=
10320,2012,01,01,04,50,AAXX 01054 10320 46237 /2108 10103 20099 30011 40096 57007 90450 333 87/03 555 7/097=
10320,2012,01,01,06,50,AAXX 01074 10320 46338 /2110 10108 20101 30012 40096 55002 90650 333 88/06 555 7/098=
10320,2012,01,01,07,50,AAXX 01084 10320 46362 /2109 10111 20101 30014 40098 53003 90750 333 88/07 555 7/098=
10320,2012,01,01,09,50,AAXX 01104 10320 46250 /2211 10115 20108 30021 40105 53009 90950 333 88/05 555 7/098=
10320,2012,01,01,10,50,AAXX 01114 10320 46357 /2308 10117 20111 30019 40104 51005 91050 333 87/06 87/13 555 7/098=
10320,2012,01,01,12,50,AAXX 01134 10320 46362 /2307 10119 20112 30014 40098 55006 91250 333 87/07 85/15 555 7/098=
10320,2012,01,01,13,50,AAXX 01144 10320 46358 /2107 10120 20113 30009 40093 56010 91350 333 86/07 84/15 555 7/098=
10320,2012,01,01,15,50,AAXX 01164 10320 46243 /1907 10117 20113 30003 40087 57011 91550 333 84/04 87/15 555 7/098=
10320,2012,01,01,16,50,AAXX 01174 10320 46372 /1909 10120 20111 39999 40083 58010 91650 333 81/06 85/10 87/20 555 7/098=
10320,2012,01,01,18,50,AAXX 01194 10320 46577 /1708 10117 20105 39984 40068 58020 91850 333 81/26 87/31 555 7/098=
10320,2012,01,01,19,50,AAXX 01204 10320 46581 /1809 10124 20105 39975 40059 57024 91950 333 88/21 555 7/098=
10320,2012,01,01,21,50,AAXX 01224 10320 46680 /1912 10135 20099 39954 40037 58030 92150 333 86/30 83/62 555 7/098=
10320,2012,01,01,22,50,AAXX 01234 10320 46680 /1914 10140 20097 39945 40028 56030 92250 333 86/33 85/44 90710 91125 555 7/098=
10321,2012,01,01,00,00,AAXX 01001 10321 07208 82003 10083 20081 30036 40088 58005 69911 75165 333 55/// 20090 30090 55300 20000 30000 69907 88/03=
10321,2012,01,01,01,00,AAXX 01011 10321 47107 82003 10084 20083 30032 40084 58008 73065 333 55300 20000 30000 87/02 88/06=
10321,2012,01,01,02,00,AAXX 01021 10321 47232 82205 10096 20096 30033 40085 55006 75153 333 55300 20000 30000 87/06 88/10 88/13=
10321,2012,01,01,03,00,AAXX 01031 10321 27320 82204 10097 20097 30031 40083 56005 72365 333 55300 20000 30000 69947 87/06 88/11=
10321,2012,01,01,04,00,AAXX 01041 10321 47329 82105 10098 20092 30024 40076 58008 71000 333 55300 20000 30000 87/09 88/12=
10321,2012,01,01,05,00,AAXX 01051 10321 41335 82206 10102 20097 30022 40074 57011 76122 876// 333 55300 20000 30000 87708 96010=
10321,2012,01,01,06,00,AAXX 01061 10321 01235 82205 10103 20098 30021 40073 56010 69972 75165 876// 333 10104 20050 31005 55000 55300 20000 30000 69927 70009 87706 96010=
10321,2012,01,01,07,00,AAXX 01071 10321 41220 82205 10104 20101 30023 40075 55001 75155 876// 333 55300 20000 30000 87706 96010=
10321,2012,01,01,08,00,AAXX 01081 10321 41320 82206 10107 20107 30026 40078 53004 75155 876// 333 55300 20000 30000 87707 96010=
10321,2012,01,01,09,00,AAXX 01091 10321 21330 82306 10109 20103 30028 40080 52007 75155 876// 333 20050 3/005 55300 20024 30024 69967 87707 96010=
10321,2012,01,01,10,00,AAXX 01101 10321 41460 82508 10115 20105 30035 40087 53012 75155 876// 333 55300 20071 30071 87710=
10321,2012,01,01,11,00,AAXX 01111 10321 41462 82406 10116 20106 30033 40085 50007 72022 876// 333 55300 20125 30125 87710=
10321,2012,01,01,12,00,AAXX 01121 10321 01470 82404 10118 20105 30031 40083 50003 69961 70252 875// 333 31/// 55300 20130 30130 69907 87613=
10321,2012,01,01,13,00,AAXX 01131 10321 41450 82305 10116 20107 30031 40083 56004 75122 876// 333 55300 20121 30121 87711=
10321,2012,01,01,14,00,AAXX 01141 10321 41475 72305 10119 20107 30027 40079 58006 72022 878// 333 55300 20221 30221 82812 83620 87633=
10321,2012,01,01,15,00,AAXX 01151 10321 21470 72205 10116 20109 30024 40076 58007 75052 878// 333 55300 20104 30104 69907 82813 87633=
10321,2012,01,01,16,00,AAXX 01161 10321 41350 81903 10111 20106 30021 40073 56010 75152 876// 333 55300 20005 30005 87708=
10321,2012,01,01,17,00,AAXX 01171 10321 41357 81804 10111 20106 30016 40068 58011 75052 876// 333 55300 20000 30000 82707 87709=
10321,2012,01,01,18,00,AAXX 01181 10321 01359 81905 10116 20109 30007 40058 58017 69982 72052 876// 333 10120 20103 31010 55300 20000 30000 69927 82708 87710=
10321,2012,01,01,19,00,AAXX 01191 10321 41345 81905 10116 20110 39997 40048 58024 75862 877// 333 55300 20000 30000 83707 87709=
10321,2012,01,01,20,00,AAXX 01201 10321 41458 82008 10121 20111 39985 40036 58031 76162 878// 333 55300 20000 30000 82812 87617=
10321,2012,01,01,21,00,AAXX 01211 10321 27473 72008 10123 20108 39971 40022 58036 76165 333 55300 20000 30000 60017 84/15 87/19 87/45 91113=
10321,2012,01,01,22,00,AAXX 01221 10321 47586 82109 10129 20106 39960 40011 56037 75165 333 55300 20000 30000 87/22 88/27 91114=
10321,2012,01,01,23,00,AAXX 01231 10321 47465 82109 10124 20109 39952 40003 56033 75765 333 55300 20000 30000 83/17 87/22 88/32 91114=
10325,2012,01,01,00,00,AAXX 01001 10325 07000 81902 10073 20071 39937 40103 56003 69921 75865 333 55300 69917 88/00=
10325,2012,01,01,01,00,AAXX 01011 10325 47001 81902 10079 20077 39933 40098 58005 75165 333 55300 88/00=
10325,2012,01,01,02,00,AAXX 01021 10325 47113 72103 10089 20087 39934 40099 55003 72365 333 55300 87/02 87/06=
10325,2012,01,01,03,00,AAXX 01031 10325 27224 82104 10094 20091 39934 40098 56003 72265 333 55300 69947 87/05 88/08=
10325,2012,01,01,04,00,AAXX 01041 10325 47318 82104 10094 20088 39931 40095 58002 75150 333 55300 88/06=
10325,2012,01,01,05,00,AAXX 01051 10325 47223 82004 10095 20088 39928 40092 58006 75165 333 55300 88/06=
10325,2012,01,01,06,00,AAXX 01061 10325 07238 82004 10097 20092 39926 40090 56008 60012 75765 333 10097 20046 3/005 55000 55300 69947 70011 88/04=
10325,2012,01,01,07,00,AAXX 01071 10325 47248 72105 10099 20094 39928 40092 55003 75165 333 55300 87/05=
10325,2012,01,01,08,00,AAXX 01081 10325 47249 82105 10101 20096 39930 40094 53002 75165 333 55300 88/04=
10325,2012,01,01,09,00,AAXX 01091 10325 27261 82104 10104 20097 39932 40096 52006 75165 333 20046 3/005 55300 69977 88/06=
10325,2012,01,01,10,00,AAXX 01101 10325 47220 82204 10106 20101 39936 40100 53008 75865 333 55300 88/04=
10325,2012,01,01,11,00,AAXX 01111 10325 47250 82205 10108 20103 39935 40098 50005 75765 333 55300 87/04 88/07=
10325,2012,01,01,12,00,AAXX 01121 10325 07333 82204 10111 20103 39934 40097 50002 60021 75265 333 55300 69997 87/07 88/11=
10325,2012,01,01,13,00,AAXX 01131 10325 47248 82204 10111 20104 39932 40095 58004 75265 333 55300 87/06 88/11=
10325,2012,01,01,14,00,AAXX 01141 10325 47262 82103 10113 20106 39930 40093 58005 75165 333 55300 88/06=
10325,2012,01,01,15,00,AAXX 01151 10325 27259 72003 10111 20105 39926 40089 58008 75165 333 55300 69917 87/05=
10325,2012,01,01,16,00,AAXX 01161 10325 47247 82003 10110 20105 39923 40086 58009 75765 333 55300 88/04=
10325,2012,01,01,17,00,AAXX 01171 10325 47274 82005 10112 20107 39921 40084 56009 72365 333 55300 87/06 88/10=
10325,2012,01,01,18,00,AAXX 01181 10325 07473 82006 10115 20104 39912 40075 58014 60032 72265 333 10117 20096 3/009 55300 60017 88/12 88/19=
10325,2012,01,01,19,00,AAXX 01191 10325 47488 81905 10114 20101 39905 40068 58018 72365 333 55300 87/18 88/22=
10325,2012,01,01,20,00,AAXX 01201 10325 47588 81906 10121 20099 39895 40057 58026 76165 333 55300 88/26=
10325,2012,01,01,21,00,AAXX 01211 10325 27583 81906 10122 20098 39883 40045 58029 76165 333 55300 69927 87/28 88/36=
10325,2012,01,01,22,00,AAXX 01221 10325 47588 82007 10126 20096 39872 40033 58033 72365 333 55300 86/27 88/57 88/59=
10325,2012,01,01,23,00,AAXX 01231 10325 47588 82008 10131 20094 39863 40024 56032 72365 333 55300 81/25 87/40 88/50 91117=
10334,2012,01,01,00,00,AAXX 01001 10334 41235 82304 10080 20071 30011 40095 57002 71062 885// 333 85705 87635=
10334,2012,01,01,01,00,AAXX 01011 10334 41237 82204 10087 20078 30007 40091 57005 75152 886// 333 85704 87708=
10334,2012,01,01,02,00,AAXX 01021 10334 41229 82104 10080 20072 30006 40090 57005 75155 876// 333 87705=
10334,2012,01,01,03,00,AAXX 01031 10334 41250 82204 10091 20084 30004 40088 56007 72052 876// 333 87706=
10334,2012,01,01,04,00,AAXX 01041 10334 41356 82406 10097 20086 30003 40087 57005 71022 875// 333 85707 87621=
10334,2012,01,01,05,00,AAXX 01051 10334 42358 82306 10103 20086 39998 40081 57009 875// 333 83709 87619=
10334,2012,01,01,06,00,AAXX 01061 10334 11356 82406 10104 20088 39997 40080 57007 69922 76165 885// 333 10106 20038 31004 70007 85708 88615=
10334,2012,01,01,07,00,AAXX 01071 10334 41360 82407 10106 20091 39997 40080 56005 76166 885// 333 85709 88615=
10334,2012,01,01,08,00,AAXX 01081 10334 41357 82407 10109 20093 30002 40085 53004 76166 885// 333 85709 88615=
10334,2012,01,01,09,00,AAXX 01091 10334 41350 82406 10109 20096 30001 40084 50005 75865 885// 333 85708 88615=
10334,2012,01,01,10,00,AAXX 01101 10334 41350 82406 10112 20098 30004 40087 52008 75865 886// 333 85709 88716=
10334,2012,01,01,11,00,AAXX 01111 10334 41456 82506 10114 20102 30007 40090 52004 75165 886// 333 85710 88716=
10334,2012,01,01,12,00,AAXX 01121 10334 41460 82405 10120 20102 30006 40089 50004 72065 885// 333 85711 88620=
10334,2012,01,01,13,00,AAXX 01131 10334 41458 82505 10121 20103 30003 40086 58002 75122 885// 333 85710 88618=
10334,2012,01,01,14,00,AAXX 01141 10334 41357 82504 10119 20103 30002 40085 57004 75155 885// 333 85707 88615=
10334,2012,01,01,15,00,AAXX 01151 10334 41360 82405 10119 20104 30000 40083 57006 72052 885// 333 85707 88620=
10334,2012,01,01,16,00,AAXX 01161 10334 42360 82305 10122 20101 39997 40080 57006 885// 333 85709 88622=
10334,2012,01,01,17,00,AAXX 01171 10334 42465 82204 10114 20100 39996 40079 57006 875// 333 83711 87620=
10334,2012,01,01,18,00,AAXX 01181 10334 11460 82104 10116 20104 39987 40070 57013 69992 75165 885// 333 10123 20103 31010 83712 87618=
10334,2012,01,01,19,00,AAXX 01191 10334 41470 72005 10117 20103 39980 40063 57018 72165 875// 333 82710 87615=
10334,2012,01,01,20,00,AAXX 01201 10334 41370 82006 10118 20102 39965 40048 57029 76162 875// 333 82709 87613=
10334,2012,01,01,21,00,AAXX 01211 10334 41470 82107 10123 20099 39955 40037 57032 72165 875// 333 82710 87620=
10334,2012,01,01,22,00,AAXX 01221 10334 41580 82106 10127 20098 39942 40024 57038 72162 8557/ 333 85620 87358=
10334,2012,01,01,23,00,AAXX 01231 10334 42580 82107 10129 20096 39932 40014 57034 8557/ 333 85625 87358=
10335,2012,01,01,00,00,AAXX 01001 10335 NIL=
10335,2012,01,01,01,00,AAXX 01011 10335 NIL=
10335,2012,01,01,02,00,AAXX 01021 10335 NIL=
10335,2012,01,01,03,00,AAXX 01031 10335 NIL=
10335,2012,01,01,04,00,AAXX 01041 10335 NIL=
10335,2012,01,01,05,00,AAXX 01051 10335 NIL=
10335,2012,01,01,06,00,AAXX 01061 10335 NIL=
10335,2012,01,01,07,00,AAXX 01071 10335 NIL=
10335,2012,01,01,08,00,AAXX 01081 10335 NIL=
10335,2012,01,01,09,00,AAXX 01091 10335 NIL=
10335,2012,01,01,10,00,AAXX 01101 10335 NIL=
10335,2012,01,01,11,00,AAXX 01111 10335 NIL=
10335,2012,01,01,12,00,AAXX 01121 10335 NIL=
10335,2012,01,01,13,00,AAXX 01131 10335 NIL=
10335,2012,01,01,14,00,AAXX 01141 10335 NIL=
10335,2012,01,01,15,00,AAXX 01151 10335 NIL=
10335,2012,01,01,16,00,AAXX 01161 10335 NIL=
10335,2012,01,01,17,00,AAXX 01171 10335 NIL=
10335,2012,01,01,18,00,AAXX 01181 10335 NIL=
10335,2012,01,01,19,00,AAXX 01191 10335 NIL=
10335,2012,01,01,20,00,AAXX 01201 10335 42465 72007 10125 20103 39961 40051 57028 875// 333 81712 87627=
10335,2012,01,01,21,00,AAXX 01211 10335 41465 82008 10128 20101 39947 40036 57035 76162 875// 333 81715 87629 91113=
10335,2012,01,01,22,00,AAXX 01221 10335 41565 82009 10131 20100 39938 40027 57037 76166 875// 333 87626 91114=
10335,2012,01,01,23,00,AAXX 01231 10335 41565 82110 10137 20097 39922 40011 57036 72122 875// 333 85629 87642 91116=
10338,2012,01,01,00,00,AAXX 01001 10338 11228 72102 10071 20066 30023 40095 57001 69901 70452 875// 333 31/// 55/// 20169 30153 55300 20000 30000 84705 87640 96451 96450=
10338,2012,01,01,01,00,AAXX 01011 10338 41338 82003 10075 20069 30020 40092 58003 70422 876// 333 55300 20000 30000 87707=
10338,2012,01,01,02,00,AAXX 01021 10338 41125 81805 10076 20076 30019 40091 57005 75152 877// 333 55300 20000 30000 85702 87707 96010=
10338,2012,01,01,03,00,AAXX 01031 10338 21356 81803 10075 20075 30018 40090 56005 75052 876// 333 55300 20000 30000 69927 87709 96010=
10338,2012,01,01,04,00,AAXX 01041 10338 41356 82002 10086 20081 30015 40087 58005 72052 876// 333 55300 20000 30000 84709 87712 96010=
10338,2012,01,01,05,00,AAXX 01051 10338 42458 82204 10097 20087 30011 40083 58008 875// 333 55300 20000 30000 84616 87630=
10338,2012,01,01,06,00,AAXX 01061 10338 01460 82205 10103 20089 30009 40081 56009 69932 76152 875// 333 10103 20036 31003 55007 55300 20000 30000 69917 70007 87613=
10338,2012,01,01,07,00,AAXX 01071 10338 41360 82205 10104 20093 30009 40080 56006 75865 875// 333 55300 20000 30000 82709 87612=
10338,2012,01,01,08,00,AAXX 01081 10338 41460 82304 10108 20095 30013 40084 53002 75865 875// 333 55300 20000 30000 85612 87615=
10338,2012,01,01,09,00,AAXX 01091 10338 21360 82305 10108 20098 30014 40085 53005 76065 875// 333 20036 3/003 55300 20021 30021 69917 81708 85710 87615=
10338,2012,01,01,10,00,AAXX 01101 10338 41358 82305 10110 20102 30016 40087 51007 75865 875// 333 55300 20071 30071 82708 85710 87615=
10338,2012,01,01,11,00,AAXX 01111 10338 41240 82405 10112 20106 30017 40088 52004 75866 885// 333 55300 20181 30181 82705 85708 88612=
10338,2012,01,01,12,00,AAXX 01121 10338 01365 82405 10119 20106 30017 40088 51003 69931 75865 888// 333 31/// 55300 20218 30218 69927 82808 86615 88625=
10338,2012,01,01,13,00,AAXX 01131 10338 41470 82404 10121 20106 30014 40085 58002 72122 888// 333 55300 20223 30222 81810 83815 88625=
10338,2012,01,01,14,00,AAXX 01141 10338 41365 72403 10117 20107 30014 40085 57003 72022 878// 333 55300 20133 30133 81809 85625 87630=
10338,2012,01,01,15,00,AAXX 01151 10338 21465 72203 10117 20108 30013 40084 56004 72065 875// 333 55300 20067 30067 69907 83610 87628=
10338,2012,01,01,16,00,AAXX 01161 10338 42470 72204 10118 20102 30011 40082 58003 875// 333 55300 20003 30003 85616 87620=
10338,2012,01,01,17,00,AAXX 01171 10338 41565 71904 10117 20105 30007 40078 58007 75152 875// 333 55300 20000 30000 85624 87656=
10338,2012,01,01,18,00,AAXX 01181 10338 01365 81805 10115 20109 30000 40071 58013 69982 76165 878// 333 10122 20103 31009 55300 20000 30000 69957 81808 87618=
10338,2012,01,01,19,00,AAXX 01191 10338 41265 81905 10114 20108 39993 40064 58018 76062 885// 333 55300 20000 30000 85706 88615=
10338,2012,01,01,20,00,AAXX 01201 10338 41465 81906 10118 20105 39985 40056 58022 76066 875// 333 55300 20000 30000 82710 87622=
10338,2012,01,01,22,00,AAXX 01221 10338 41565 81907 10128 20101 39962 40033 58031 72122 875// 333 55300 20000 30000 83620 87632=
10338,2012,01,01,23,00,AAXX 01231 10338 41565 71907 10130 20100 39952 40022 56033 72122 875// 333 55300 20000 30000 87632=
10343,2012,01,01,00,00,AAXX 01001 10343 NIL=
10343,2012,01,01,01,00,AAXX 01011 10343 NIL=
10343,2012,01,01,02,00,AAXX 01021 10343 NIL=
10343,2012,01,01,03,00,AAXX 01031 10343 NIL=
10343,2012,01,01,04,00,AAXX 01041 10343 NIL=
10343,2012,01,01,05,00,AAXX 01051 10343 NIL=
10343,2012,01,01,06,00,AAXX 01061 10343 NIL=
10343,2012,01,01,07,00,AAXX 01071 10343 NIL=
10343,2012,01,01,08,00,AAXX 01081 10343 NIL=
10343,2012,01,01,09,00,AAXX 01091 10343 NIL=
10343,2012,01,01,10,00,AAXX 01101 10343 NIL=
10343,2012,01,01,11,00,AAXX 01111 10343 NIL=
10343,2012,01,01,12,00,AAXX 01121 10343 NIL=
10343,2012,01,01,13,00,AAXX 01131 10343 NIL=
10343,2012,01,01,14,00,AAXX 01141 10343 NIL=
10343,2012,01,01,15,00,AAXX 01151 10343 NIL=
10343,2012,01,01,16,00,AAXX 01161 10343 NIL=
10343,2012,01,01,17,00,AAXX 01171 10343 NIL=
10343,2012,01,01,18,00,AAXX 01181 10343 NIL=
10343,2012,01,01,19,00,AAXX 01191 10343 NIL=
10343,2012,01,01,20,00,AAXX 01201 10343 NIL=
10343,2012,01,01,21,00,AAXX 01211 10343 41560 81904 10117 20103 39985 40047 57026 76122 875// 333 87625=
10343,2012,01,01,22,00,AAXX 01221 10343 41560 81905 10120 20102 39970 40032 57035 76166 875// 333 87625=
10343,2012,01,01,23,00,AAXX 01231 10343 41560 82005 10125 20101 39961 40023 57036 72122 875// 333 85630 87644=
10348,2012,01,01,00,00,AAXX 01001 10348 07334 82103 10053 20046 39995 40102 56002 69921 71065 333 55/// 20232 30168 42652 55300 20000 30000 41206 69917 87/07 88/13=
10348,2012,01,01,01,00,AAXX 01011 10348 47656 82204 10055 20048 39995 40102 51001 71000 333 55300 20000 30000 41168 88/42=
10348,2012,01,01,02,00,AAXX 01021 10348 47357 82204 10063 20054 39993 40100 58003 71000 333 55300 20000 30000 41228 81/07 87/28 88/33=
10348,2012,01,01,03,00,AAXX 01031 10348 27456 82003 10065 20059 39992 40099 58003 75150 333 55300 20000 30000 41249 69907 88/10=
10348,2012,01,01,04,00,AAXX 01041 10348 47461 82204 10070 20060 39989 40096 58006 72250 333 55300 20000 30000 41255 88/10=
10348,2012,01,01,05,00,AAXX 01051 10348 47359 82104 10074 20064 39988 40094 57005 72250 333 55300 20000 30000 41257 87/09 87/13 88/29=
10348,2012,01,01,06,00,AAXX 01061 10348 07560 82204 10080 20067 39983 40089 58009 69922 70050 333 10080 20033 3/003 55020 55300 20000 30000 41239 69907 70013 88/30=
10348,2012,01,01,07,00,AAXX 01071 10348 47465 82305 10085 20067 39984 40090 55005 72365 333 55300 20000 30000 41264 86/15 87/20 88/27=
10348,2012,01,01,08,00,AAXX 01081 10348 47461 82205 10087 20072 39988 40094 55000 75765 333 55300 20000 30000 41276 87/15 88/20=
10348,2012,01,01,09,00,AAXX 01091 10348 27461 72305 10089 20076 39989 40095 52006 72365 333 20033 3/003 55300 20025 30025 41271 69917 87/16=
10348,2012,01,01,10,00,AAXX 01101 10348 47463 82305 10096 20083 39988 40094 50004 72365 333 55300 20098 30098 41287 88/15=
10348,2012,01,01,11,00,AAXX 01111 10348 47457 82304 10101 20088 39987 40092 58001 75150 333 55300 20129 30128 41297 87/14 88/19=
10348,2012,01,01,12,00,AAXX 01121 10348 07477 82403 10107 20091 39989 40094 55000 69911 72265 333 55300 20143 30142 41297 69907 88/14=
10348,2012,01,01,13,00,AAXX 01131 10348 47466 72203 10107 20096 39985 40090 58003 76165 333 55300 20137 30137 41314 87/12=
10348,2012,01,01,14,00,AAXX 01141 10348 47483 82102 10109 20097 39986 40091 58001 72365 333 55300 20100 30100 41309 85/15 87/20 88/25=
10348,2012,01,01,15,00,AAXX 01151 10348 27486 82402 10113 20100 39987 40092 55002 72265 333 55300 20048 30048 41308 69917 82/14 87/30 88/36=
10348,2012,01,01,16,00,AAXX 01161 10348 45587 82303 10112 20097 39985 40090 50000 333 55300 20004 30004 41269 81/22 88/63 88/70=
10348,2012,01,01,17,00,AAXX 01171 10348 47484 82203 10115 20100 39984 40089 58002 72250 333 55300 20000 30000 41289 87/17 88/23=
10348,2012,01,01,18,00,AAXX 01181 10348 07588 82204 10117 20098 39979 40084 58008 69922 76165 333 10117 20079 3/008 55300 20000 30000 41305 69907 82/27 87/39 88/50=
10348,2012,01,01,19,00,AAXX 01191 10348 47588 72104 10114 20097 39974 40079 58011 72365 333 55300 20000 30000 41220 87/31 87/38=
10348,2012,01,01,20,00,AAXX 01201 10348 45588 82105 10121 20096 39964 40068 58020 333 55300 20000 30000 41220 83/32 87/60 88/64=
10348,2012,01,01,21,00,AAXX 01211 10348 27688 82005 10121 20096 39953 40057 58026 72365 333 55300 20000 30000 41273 69907 85/41 87/59 88/63=
10348,2012,01,01,22,00,AAXX 01221 10348 47688 72005 10127 20098 39941 40045 58033 72365 333 55300 20000 30000 41263 81/39 87/60 87/63=
10348,2012,01,01,23,00,AAXX 01231 10348 45588 82105 10129 20096 39930 40034 57034 333 55300 20000 30000 41242 81/23 87/63 88/66=
10356,2012,01,01,00,00,AAXX 01001 10356 07458 82305 10042 20034 39907 40107 56001 69931 72365 333 55300 69917 84/11 87/26 88/46=
10356,2012,01,01,01,00,AAXX 01011 10356 47356 82405 10047 20039 39908 40107 53001 72250 333 55300 81/09 88/46=
10356,2012,01,01,02,00,AAXX 01021 10356 47639 72304 10044 20038 39908 40107 52001 71000 333 55300 87/38=
10356,2012,01,01,03,00,AAXX 01031 10356 27556 82305 10052 20043 39906 40105 58001 71050 333 55300 69907 88/29=
10356,2012,01,01,04,00,AAXX 01041 10356 47219 82003 10055 20048 39906 40105 57002 75150 333 55300 82/04 83/09 88/16=
10356,2012,01,01,05,00,AAXX 01051 10356 47345 82104 10062 20058 39906 40104 56002 75150 333 55300 85/06 87/12 88/29=
10356,2012,01,01,06,00,AAXX 01061 10356 07462 82103 10065 20060 39899 40097 58007 69932 72250 333 10067 20028 3/002 55028 55300 69907 70003 81/12 87/27 88/62=
10356,2012,01,01,07,00,AAXX 01071 10356 45571 82103 10072 20059 39900 40097 55006 333 55300 88/28=
10356,2012,01,01,08,00,AAXX 01081 10356 45475 72206 10081 20063 39902 40099 55004 333 55300 85/16 87/57=
10356,2012,01,01,09,00,AAXX 01091 10356 27463 72205 10081 20071 39902 40099 51003 75165 333 20028 3/002 55300 69967 84/16 86/50 87/56=
10356,2012,01,01,10,00,AAXX 01101 10356 47472 72205 10090 20079 39903 40099 51003 72365 333 55300 84/18 87/26=
10356,2012,01,01,11,00,AAXX 01111 10356 45480 82304 10095 20081 39903 40099 52001 333 55300 88/14=
10356,2012,01,01,12,00,AAXX 01121 10356 07477 82504 10100 20086 39905 40100 53003 60011 70065 333 55300 69947 88/16=
10356,2012,01,01,13,00,AAXX 01131 10356 47480 82303 10103 20089 39902 40097 58001 72250 333 55300 88/15=
10356,2012,01,01,14,00,AAXX 01141 10356 47488 82404 10110 20092 39901 40095 58002 72365 333 55300 87/16 88/20=
10356,2012,01,01,15,00,AAXX 01151 10356 27486 82404 10106 20091 39901 40096 56004 75165 333 55300 69907 87/14 88/23=
10356,2012,01,01,16,00,AAXX 01161 10356 47487 82303 10105 20093 39903 40098 53001 72250 333 55300 81/13 85/24 88/31=
10356,2012,01,01,17,00,AAXX 01171 10356 47484 82002 10103 20089 39905 40100 53004 72250 333 55300 87/17 88/21=
10356,2012,01,01,18,00,AAXX 01181 10356 07588 82004 10105 20087 39900 40095 58001 60012 70065 333 10110 20065 3/006 55300 69907 86/23 88/30=
10356,2012,01,01,19,00,AAXX 01191 10356 47588 52007 10112 20090 39891 40085 58012 72365 333 55300 82/26 83/43 85/61=
10356,2012,01,01,20,00,AAXX 01201 10356 45588 72007 10112 20092 39887 40081 56018 333 55300 87/26 87/35 87/60=
10356,2012,01,01,21,00,AAXX 01211 10356 27588 82107 10118 20091 39881 40074 56019 70065 333 55300 69907 87/24 88/29 88/60=
10356,2012,01,01,22,00,AAXX 01221 10356 47588 71906 10111 20092 39867 40061 58024 72365 333 55300 82/30 84/56 87/61=
10356,2012,01,01,23,00,AAXX 01231 10356 45588 72007 10118 20093 39858 40051 58029 333 55300 85/31 87/60 87/62=
10359,2012,01,01,00,00,AAXX 01001 10359 07228 81902 10039 20036 30045 40104 56004 69921 72265 333 55/// 20342 30208 55300 20000 30000 69907 88/04=
10359,2012,01,01,01,00,AAXX 01011 10359 47347 81802 10043 20041 30047 40106 55000 72250 333 55300 20000 30000 88/06=
10359,2012,01,01,02,00,AAXX 01021 10359 47332 81902 10044 20041 30044 40103 58002 71000 333 55300 20000 30000 87/07 88/13 88/49=
10359,2012,01,01,03,00,AAXX 01031 10359 27227 71902 10046 20046 30042 40101 58003 71050 333 55300 20000 30000 69907 82/05 86/42 87/50=
10359,2012,01,01,04,00,AAXX 01041 10359 47522 72201 10047 20047 30040 40099 56007 71000 333 55300 20000 30000 84/29 86/35 87/46=
10359,2012,01,01,05,00,AAXX 01051 10359 47212 71803 10060 20057 30039 40098 56005 75250 333 55300 20000 30000 85/03 87/12 87/20=
10359,2012,01,01,06,00,AAXX 01061 10359 07321 81804 10068 20066 30033 40092 58009 69962 75165 333 10069 20032 3/003 55036 55300 20000 30000 69947 70006 87/06 88/10=
10359,2012,01,01,07,00,AAXX 01071 10359 47250 81803 10068 20065 30034 40093 55006 72250 333 55300 20000 30000 85/05 88/33 88/56=
10359,2012,01,01,08,00,AAXX 01081 10359 47459 81804 10075 20075 30035 40094 55004 72250 333 55300 20006 30006 86/17 88/22 88/31=
10359,2012,01,01,09,00,AAXX 01091 10359 27461 81804 10077 20071 30035 40093 51002 75165 333 20032 3/003 55300 20025 30024 69957 88/16=
10359,2012,01,01,10,00,AAXX 01101 10359 47463 81903 10087 20080 30036 40094 52002 72365 333 55300 20052 30052 87/13 88/20=
10359,2012,01,01,11,00,AAXX 01111 10359 47462 82203 10095 20088 30034 40092 58001 72250 333 55300 20082 30082 88/14=
10359,2012,01,01,12,00,AAXX 01121 10359 07464 82204 10107 20097 30033 40091 58002 69971 72265 333 55300 20136 30135 69927 88/10=
10359,2012,01,01,13,00,AAXX 01131 10359 45472 72304 10112 20101 30032 40090 56004 333 55300 20185 30184 87/13=
10359,2012,01,01,14,00,AAXX 01141 10359 47472 82303 10110 20101 30033 40091 55001 75165 333 55300 20063 30063 84/13 86/18 88/25=
10359,2012,01,01,15,00,AAXX 01151 10359 27480 72103 10110 20100 30035 40093 53002 72265 333 55300 20031 30031 69907 87/11 87/16 87/29=
10359,2012,01,01,16,00,AAXX 01161 10359 47480 81903 10106 20096 30035 40093 51003 72250 333 55300 20006 30006 85/13 87/41 88/61=
10359,2012,01,01,17,00,AAXX 01171 10359 45681 81802 10106 20097 30035 40093 51002 333 55300 20000 30000 88/34 88/63=
10359,2012,01,01,18,00,AAXX 01181 10359 07584 81804 10110 20099 30031 40089 58004 69972 70065 333 10113 20067 3/006 55300 20000 30000 69907 81/23 83/29 88/36=
10359,2012,01,01,19,00,AAXX 01191 10359 47582 81803 10112 20098 30027 40085 58008 72250 333 55300 20000 30000 82/21 87/36 88/47=
10359,2012,01,01,20,00,AAXX 01201 10359 47686 71705 10114 20096 30017 40075 58018 72365 333 55300 20000 30000 87/35=
10359,2012,01,01,21,00,AAXX 01211 10359 27688 81806 10118 20096 30011 40068 58020 70065 333 55300 20000 30000 69907 85/35 87/57 88/60=
10359,2012,01,01,22,00,AAXX 01221 10359 47682 71805 10113 20100 39999 40056 58028 75165 333 55300 20000 30000 84/42 87/56 87/57=
10359,2012,01,01,23,00,AAXX 01231 10359 47687 71806 10114 20100 39988 40045 58029 72365 333 55300 20000 30000 82/39 86/57 87/59=
10361,2012,01,01,00,00,AAXX 01001 10361 07410 81802 10042 20032 30005 40110 55001 69911 72065 333 55/// 20291 30178 55300 20000 30000 69907 88/12=
10361,2012,01,01,01,00,AAXX 01011 10361 47437 81902 10045 20036 30005 40110 56001 72250 333 55300 20000 30000 87/14 87/25 88/49=
10361,2012,01,01,02,00,AAXX 01021 10361 47445 71301 10044 20034 30004 40109 50000 71000 333 55300 20000 30000 83/11 87/48=
10361,2012,01,01,03,00,AAXX 01031 10361 27656 82002 10047 20036 30003 40108 58002 71050 333 55300 20000 30000 69907 87/39 88/47=
10361,2012,01,01,04,00,AAXX 01041 10361 47557 82102 10054 20038 30001 40105 58004 71000 333 55300 20000 30000 88/28=
10361,2012,01,01,05,00,AAXX 01051 10361 41425 82103 10061 20054 30002 40106 55002 75122 886// 333 55300 20000 30000 88715=
10361,2012,01,01,06,00,AAXX 01061 10361 01150 81903 10064 20059 39999 40103 58004 69922 75152 885// 333 10064 20034 31002 55030 55300 20000 30000 69917 70002 82702 84615 88630=
10361,2012,01,01,07,00,AAXX 01071 10361 41575 81904 10071 20058 30000 40104 57001 72022 875// 333 55300 20000 30000 87629=
10361,2012,01,01,08,00,AAXX 01081 10361 42578 81904 10077 20061 30000 40103 56002 885// 333 55300 20000 30000 86620 87631=
10361,2012,01,01,09,00,AAXX 01091 10361 21567 81903 10081 20064 39999 40102 50000 76052 8652/ 333 20034 3/002 55300 20022 30022 69907 86622 88457=
10361,2012,01,01,10,00,AAXX 01101 10361 41560 81903 10085 20075 39998 40101 58002 76066 8652/ 333 55300 20077 30077 86627 88456 96263=
10361,2012,01,01,11,00,AAXX 01111 10361 41566 82003 10093 20079 39998 40101 56002 72122 875// 333 55300 20218 30218 87621=
10361,2012,01,01,12,00,AAXX 01121 10361 01581 82203 10103 20085 39998 40100 56001 69991 72065 875// 333 31/// 55300 20135 30135 69997 87622=
10361,2012,01,01,13,00,AAXX 01131 10361 42585 72203 10112 20090 39995 40097 58003 875// 333 55300 20197 30196 87623=
10361,2012,01,01,14,00,AAXX 01141 10361 42586 72203 10116 20091 39994 40096 58004 875// 333 55300 20240 30240 87628=
10361,2012,01,01,15,00,AAXX 01151 10361 32586 82303 10118 20093 39995 40097 55003 885// 333 55300 20062 30062 88626=
10361,2012,01,01,16,00,AAXX 01161 10361 41580 72102 10114 20092 39999 40101 53004 72122 875// 333 55300 20000 30000 84621 87632=
10361,2012,01,01,17,00,AAXX 01171 10361 41586 72203 10117 20090 39998 40100 50004 72122 875// 333 55300 20000 30000 84623 87630=
10361,2012,01,01,18,00,AAXX 01181 10361 01582 82003 10113 20090 39994 40096 58001 69992 70262 885// 333 10121 20063 31006 55300 20000 30000 69907 84633 88640=
10361,2012,01,01,19,00,AAXX 01191 10361 41483 71803 10111 20088 39990 40092 58009 72122 8357/ 333 55300 20000 30000 83614 85357 87462=
10361,2012,01,01,20,00,AAXX 01201 10361 42585 71904 10112 20092 39985 40087 58013 82571 333 55300 20000 30000 82626 83361 87073=
10361,2012,01,01,22,00,AAXX 01221 10361 47588 81905 10120 20096 39966 40067 58024 72365 333 55300 20000 30000 83/21 87/60 88/63=
10361,2012,01,01,23,00,AAXX 01231 10361 45988 82006 10122 20096 39957 40058 58028 333 55300 20000 30000 86/60 88/62 88/64=
10365,2012,01,01,00,00,AAXX 01001 10365 07215 81702 10033 20029 30065 40112 58002 69991 72265 333 55/// 20294 30170 55300 20000 30000 69967 88/03 88/11=
10365,2012,01,01,01,00,AAXX 01011 10365 47114 81702 10035 20035 30064 40111 56004 75365 333 55300 20000 30000 88/02=
10365,2012,01,01,02,00,AAXX 01021 10365 47133 81601 10037 20037 30064 40111 57001 72250 333 55300 20000 30000 85/03 88/07=
10365,2012,01,01,03,00,AAXX 01031 10365 27324 81702 10040 20036 30060 40107 58005 71065 333 55300 20000 30000 69937 88/07=
10365,2012,01,01,04,00,AAXX 01041 10365 47425 71801 10040 20036 30060 40107 57004 71000 333 55300 20000 30000 87/10 87/43=
10365,2012,01,01,05,00,AAXX 01051 10365 47634 71802 10045 20045 30058 40105 56006 71000 333 55300 20000 30000 87/35=
10365,2012,01,01,06,00,AAXX 01061 10365 07521 82002 10054 20049 30058 40105 57002 60012 75165 333 10054 20019 3/001 55047 55300 20000 30000 69907 70012 88/23=
10365,2012,01,01,07,00,AAXX 01071 10365 47227 81703 10059 20055 30055 40102 58005 72250 333 55300 20000 30000 87/03 87/13 88/18=
10365,2012,01,01,08,00,AAXX 01081 10365 47257 81902 10066 20066 30057 40103 55001 71000 333 55300 20001 30001 84/04 88/32=
10365,2012,01,01,09,00,AAXX 01091 10365 27558 71903 10071 20065 30058 40104 55000 72250 333 20019 3/001 55300 20022 30022 69927 87/20 87/34=
10365,2012,01,01,10,00,AAXX 01101 10365 47556 71903 10077 20071 30056 40102 50001 75765 333 55300 20065 30065 87/21 87/26=
10365,2012,01,01,11,00,AAXX 01111 10365 47257 82103 10085 20079 30053 40099 58004 72365 333 55300 20117 30117 81/06 88/21=
10365,2012,01,01,12,00,AAXX 01121 10365 07458 82103 10091 20083 30053 40099 56005 60021 72265 333 55300 20116 30116 60017 87/18 88/22=
10365,2012,01,01,13,00,AAXX 01131 10365 47460 82103 10098 20089 30051 40097 56005 75165 333 55300 20181 30180 88/19=
10365,2012,01,01,14,00,AAXX 01141 10365 47567 82102 10103 20092 30049 40095 58004 72250 333 55300 20143 30142 86/20 88/24=
10365,2012,01,01,15,00,AAXX 01151 10365 27472 82002 10104 20094 30052 40098 55001 72265 333 55300 20033 30033 69907 84/19 87/27 88/33=
10365,2012,01,01,16,00,AAXX 01161 10365 47570 82002 10102 20093 30055 40101 53004 72250 333 55300 20000 30000 82/20 88/29=
10365,2012,01,01,17,00,AAXX 01171 10365 45664 82002 10097 20091 30055 40101 51006 333 55300 20000 30000 81/37 87/61 88/70=
10365,2012,01,01,18,00,AAXX 01181 10365 07679 81802 10102 20094 30051 40097 58001 60022 70065 333 10104 20054 3/005 55300 20000 30000 69907 88/36 88/60=
10365,2012,01,01,19,00,AAXX 01191 10365 47663 81703 10106 20094 30050 40096 58005 75165 333 55300 20000 30000 88/33 88/50 88/58=
10365,2012,01,01,20,00,AAXX 01201 10365 47681 81803 10103 20092 30044 40090 58011 72365 333 55300 20000 30000 81/42 85/61 88/62=
10365,2012,01,01,21,00,AAXX 01211 10365 27684 71803 10104 20092 30036 40082 58015 70065 333 55300 20000 30000 69907 82/39 85/64 87/72=
10365,2012,01,01,22,00,AAXX 01221 10365 47765 81803 10111 20096 30028 40074 58022 76260 333 55300 20000 30000 83/50 86/56 88/61=
10365,2012,01,01,23,00,AAXX 01231 10365 47782 71604 10104 20095 30011 40057 58033 72360 333 55300 20000 30000 81/50 84/57 87/59=
10368,2012,01,01,00,00,AAXX 01001 10368 07/07 /1903 10025 20025 39881 40113 57002 69951 75165 333 55/// 20291 30189 55300 20000 30000 69947=
10368,2012,01,01,01,00,AAXX 01011 10368 47/13 /1903 10027 20027 39880 40111 56003 72253 333 55300 20000 30000=
10368,2012,01,01,02,00,AAXX 01021 10368 47/15 /2103 10031 20028 39882 40113 53001 72365 333 55300 20000 30000=
10368,2012,01,01,03,00,AAXX 01031 10368 27020 82103 10036 20036 39879 40110 58002 71065 333 55300 20000 30000 69937 84/01 88/06=
10368,2012,01,01,04,00,AAXX 01041 10368 47124 82103 10038 20035 39878 40108 58002 71000 333 55300 20000 30000 86/02 88/08=
10368,2012,01,01,05,00,AAXX 01051 10368 41140 82103 10041 20037 39879 40109 55003 71022 875// 333 55300 20000 30000 85702 87632=
10368,2012,01,01,06,00,AAXX 01061 10368 11130 82103 10046 20046 39879 40109 55000 69982 71065 875// 333 10046 20015 31001 55038 55300 20000 30000 70008 85702 87624=
10368,2012,01,01,07,00,AAXX 01071 10368 41015 82004 10051 20048 39878 40107 50000 71022 886// 333 55300 20000 30000 88701=
10368,2012,01,01,08,00,AAXX 01081 10368 41150 82104 10057 20057 39880 40109 53001 71022 885// 333 55300 20000 30000 86702 88626=
10368,2012,01,01,09,00,AAXX 01091 10368 32158 82205 10065 20065 39880 40108 53001 875// 333 20015 3/001 55300 20035 30035 83703 87626=
10368,2012,01,01,10,00,AAXX 01101 10368 41140 82105 10072 20068 39879 40106 50001 76165 885// 333 55300 20088 30088 83703 85626 87633=
10368,2012,01,01,11,00,AAXX 01111 10368 41250 82105 10079 20075 39876 40103 58004 76166 875// 333 55300 20100 30099 84704 87620=
10368,2012,01,01,12,00,AAXX 01121 10368 01257 82205 10083 20078 39876 40102 56004 60011 75165 875// 333 31/// 55300 20102 30102 60017 83704 87618=
10368,2012,01,01,13,00,AAXX 01131 10368 41257 82205 10088 20083 39875 40101 56004 72055 885// 333 55300 20095 30095 85704 88617=
10368,2012,01,01,14,00,AAXX 01141 10368 42260 82104 10092 20087 39875 40101 57001 885// 333 55300 20114 30114 84704 88617=
10368,2012,01,01,15,00,AAXX 01151 10368 21562 82204 10094 20089 39874 40099 57002 70352 875// 333 55300 20052 30052 69917 87623=
10368,2012,01,01,16,00,AAXX 01161 10368 42568 82203 10096 20090 39878 40103 53003 875// 333 55300 20000 30000 87620=
10368,2012,01,01,17,00,AAXX 01171 10368 41568 82103 10096 20091 39879 40104 53004 72052 885// 333 55300 20000 30000 88632=
10368,2012,01,01,18,00,AAXX 01181 10368 01565 81903 10096 20096 39878 40103 50004 60022 70252 885// 333 10098 20046 31004 55300 20000 30000 69917 88627=
10368,2012,01,01,19,00,AAXX 01191 10368 42580 82004 10099 20093 39876 40101 58002 885// 333 55300 20000 30000 88629=
10368,2012,01,01,20,00,AAXX 01201 10368 41680 81904 10098 20092 39869 40094 58010 72162 875// 333 55300 20000 30000 87639=
10368,2012,01,01,21,00,AAXX 01211 10368 27585 71905 10099 20090 39864 40089 58014 70065 333 55300 20000 30000 69907 85/20 86/56 87/80=
10368,2012,01,01,22,00,AAXX 01221 10368 47564 71905 10098 20087 39855 40080 58021 76260 333 55300 20000 30000 87/21 87/57 87/60=
10368,2012,01,01,23,00,AAXX 01231 10368 47579 81804 10096 20089 39843 40067 58026 76166 333 55300 20000 30000 84/23 85/44 88/57=
10376,2012,01,01,00,00,AAXX 01001 10376 07450 71302 10013 20005 30051 40121 57004 69901 72265 333 55300 69907 82/17 87/47 87/50=
10376,2012,01,01,01,00,AAXX 01011 10376 47214 81303 10013 20007 30048 40118 58005 75150 333 55300 87/06 88/13 88/18=
10376,2012,01,01,02,00,AAXX 01021 10376 47217 81202 10015 20015 30049 40118 55004 72250 333 55300 88/04=
10376,2012,01,01,03,00,AAXX 01031 10376 27243 72301 10029 20025 30046 40115 57005 71050 333 55300 69907 87/05 87/13=
10376,2012,01,01,04,00,AAXX 01041 10376 47243 82502 10042 20036 30044 40113 58004 72250 333 55300 87/06 88/11=
10376,2012,01,01,05,00,AAXX 01051 10376 47435 82303 10049 20040 30044 40113 56005 71000 333 55300 88/11=
10376,2012,01,01,06,00,AAXX 01061 10376 07341 82302 10052 20042 30044 40112 56002 69902 71050 333 10053 21004 3/102 55048 55300 69907 79999 81/07 83/12 88/17=
10376,2012,01,01,07,00,AAXX 01071 10376 47356 72404 10059 20048 30044 40112 54000 71000 333 55300 82/07 86/30 87/41=
10376,2012,01,01,08,00,AAXX 01081 10376 47356 82404 10064 20054 30046 40114 53002 71000 333 55300 87/06 88/23=
10376,2012,01,01,09,00,AAXX 01091 10376 35360 82404 10074 20064 30043 40111 58001 333 21004 3/102 55300 85/07 86/23 88/31=
10376,2012,01,01,10,00,AAXX 01101 10376 45364 82407 10085 20068 30042 40110 58002 333 55300 82/09 87/33 88/50=
10376,2012,01,01,11,00,AAXX 01111 10376 47569 72407 10091 20072 30038 40105 58008 72365 333 55300 86/29 87/34 87/41=
10376,2012,01,01,12,00,AAXX 01121 10376 07450 72406 10088 20079 30037 40104 57006 69941 76265 333 55300 69947 84/10 87/28=
10376,2012,01,01,13,00,AAXX 01131 10376 47338 82505 10092 20084 30036 40103 56006 75865 333 55300 85/09 87/13 88/24=
10376,2012,01,01,14,00,AAXX 01141 10376 47468 82504 10099 20090 30034 40101 58004 72365 333 55300 87/10 87/24 88/30=
10376,2012,01,01,15,00,AAXX 01151 10376 27573 82505 10103 20092 30034 40101 56003 70065 333 55300 69967 88/28=
10376,2012,01,01,16,00,AAXX 01161 10376 45573 82505 10104 20093 30035 40102 55001 333 55300 88/29=
10376,2012,01,01,17,00,AAXX 01171 10376 47580 82505 10106 20094 30042 40109 53008 72360 333 55300 85/24 88/28=
10376,2012,01,01,18,00,AAXX 01181 10376 07480 82304 10108 20095 30042 40109 51008 60012 70065 333 10109 20048 3/004 55300 69907 81/12 86/25 88/33=
10376,2012,01,01,19,00,AAXX 01191 10376 45683 82404 10110 20095 30040 40107 50005 333 55300 88/36=
10376,2012,01,01,20,00,AAXX 01201 10376 47686 82305 10112 20094 30040 40107 57002 72360 333 55300 88/37=
10376,2012,01,01,21,00,AAXX 01211 10376 27587 82105 10108 20090 30031 40098 58011 70060 333 55300 69907 82/27 86/57 88/63=
10376,2012,01,01,22,00,AAXX 01221 10376 45588 72006 10111 20090 30024 40091 58016 333 55300 86/27 87/57=
10376,2012,01,01,23,00,AAXX 01231 10376 47582 82006 10112 20089 30012 40079 58028 75165 333 55300 82/28 83/56 88/58=
10379,2012,01,01,00,00,AAXX 01001 10379 01540 81604 10019 20012 39989 40113 58003 69901 75165 885// 333 31/// 55/// 20327 30159 42384 55300 20000 30000 41156 69907 83630 88638=
10379,2012,01,01,01,00,AAXX 01011 10379 41118 81704 10020 20016 39987 40111 57005 75055 885// 333 55300 20000 30000 41171 86703 88613=
10379,2012,01,01,02,00,AAXX 01021 10379 41120 81903 10024 20021 39987 40111 56003 75055 886// 333 55300 20000 30000 41178 88702=
10379,2012,01,01,03,00,AAXX 01031 10379 21114 81904 10029 20027 39983 40106 58006 75152 877// 333 55300 20000 30000 41187 69937 87702=
10379,2012,01,01,04,00,AAXX 01041 10379 41118 81904 10034 20032 39981 40104 58006 72055 886// 333 55300 20000 30000 41198 88703=
10379,2012,01,01,05,00,AAXX 01051 10379 41224 82004 10037 20035 39982 40105 55005 71022 876// 333 55300 20000 30000 41209 87704=
10379,2012,01,01,06,00,AAXX 01061 10379 01124 81904 10041 20039 39982 40105 56001 69952 71052 885// 333 10042 20010 31101 55047 55300 20000 30000 41214 69927 70005 85703 88613=
10379,2012,01,01,07,00,AAXX 01071 10379 41530 82004 10047 20047 39981 40103 50000 71022 885// 333 55300 20000 30000 41213 88630=
10379,2012,01,01,08,00,AAXX 01081 10379 41528 82005 10052 20049 39981 40103 57001 71022 885// 333 55300 20007 30007 41230 88620=
10379,2012,01,01,09,00,AAXX 01091 10379 31235 82006 10060 20058 39978 40100 58004 71022 886// 333 20010 3/101 55300 20080 30077 41230 88704=
10379,2012,01,01,10,00,AAXX 01101 10379 42560 72105 10069 20066 39978 40099 57003 875// 333 55300 20078 30075 41249 87630=
10379,2012,01,01,11,00,AAXX 01111 10379 41562 82205 10080 20076 39974 40095 58007 76162 885// 333 55300 20160 30154 41258 88626=
10379,2012,01,01,12,00,AAXX 01121 10379 01458 82206 10084 20081 39973 40094 58005 69961 76162 885// 333 31/// 55300 20115 30112 41278 69967 88616=
10379,2012,01,01,13,00,AAXX 01131 10379 41458 82206 10090 20087 39973 40093 56005 75866 885// 333 55300 20121 30117 41286 88613=
10379,2012,01,01,14,00,AAXX 01141 10379 41265 72205 10095 20095 39971 40091 58003 72122 8483/ 333 55300 20175 30170 41279 82806 84626 87366=
10379,2012,01,01,15,00,AAXX 01151 10379 21572 72306 10096 20091 39972 40092 55001 70262 875// 333 55300 20067 30065 41281 69967 87623=
10379,2012,01,01,16,00,AAXX 01161 10379 41474 72405 10095 20090 39976 40096 53003 72122 875// 333 55300 20001 30001 41293 87616=
10379,2012,01,01,17,00,AAXX 01171 10379 41574 82205 10096 20096 39979 40099 53008 72122 885// 333 55300 20000 30000 41282 88630=
10379,2012,01,01,18,00,AAXX 01181 10379 01472 62004 10095 20095 39980 40100 51008 60012 70162 83530 333 10098 20041 31004 55300 20000 30000 41246 69907 83616 86363=
10379,2012,01,01,19,00,AAXX 01191 10379 42572 71905 10097 20097 39976 40096 50000 875// 333 55300 20000 30000 41253 84624 87635=
10379,2012,01,01,20,00,AAXX 01201 10379 41670 71905 10101 20096 39972 40092 58007 76122 875// 333 55300 20000 30000 41288 87635=
10379,2012,01,01,21,00,AAXX 01211 10379 21678 71906 10103 20098 39963 40083 58017 72162 84531 333 55300 20000 30000 41271 69917 84640 84362=
10379,2012,01,01,22,00,AAXX 01221 10379 42880 81907 10100 20092 39956 40076 58020 8557/ 333 55300 20000 30000 41199 85657 88361=
10379,2012,01,01,23,00,AAXX 01231 10379 41566 81906 10099 20092 39947 40067 57025 76162 885// 333 55300 20000 30000 41271 83623 88656=
10381,2012,01,01,00,00,AAXX 01001 10381 01612 81503 10016 20000 30025 40114 57003 69901 72152 885// 333 31/// 55300 69907 88640 96004=
10381,2012,01,01,01,00,AAXX 01011 10381 41214 81603 10016 20004 30021 40110 58005 75152 887// 333 55300 88705=
10381,2012,01,01,02,00,AAXX 01021 10381 41214 81703 10019 20013 30020 40109 57006 75155 887// 333 55300 88703 96004=
10381,2012,01,01,03,00,AAXX 01031 10381 21/08 91803 10021 20017 30018 40107 57007 77775 333 55300 69917 89/00 96047=
10381,2012,01,01,04,00,AAXX 01041 10381 41/08 91803 10025 20021 30015 40104 57006 77774 333 55300 89/00 96045=
10381,2012,01,01,05,00,AAXX 01051 10381 41/09 91903 10031 20028 30017 40106 55003 77774 333 55300 89/00=
10381,2012,01,01,06,00,AAXX 01061 10381 01125 82004 10037 20034 30015 40103 58003 69912 72075 876// 333 10037 20011 31101 55025 55300 69907 70001 85702 87715 96243=
10381,2012,01,01,07,00,AAXX 01071 10381 41130 81804 10042 20037 30014 40102 58001 71022 876// 333 55300 87702=
10381,2012,01,01,08,00,AAXX 01081 10381 41130 82004 10047 20043 30014 40102 56003 71022 876// 333 55300 87703=
10381,2012,01,01,09,00,AAXX 01091 10381 31130 81905 10054 20049 30012 40100 57003 71022 876// 333 20011 3/101 55300 87703=
10381,2012,01,01,10,00,AAXX 01101 10381 41257 82105 10064 20058 30012 40100 56002 72022 877// 333 55300 87704=
10381,2012,01,01,11,00,AAXX 01111 10381 41257 82105 10073 20065 30007 40094 57007 76162 877// 333 55300 87704=
10381,2012,01,01,12,00,AAXX 01121 10381 01156 82205 10081 20075 30006 40093 58006 69951 75865 877// 333 31/// 55300 69957 87703=
10381,2012,01,01,13,00,AAXX 01131 10381 41230 82205 10087 20081 30006 40093 56006 75866 877// 333 55300 87704=
10381,2012,01,01,14,00,AAXX 01141 10381 41258 82204 10091 20086 30003 40090 57004 72165 877// 333 55300 87705 96220=
10381,2012,01,01,15,00,AAXX 01151 10381 21358 82204 10093 20088 30004 40091 55002 75065 877// 333 55300 69977 85706 87626=
10381,2012,01,01,16,00,AAXX 01161 10381 41358 82203 10093 20088 30009 40096 53003 75122 877// 333 55300 86706 87620=
10381,2012,01,01,17,00,AAXX 01171 10381 41465 72203 10095 20090 30013 40100 52010 75122 877// 333 55300 84710 87630=
10381,2012,01,01,18,00,AAXX 01181 10381 01463 72004 10095 20090 30013 40100 51009 60012 72065 878// 333 10096 20037 31004 55300 69907 82810 84620 87630=
10381,2012,01,01,19,00,AAXX 01191 10381 42462 71904 10095 20090 30009 40095 50000 878// 333 55300 82810 87630=
10381,2012,01,01,20,00,AAXX 01201 10381 41470 72005 10099 20093 30007 40093 58006 76122 878// 333 55300 82810 83620 87630=
10381,2012,01,01,21,00,AAXX 01211 10381 NIL=
10381,2012,01,01,22,00,AAXX 01221 10381 NIL=
10381,2012,01,01,23,00,AAXX 01231 10381 41559 81906 10100 20086 39982 40068 57025 76162 885// 333 55300 88623=
10382,2012,01,01,00,00,AAXX 01001 10382 01429 81503 10026 20006 30071 40117 58003 69901 72122 876// 333 31/// 55/// 20186 30156 55300 20000 30000 69907 87711 96004=
10382,2012,01,01,01,00,AAXX 01011 10382 41118 81602 10022 20009 30068 40114 58005 76062 876// 333 55300 20000 30000 85703 87710 96004=
10382,2012,01,01,02,00,AAXX 01021 10382 41114 81702 10023 20015 30068 40114 56005 75162 876// 333 55300 20000 30000 87703 96004=
10382,2012,01,01,03,00,AAXX 01031 10382 21122 81902 10027 20021 30065 40111 57006 75165 876// 333 55300 20000 30000 69917 87703 96004=
10382,2012,01,01,04,00,AAXX 01041 10382 41130 81903 10031 20025 30062 40108 58006 72022 876// 333 55300 20000 30000 87703=
10382,2012,01,01,05,00,AAXX 01051 10382 41133 81802 10035 20029 30062 40108 56006 72022 876// 333 55300 20000 30000 87703=
10382,2012,01,01,06,00,AAXX 01061 10382 01133 81903 10041 20035 30061 40107 56004 69912 71065 876// 333 10041 20021 31001 55011 55300 20000 30000 69907 70001 87703=
10382,2012,01,01,07,00,AAXX 01071 10382 41433 81702 10048 20041 30059 40104 58003 72022 875// 333 55300 20000 30000 84616 87634=
10382,2012,01,01,08,00,AAXX 01081 10382 41237 81903 10053 20043 30060 40105 55002 71022 875// 333 55300 20000 30000 84705 87621=
10382,2012,01,01,09,00,AAXX 01091 10382 21250 82003 10060 20051 30057 40102 58004 71052 876// 333 20021 3/001 55300 20019 30019 69907 87705=
10382,2012,01,01,10,00,AAXX 01101 10382 41257 82103 10068 20059 30056 40101 58003 75852 875// 333 55300 20073 30073 85705 87620=
10382,2012,01,01,11,00,AAXX 01111 10382 41359 82103 10078 20068 30051 40096 58009 76162 875// 333 55300 20075 30075 82708 87620=
10382,2012,01,01,12,00,AAXX 01121 10382 01258 82204 10086 20077 30050 40095 57007 69951 76165 875// 333 31/// 55300 20116 30116 69957 84706 87616=
10382,2012,01,01,13,00,AAXX 01131 10382 41331 82305 10092 20083 30049 40094 56007 76166 875// 333 55300 20085 30085 84707 87618=
10382,2012,01,01,14,00,AAXX 01141 10382 41362 82304 10098 20088 30047 40092 58004 76162 876// 333 55300 20063 30063 84708 87710=
10382,2012,01,01,15,00,AAXX 01151 10382 21370 82403 10099 20089 30049 40094 55001 72162 875// 333 55300 20015 30015 69957 84707 87614=
10382,2012,01,01,16,00,AAXX 01161 10382 41370 72504 10103 20090 30053 40097 53004 72122 875// 333 55300 20000 30000 82708 87614=
10382,2012,01,01,17,00,AAXX 01171 10382 41375 72304 10103 20091 30055 40099 52008 72122 875// 333 55300 20000 30000 81709 87630=
10382,2012,01,01,18,00,AAXX 01181 10382 01480 72103 10103 20090 30057 40101 51008 60012 70262 875// 333 10106 20042 31004 55300 20000 30000 69907 81615 87630=
10382,2012,01,01,19,00,AAXX 01191 10382 42370 71903 10103 20093 30052 40096 58001 875// 333 55300 20000 30000 81709 87618=
10382,2012,01,01,20,00,AAXX 01201 10382 41375 72003 10105 20093 30050 40094 58005 76022 875// 333 55300 20000 30000 81708 87634=
10382,2012,01,01,21,00,AAXX 01211 10382 21578 72004 10108 20095 30040 40084 58017 76062 875// 333 55300 20000 30000 69917 87630=
10382,2012,01,01,22,00,AAXX 01221 10382 41680 72005 10109 20093 30033 40077 58019 72122 875// 333 55300 20000 30000 87640=
10382,2012,01,01,23,00,AAXX 01231 10382 41770 81905 10107 20089 30025 40069 56025 76162 875// 333 55300 20000 30000 87650=
10384,2012,01,01,00,00,AAXX 01001 10384 06/// /1402 10015 20003 30056 40117 58003 69901 333 55/// 20226 30176 55300 20000 30000 69907=
10384,2012,01,01,01,00,AAXX 01011 10384 46/// /1503 10016 20007 30053 40114 58005 333 55300 20000 30000=
10384,2012,01,01,02,00,AAXX 01021 10384 46/// /1602 10019 20013 30052 40113 56006 333 55300 20000 30000=
10384,2012,01,01,03,00,AAXX 01031 10384 26/// /1602 10021 20017 30050 40111 56006 333 55300 20000 30000 69917=
10384,2012,01,01,04,00,AAXX 01041 10384 46/// /1701 10025 20025 30046 40107 58007 333 55300 20000 30000=
10384,2012,01,01,05,00,AAXX 01051 10384 46/// /1702 10032 20029 30046 40107 56006 333 55300 20000 30000=
10384,2012,01,01,06,00,AAXX 01061 10384 06/// /2103 10042 20038 30046 40107 56004 69912 333 10042 20012 3/101 55021 55300 20000 30000 69907 70001=
10384,2012,01,01,07,00,AAXX 01071 10384 46/// /1702 10046 20042 30044 40104 58002 333 55300 20000 30000=
10384,2012,01,01,08,00,AAXX 01081 10384 46/// /1903 10053 20047 30045 40105 55001 333 55300 20001 30001=
10384,2012,01,01,09,00,AAXX 01091 10384 26/// /1904 10060 20054 30043 40103 57003 333 20012 3/101 55300 20034 30034 69907=
10384,2012,01,01,10,00,AAXX 01101 10384 46/// /2103 10069 20062 30042 40102 58002 333 55300 20111 30111=
10384,2012,01,01,11,00,AAXX 01111 10384 46/// /2103 10077 20069 30037 40097 58008 333 55300 20091 30091=
10384,2012,01,01,12,00,AAXX 01121 10384 06/// /2105 10085 20080 30035 40095 58008 69941 333 55300 20167 30167 69947=
10384,2012,01,01,13,00,AAXX 01131 10384 46/// /2204 10090 20086 30035 40094 56007 333 55300 20115 30115=
10384,2012,01,01,14,00,AAXX 01141 10384 46/// /2203 10094 20090 30033 40092 57004 333 55300 20086 30086=
10384,2012,01,01,15,00,AAXX 01151 10384 26/// /2203 10097 20091 30033 40092 57002 333 55300 20036 30036 69987=
10384,2012,01,01,16,00,AAXX 01161 10384 46/// /2203 10099 20092 30038 40097 53003 333 55300 20000 30000=
10384,2012,01,01,17,00,AAXX 01171 10384 46/// /2203 10099 20092 30042 40101 53009 333 55300 20000 30000=
10384,2012,01,01,18,00,AAXX 01181 10384 06/// /1904 10101 20095 30042 40101 51009 60012 333 10101 20042 3/004 55300 20000 30000 69907=
10384,2012,01,01,19,00,AAXX 01191 10384 46/// /1903 10101 20096 30038 40097 50000 333 55300 20000 30000=
10384,2012,01,01,20,00,AAXX 01201 10384 46/// /2004 10106 20097 30038 40097 57004 333 55300 20000 30000=
10384,2012,01,01,21,00,AAXX 01211 10384 26/// /1904 10108 20098 30027 40086 58015 333 55300 20000 30000 69907=
10384,2012,01,01,22,00,AAXX 01221 10384 46/// /1904 10107 20094 30020 40079 58018 333 55300 20000 30000=
10384,2012,01,01,23,00,AAXX 01231 10384 46/// /1904 10107 20092 30012 40071 56026 333 55300 20000 30000=
10385,2012,01,01,00,00,AAXX 01001 10385 01459 81503 10012 21000 30057 40120 56004 69901 72061 875// 333 31/// 55/// 20226 30170 55300 20000 30000 69907 83616 87628=
10385,2012,01,01,01,00,AAXX 01011 10385 41358 81603 10015 20003 30053 40116 58006 75022 875// 333 55300 20000 30000 86707 87638=
10385,2012,01,01,02,00,AAXX 01021 10385 41150 81603 10015 20008 30053 40116 56005 75055 877// 333 55300 20000 30000 84703 87705=
10385,2012,01,01,03,00,AAXX 01031 10385 21130 81702 10018 20012 30052 40115 56005 75052 877// 333 55300 20000 30000 69907 87702=
10385,2012,01,01,04,00,AAXX 01041 10385 41028 81702 10022 20017 30048 40111 58005 75055 877// 333 55300 20000 30000 82701 87702=
10385,2012,01,01,05,00,AAXX 01051 10385 41128 81902 10028 20023 30047 40110 57006 72022 876// 333 55300 20000 30000 87702=
10385,2012,01,01,06,00,AAXX 01061 10385 01230 82003 10036 20031 30048 40110 55004 69902 71052 876// 333 10036 20004 31102 55019 55300 20000 30000 69907 70001 86704 87709=
10385,2012,01,01,07,00,AAXX 01071 10385 41430 81903 10044 20039 30046 40108 58002 71022 875// 333 55300 20000 30000 84617 87637=
10385,2012,01,01,08,00,AAXX 01081 10385 41228 82004 10049 20042 30048 40110 53001 71022 875// 333 55300 20000 30000 81705 87621=
10385,2012,01,01,09,00,AAXX 01091 10385 21245 82104 10058 20052 30045 40107 58003 72122 876// 333 20004 3/102 55300 20026 30026 69907 82704 87705=
10385,2012,01,01,10,00,AAXX 01101 10385 41250 82104 10066 20059 30043 40105 58003 72122 875// 333 55300 20085 30085 85705 87629=
10385,2012,01,01,11,00,AAXX 01111 10385 41445 82205 10077 20067 30039 40100 58009 75862 875// 333 55300 20077 30077 84616 87623=
10385,2012,01,01,12,00,AAXX 01121 10385 01340 82205 10083 20075 30037 40098 57008 69941 75862 875// 333 31/// 55300 20124 30124 69947 83708 87619=
10385,2012,01,01,13,00,AAXX 01131 10385 41224 82306 10088 20082 30037 40098 56006 75966 877// 333 55300 20099 30099 84705 87709=
10385,2012,01,01,14,00,AAXX 01141 10385 41256 82305 10092 20085 30035 40096 57004 75866 875// 333 55300 20077 30077 83704 86705 87612=
10385,2012,01,01,15,00,AAXX 01151 10385 21258 82204 10093 20085 30036 40097 55001 72162 875// 333 55300 20035 30035 60027 82706 87619=
10385,2012,01,01,16,00,AAXX 01161 10385 42468 82103 10093 20085 30039 40100 53002 875// 333 55300 20000 30000 81612 83618 87622=
10385,2012,01,01,17,00,AAXX 01171 10385 41468 82204 10097 20089 30044 40105 53009 72162 875// 333 55300 20000 30000 85618 87628=
10385,2012,01,01,18,00,AAXX 01181 10385 01462 82004 10096 20089 30045 40106 51009 60022 72162 875// 333 10099 20036 31004 55300 20000 30000 69907 84614 87617=
10385,2012,01,01,19,00,AAXX 01191 10385 41565 72004 10096 20090 30040 40101 50001 72122 875// 333 55300 20000 30000 85624 87638=
10385,2012,01,01,20,00,AAXX 01201 10385 41670 72105 10105 20095 30041 40102 57003 72122 875// 333 55300 20000 30000 87636=
10385,2012,01,01,21,00,AAXX 01211 10385 21680 72004 10102 20091 30029 40090 58016 72162 875// 333 55300 20000 30000 69907 83636 87657=
10385,2012,01,01,22,00,AAXX 01221 10385 41481 71905 10103 20089 30025 40086 58015 75822 875// 333 55300 20000 30000 81710 83625 87657=
10385,2012,01,01,23,00,AAXX 01231 10385 41580 72006 10106 20088 30013 40073 57028 72122 875// 333 55300 20000 30000 85625 87657=
10393,2012,01,01,00,00,AAXX 01001 10393 01556 81403 10003 21004 39995 40125 56003 69901 72111 875// 333 34/// 55/// 20230 30179 55300 20000 30000 69907 87632=
10393,2012,01,01,01,00,AAXX 01011 10393 41656 81602 10004 21003 39990 40120 58006 71022 875// 333 55300 20000 30000 87635=
10393,2012,01,01,02,00,AAXX 01021 10393 41240 81802 10009 20002 39990 40120 57005 71022 876// 333 55300 20000 30000 87705=
10393,2012,01,01,03,00,AAXX 01031 10393 21220 81602 10011 20008 39987 40116 56008 75122 877// 333 55300 20000 30000 69907 87705=
10393,2012,01,01,04,00,AAXX 01041 10393 41115 81702 10016 20016 39984 40113 58006 72022 876// 333 55300 20000 30000 87703=
10393,2012,01,01,05,00,AAXX 01051 10393 41/07 91803 10022 20021 39984 40113 56006 74742 333 55300 20000 30000=
10393,2012,01,01,06,00,AAXX 01061 10393 01110 81803 10030 20029 39984 40112 56003 69902 72854 876// 333 10030 21006 31102 55011 55300 20000 30000 69907 79999 87703=
10393,2012,01,01,07,00,AAXX 01071 10393 41220 81903 10038 20036 39985 40113 53001 71022 875// 333 55300 20000 30000 84704 87611=
10393,2012,01,01,08,00,AAXX 01081 10393 41225 81603 10040 20038 39985 40113 52001 71022 875// 333 55300 20023 30023 84706 87630=
10393,2012,01,01,09,00,AAXX 01091 10393 21220 81903 10048 20045 39984 40112 50000 76022 876// 333 21006 3/102 55300 20087 30085 69907 87705=
10393,2012,01,01,10,00,AAXX 01101 10393 41230 82003 10060 20055 39982 40109 58003 72122 876// 333 55300 20141 30139 87704=
10393,2012,01,01,11,00,AAXX 01111 10393 41256 82104 10071 20064 39977 40103 58008 72122 875// 333 55300 20149 30146 84705 87625=
10393,2012,01,01,12,00,AAXX 01121 10393 01556 82204 10076 20070 39975 40101 57009 69921 76162 875// 333 31/// 55300 20149 30145 69927 87623=
10393,2012,01,01,13,00,AAXX 01131 10393 41225 82305 10083 20078 39975 40101 56007 75866 877// 333 55300 20159 30153 87705=
10393,2012,01,01,14,00,AAXX 01141 10393 41125 82305 10086 20086 39974 40100 56003 75166 877// 333 55300 20069 30064 87703=
10393,2012,01,01,15,00,AAXX 01151 10393 21258 82304 10089 20085 39973 40098 58002 72065 875// 333 55300 20033 30031 69997 85705 87619=
10393,2012,01,01,16,00,AAXX 01161 10393 41260 82304 10092 20087 39976 40101 53001 72122 875// 333 55300 20002 30002 83705 87619=
10393,2012,01,01,17,00,AAXX 01171 10393 41558 82305 10095 20090 39982 40107 53008 75122 875// 333 55300 20000 30000 87621=
10393,2012,01,01,18,00,AAXX 01181 10393 01458 82305 10096 20096 39984 40109 51011 60012 75165 875// 333 10096 20030 31003 55300 20000 30000 69907 84618 87626=
10393,2012,01,01,19,00,AAXX 01191 10393 41458 82103 10097 20097 39980 40105 50004 75155 875// 333 55300 20000 30000 87619=
10393,2012,01,01,20,00,AAXX 01201 10393 41662 82104 10099 20093 39981 40106 58001 72055 875// 333 55300 20000 30000 87634=
10393,2012,01,01,22,00,AAXX 01221 10393 42580 82004 10101 20090 39966 40091 58014 8555/ 333 55300 20000 30000 85629 87359=
10393,2012,01,01,23,00,AAXX 01231 10393 41580 82004 10104 20091 39958 40083 56023 72122 875// 333 55300 20000 30000 87623=
10396,2012,01,01,00,00,AAXX 01001 10396 17524 71402 10005 21004 30113 40130 56005 60001 71000 333 55300 83/24 87/60 87/64=
10396,2012,01,01,01,00,AAXX 01011 10396 47750 71402 10004 21004 30109 40126 58006 71000 333 55300 85/50 86/57 87/60=
10396,2012,01,01,02,00,AAXX 01021 10396 47540 81503 10005 21003 30107 40123 57008 71000 333 55300 85/25 86/48 88/56=
10396,2012,01,01,03,00,AAXX 01031 10396 37550 81502 10010 20001 30106 40122 56007 71000 333 55300 87/23 88/28 88/36=
10396,2012,01,01,04,00,AAXX 01041 10396 47350 81602 10013 20004 30103 40119 58006 71000 333 55300 88/08=
10396,2012,01,01,05,00,AAXX 01051 10396 47235 81503 10015 20009 30102 40118 57005 71000 333 55300 88/05=
10396,2012,01,01,06,00,AAXX 01061 10396 17215 81502 10018 20013 30100 40116 56006 60002 71000 333 10019 20003 3/101 55008 55300 70000 88/04=
10396,2012,01,01,07,00,AAXX 01071 10396 47227 81604 10024 20019 30102 40118 55001 72365 333 55300 88/04=
10396,2012,01,01,08,00,AAXX 01081 10396 47217 81603 10028 20028 30103 40119 53001 71000 333 55300 88/05=
10396,2012,01,01,09,00,AAXX 01091 10396 27333 81604 10038 20033 30097 40113 58003 71065 333 20003 3/101 55300 69907 82/08 88/39=
10396,2012,01,01,10,00,AAXX 01101 10396 47338 81604 10048 20041 30092 40108 58010 76160 333 55300 87/07 88/25=
10396,2012,01,01,11,00,AAXX 01111 10396 47339 81904 10059 20053 30090 40106 56013 75165 333 55300 86/07 87/21 88/32=
10396,2012,01,01,12,00,AAXX 01121 10396 07448 82004 10068 20061 30084 40100 58013 69911 76165 333 55300 69917 82/12 87/24 88/30=
10396,2012,01,01,13,00,AAXX 01131 10396 47357 82105 10077 20069 30083 40099 56009 72365 333 55300 81/09 88/22 88/27=
10396,2012,01,01,14,00,AAXX 01141 10396 47358 82204 10084 20079 30081 40097 56009 72250 333 55300 87/07 87/13 88/22=
10396,2012,01,01,15,00,AAXX 01151 10396 27361 82305 10090 20083 30082 40098 55002 76165 333 55300 69947 87/08 88/13=
10396,2012,01,01,16,00,AAXX 01161 10396 47463 82305 10092 20084 30084 40100 53001 72365 333 55300 86/14 88/22 88/29=
10396,2012,01,01,17,00,AAXX 01171 10396 45466 82304 10096 20087 30090 40106 53009 333 55300 83/11 85/16 88/24=
10396,2012,01,01,18,00,AAXX 01181 10396 07466 72304 10095 20088 30092 40108 52010 69952 70065 333 10096 20018 3/002 55300 69907 81/11 87/35=
10396,2012,01,01,19,00,AAXX 01191 10396 45666 82103 10095 20089 30089 40105 50005 333 55300 88/37=
10396,2012,01,01,20,00,AAXX 01201 10396 45664 82204 10096 20090 30091 40107 52001 333 55300 88/38=
10396,2012,01,01,21,00,AAXX 01211 10396 35673 81904 10100 20090 30080 40096 58012 333 55300 88/39=
10396,2012,01,01,22,00,AAXX 01221 10396 45677 81904 10099 20088 30076 40092 58013 333 55300 87/37 87/59 88/62=
10396,2012,01,01,23,00,AAXX 01231 10396 47584 82006 10103 20089 30067 40083 56024 72360 333 55300 82/26 87/46 88/58=
10400,2012,01,01,00,00,AAXX 01001 10400 01240 82104 10103 20096 30065 40114 53001 69931 72165 876// 333 32/// 55/// 20055 30055 55300 20000 30000 69927 84706 87710=
10400,2012,01,01,01,00,AAXX 01011 10400 41456 82105 10104 20096 30062 40111 58002 71022 875// 333 55300 20000 30000 85710 87640=
10400,2012,01,01,02,00,AAXX 01021 10400 41245 82005 10105 20099 30061 40110 58003 75862 876// 333 55300 20000 30000 84705 87708 96010=
10400,2012,01,01,03,00,AAXX 01031 10400 21256 82105 10106 20100 30060 40109 56005 75862 876// 333 55300 20000 30000 69927 83705 87708 96010=
10400,2012,01,01,04,00,AAXX 01041 10400 41365 82106 10110 20099 30058 40107 58004 76022 875// 333 55300 20000 30000 84708 87612=
10400,2012,01,01,05,00,AAXX 01051 10400 41365 82106 10109 20101 30057 40106 57004 76066 875// 333 55300 20000 30000 85708 87615=
10400,2012,01,01,06,00,AAXX 01061 10400 01261 82106 10109 20101 30055 40104 57005 69992 72165 886// 333 10111 20093 32009 55000 55300 20000 30000 69947 70070 82705 87707 96258 96251 96461=
10400,2012,01,01,07,00,AAXX 01071 10400 41365 82205 10114 20104 30058 40107 55000 75122 886// 333 55300 20000 30000 81707 86709 88713=
10400,2012,01,01,08,00,AAXX 01081 10400 41481 82106 10120 20107 30059 40108 53002 72152 888// 333 55300 20000 30000 86812 88615=
10400,2012,01,01,09,00,AAXX 01091 10400 21360 82207 10117 20107 30061 40110 51006 76165 888// 333 20093 3/009 55300 20002 30002 69907 81809 86811 88614=
10400,2012,01,01,10,00,AAXX 01101 10400 41245 82206 10117 20111 30065 40114 53007 75966 888// 333 55300 20047 30047 81806 87610 96265=
10400,2012,01,01,11,00,AAXX 01111 10400 41362 82206 10121 20114 30064 40113 50005 72166 888// 333 55300 20099 30099 81807 86810 88613=
10400,2012,01,01,12,00,AAXX 01121 10400 01365 72106 10121 20114 30057 40106 58004 60021 72065 876// 333 32/// 55300 20140 30140 60027 81707 87711=
10400,2012,01,01,13,00,AAXX 01131 10400 41460 82106 10124 20114 30050 40099 58015 75152 875// 333 55300 20127 30127 82710 83612 87615=
10400,2012,01,01,14,00,AAXX 01141 10400 41350 82006 10124 20113 30046 40095 56018 75122 875// 333 55300 20085 30085 82708 87612=
10400,2012,01,01,15,00,AAXX 01151 10400 21265 71906 10121 20114 30046 40095 56011 72052 875// 333 55300 20025 30025 69947 81706 83710 87618=
10400,2012,01,01,16,00,AAXX 01161 10400 41470 71805 10125 20111 30039 40088 58011 72022 878// 333 55300 20000 30000 81810 87620=
10400,2012,01,01,17,00,AAXX 01171 10400 42470 71806 10127 20110 30032 40081 58014 878// 333 55300 20000 30000 81810 87634=
10400,2012,01,01,18,00,AAXX 01181 10400 01481 71807 10131 20106 30024 40072 58022 60032 70252 878// 333 10132 20109 32010 55300 20000 30000 69907 81810 87623=
10400,2012,01,01,19,00,AAXX 01191 10400 41562 71806 10134 20106 30016 40064 58023 72122 878// 333 55300 20000 30000 82820 87623=
10400,2012,01,01,20,00,AAXX 01201 10400 41575 71807 10137 20105 30007 40055 58025 72122 875// 333 55300 20000 30000 87627=
10400,2012,01,01,22,00,AAXX 01221 10400 42575 71907 10140 20103 39991 40039 56025 875// 333 55300 20000 30000 87628=
10400,2012,01,01,23,00,AAXX 01231 10400 41575 82010 10143 20102 39985 40033 56022 76022 875// 333 55300 20000 30000 87624 91114=
10404,2012,01,01,00,00,AAXX 01001 10404 41256 82304 10105 20094 30050 40102 57003 71052 876// 333 87705=
10404,2012,01,01,01,00,AAXX 01011 10404 41257 82205 10105 20093 30048 40100 58003 71022 876// 333 87706=
10404,2012,01,01,02,00,AAXX 01021 10404 41220 82204 10104 20095 30047 40099 57005 75322 876// 333 87704=
10404,2012,01,01,03,00,AAXX 01031 10404 41128 82205 10107 20099 30044 40096 57006 72052 876// 333 85702 87705=
10404,2012,01,01,04,00,AAXX 01041 10404 41258 82205 10108 20098 30039 40091 58008 75822 876// 333 87705=
10404,2012,01,01,05,00,AAXX 01051 10404 41260 82205 10108 20099 30038 40090 57009 72122 876// 333 87704=
10404,2012,01,01,06,00,AAXX 01061 10404 11125 82305 10109 20101 30040 40092 55004 69992 75165 876// 333 10110 20099 31010 70045 87703=
10404,2012,01,01,07,00,AAXX 01071 10404 41140 82206 10111 20103 30042 40094 53002 75155 876// 333 87703=
10404,2012,01,01,08,00,AAXX 01081 10404 41140 82305 10113 20104 30045 40097 52007 75155 876// 333 87703=
10404,2012,01,01,09,00,AAXX 01091 10404 41125 82404 10115 20106 30050 40102 52010 75855 876// 333 87703=
10404,2012,01,01,10,00,AAXX 01101 10404 41225 82305 10117 20109 30052 40104 52010 75166 876// 333 87704=
10404,2012,01,01,11,00,AAXX 01111 10404 41225 82304 10118 20110 30048 40100 50003 75155 876// 333 87704=
10404,2012,01,01,12,00,AAXX 01121 10404 41230 82304 10120 20111 30045 40096 57005 75155 876// 333 87706=
10404,2012,01,01,13,00,AAXX 01131 10404 41245 82304 10120 20111 30038 40089 57014 75855 876// 333 85705 87708=
10404,2012,01,01,14,00,AAXX 01141 10404 41358 82106 10122 20111 30033 40084 57016 72166 875// 333 82707 85709 87612=
10404,2012,01,01,15,00,AAXX 01151 10404 41224 82206 10122 20111 30029 40080 57017 75965 875// 333 85706 87612=
10404,2012,01,01,16,00,AAXX 01161 10404 41362 82106 10121 20110 30023 40074 57015 72122 875// 333 85709 87622=
10404,2012,01,01,17,00,AAXX 01171 10404 41258 82005 10120 20110 30015 40066 57017 75155 875// 333 85706 87616=
10404,2012,01,01,18,00,AAXX 01181 10404 11362 82107 10125 20108 30006 40057 57022 60042 75165 875// 333 10126 20109 32011 85708 87616=
10404,2012,01,01,19,00,AAXX 01191 10404 41370 82007 10123 20109 39994 40045 57029 76166 875// 333 82708 85617 87648=
10404,2012,01,01,20,00,AAXX 01201 10404 41470 82108 10128 20107 39983 40034 57032 72162 875// 333 85619 87623=
10404,2012,01,01,21,00,AAXX 01211 10404 41470 82109 10133 20106 39974 40025 57032 76162 875// 333 85619 87623 91113=
10404,2012,01,01,22,00,AAXX 01221 10404 41470 82210 10137 20103 39967 40018 57027 76166 875// 333 85618 87623 91016 91116 91211=
10404,2012,01,01,23,00,AAXX 01231 10404 41458 82210 10129 20108 39962 40013 57021 76366 875// 333 85612 87617 91118 91211=
10410,2012,01,01,00,00,AAXX 01001 10410 07118 72404 10097 20095 39931 40111 55000 60011 72265 333 55300 60017 87/02 87/10=
10410,2012,01,01,01,00,AAXX 01011 10410 47214 82305 10098 20093 39928 40108 58002 72250 333 55300 87/06 88/31=
10410,2012,01,01,02,00,AAXX 01021 10410 47223 82205 10100 20095 39928 40108 58002 75165 333 55300 88/05 88/32=
10410,2012,01,01,03,00,AAXX 01031 10410 27119 72305 10101 20097 39926 40106 56005 75165 333 55300 69937 87/02=
10410,2012,01,01,04,00,AAXX 01041 10410 47247 72204 10102 20097 39927 40107 55001 75150 333 55300 87/04=
10410,2012,01,01,05,00,AAXX 01051 10410 47260 72205 10103 20097 39925 40105 57003 76165 333 55300 87/05=
10410,2012,01,01,06,00,AAXX 01061 10410 07233 72207 10105 20100 39922 40101 58004 60022 75365 333 10105 20091 3/009 55000 55300 69997 70085 87/03 91113=
10410,2012,01,01,07,00,AAXX 01071 10410 47261 82306 10107 20101 39926 40105 55001 72365 333 55300 88/04=
10410,2012,01,01,08,00,AAXX 01081 10410 47273 82206 10110 20103 39927 40106 53002 76160 333 55300 88/04=
10410,2012,01,01,09,00,AAXX 01091 10410 27238 82305 10111 20105 39929 40108 51007 75865 333 20091 3/009 55300 69997 88/04=
10410,2012,01,01,10,00,AAXX 01101 10410 47131 72305 10111 20107 39933 40112 53007 75865 333 55300 87/03=
10410,2012,01,01,11,00,AAXX 01111 10410 47133 72305 10112 20108 39932 40111 50005 75265 333 55300 87/02=
10410,2012,01,01,12,00,AAXX 01121 10410 07147 72305 10114 20110 39925 40104 58004 60051 75265 333 55300 60047 87/02=
10410,2012,01,01,13,00,AAXX 01131 10410 47264 82206 10116 20110 39919 40098 58014 72365 333 55300 87/05 88/09=
10410,2012,01,01,14,00,AAXX 01141 10410 47250 82205 10116 20110 39915 40094 56017 76265 333 55300 88/05 88/15=
10410,2012,01,01,15,00,AAXX 01151 10410 27264 72105 10115 20110 39914 40093 56011 75165 333 55300 69997 87/04=
10410,2012,01,01,16,00,AAXX 01161 10410 47277 82003 10115 20109 39910 40088 57009 72365 333 55300 87/04 88/12=
10410,2012,01,01,17,00,AAXX 01171 10410 45385 81804 10118 20108 39901 40079 58014 333 55300 83/07 87/12 88/18=
10410,2012,01,01,18,00,AAXX 01181 10410 07488 81904 10121 20105 39893 40071 58021 60062 70065 333 10121 20104 3/010 55300 69917 81/12 88/19=
10410,2012,01,01,19,00,AAXX 01191 10410 47382 82005 10121 20103 39887 40065 56023 75165 333 55300 84/07 88/14=
10410,2012,01,01,20,00,AAXX 01201 10410 47488 82005 10124 20101 39876 40053 58025 72250 333 55300 81/13 88/20=
10410,2012,01,01,21,00,AAXX 01211 10410 27588 81906 10128 20100 39868 40045 58025 70065 333 55300 69907 88/22 88/61=
10410,2012,01,01,22,00,AAXX 01221 10410 45588 82007 10130 20099 39860 40037 56027 333 55300 88/23 91113=
10410,2012,01,01,23,00,AAXX 01231 10410 47239 82107 10124 20103 39857 40034 56019 75865 333 55300 88/06 91113=
10418,2012,01,01,00,00,AAXX 01001 10418 07223 72506 10084 20083 39652 40115 53001 60021 75165 333 55/// 20068 30068 55300 20000 30000 69977 87/05=
10418,2012,01,01,01,00,AAXX 01011 10418 47356 82406 10084 20079 39650 40113 58001 72250 333 55300 20000 30000 84/08 87/13 88/26=
10418,2012,01,01,02,00,AAXX 01021 10418 47340 72505 10084 20078 39652 40115 53001 71000 333 55300 20000 30000 87/08 87/13 87/30=
10418,2012,01,01,03,00,AAXX 01031 10418 27217 72406 10086 20086 39650 40112 57002 75365 333 55300 20000 30000 69927 87/05=
10418,2012,01,01,04,00,AAXX 01041 10418 47220 82406 10087 20087 39650 40112 50000 75365 333 55300 20000 30000 87/05 88/09=
10418,2012,01,01,05,00,AAXX 01051 10418 47220 72306 10086 20086 39648 40110 57004 75250 333 55300 20000 30000 87/04=
10418,2012,01,01,06,00,AAXX 01061 10418 07230 82306 10087 20085 39644 40106 58006 60032 75265 333 10087 20050 3/005 55000 55300 20000 30000 60027 70084 88/04=
10418,2012,01,01,07,00,AAXX 01071 10418 47221 82306 10088 20085 39651 40113 53001 75365 333 55300 20000 30000 87/05 88/08=
10418,2012,01,01,08,00,AAXX 01081 10418 47220 82305 10090 20087 39654 40116 53006 75865 333 55300 20000 30000 88/04=
10418,2012,01,01,09,00,AAXX 01091 10418 27243 82306 10093 20091 39652 40113 50008 75765 333 20050 3/005 55300 20003 30003 60027 88/03=
10418,2012,01,01,10,00,AAXX 01101 10418 47220 82407 10096 20096 39657 40118 53006 75865 333 55300 20029 30029 88/05=
10418,2012,01,01,11,00,AAXX 01111 10418 47246 82406 10098 20095 39656 40116 53002 75865 333 55300 20074 30074 88/05=
10418,2012,01,01,12,00,AAXX 01121 10418 07233 82406 10100 20097 39651 40111 58001 60061 75265 333 55300 20157 30157 60047 88/05=
10418,2012,01,01,13,00,AAXX 01131 10418 47245 82405 10101 20098 39646 40105 58011 75265 333 55300 20120 30120 87/05 88/08=
10418,2012,01,01,14,00,AAXX 01141 10418 47227 82405 10101 20098 39644 40103 56012 75865 333 55300 20066 30066 88/06=
10418,2012,01,01,15,00,AAXX 01151 10418 27232 82305 10102 20099 39643 40102 56008 75365 333 55300 20011 30011 60027 87/05 88/08=
10418,2012,01,01,16,00,AAXX 01161 10418 47228 72304 10102 20099 39639 40098 58007 75365 333 55300 20000 30000 87/04 87/08=
10418,2012,01,01,17,00,AAXX 01171 10418 47275 82306 10103 20099 39634 40092 58010 72365 333 55300 20000 30000 87/06 88/11=
10418,2012,01,01,18,00,AAXX 01181 10418 07337 82205 10102 20097 39627 40085 58016 60092 75865 333 10104 20087 3/008 55300 20000 30000 60027 87/07 88/11=
10418,2012,01,01,19,00,AAXX 01191 10418 47388 72306 10104 20096 39621 40079 58018 72365 333 55300 20000 30000 84/08 86/12 87/16=
10418,2012,01,01,20,00,AAXX 01201 10418 47388 72205 10104 20094 39612 40069 58022 72365 333 55300 20000 30000 87/09 87/15=
10418,2012,01,01,21,00,AAXX 01211 10418 27488 82206 10105 20094 39604 40061 58023 72265 333 55300 20000 30000 69997 87/10 88/15=
10418,2012,01,01,22,00,AAXX 01221 10418 45488 82306 10107 20093 39596 40052 56025 333 55300 20000 30000 83/11 87/16 88/23=
10418,2012,01,01,23,00,AAXX 01231 10418 47488 82307 10107 20092 39590 40046 56022 72365 333 55300 20000 30000 87/14 88/21 91113=
10424,2012,01,01,00,00,AAXX 01001 10424 07240 82305 10099 20092 30005 40109 56001 69981 75165 333 55/// 20069 30069 55300 20000 30000 69937 88/05=
10424,2012,01,01,01,00,AAXX 01011 10424 47229 82305 10099 20091 30002 40106 58002 72250 333 55300 20000 30000 81/05 88/16 88/31=
10424,2012,01,01,02,00,AAXX 01021 10424 47347 82305 10102 20089 30005 40109 55000 71000 333 55300 20000 30000 87/09 87/30 88/34=
10424,2012,01,01,03,00,AAXX 01031 10424 27456 82305 10103 20088 30001 40105 58004 71050 333 55300 20000 30000 69907 85/10 86/25 88/32=
10424,2012,01,01,04,00,AAXX 01041 10424 47360 82306 10107 20095 30000 40104 58002 72250 333 55300 20000 30000 88/07=
10424,2012,01,01,05,00,AAXX 01051 10424 45364 82306 10109 20095 39998 40102 56007 333 55300 20000 30000 88/07=
10424,2012,01,01,06,00,AAXX 01061 10424 07372 72205 10111 20097 39996 40099 58005 60012 72365 333 10111 20082 3/008 55000 55300 20000 30000 69967 70027 87/08 87/27 87/47=
10424,2012,01,01,07,00,AAXX 01071 10424 47259 82205 10107 20098 30000 40104 55000 75165 333 55300 20000 30000 84/05 87/14 88/19=
10424,2012,01,01,08,00,AAXX 01081 10424 47260 82206 10112 20102 30002 40105 53004 75165 333 55300 20000 30000 87/05 88/13=
10424,2012,01,01,09,00,AAXX 01091 10424 27361 72306 10115 20103 30002 40105 51006 75765 333 20082 3/008 55300 20009 30009 69937 87/07 87/10=
10424,2012,01,01,10,00,AAXX 01101 10424 47244 72305 10114 20105 30009 40112 53009 75265 333 55300 20038 30038 87/06=
10424,2012,01,01,11,00,AAXX 01111 10424 47382 72405 10119 20109 30007 40110 50005 72365 333 55300 20115 30115 87/07 87/14=
10424,2012,01,01,12,00,AAXX 01121 10424 07380 72207 10123 20110 30000 40103 58002 60011 72365 333 55300 20248 30248 69997 87/09=
10424,2012,01,01,13,00,AAXX 01131 10424 47381 82306 10125 20111 39999 40102 56010 72250 333 55300 20300 30300 87/09 88/14=
10424,2012,01,01,14,00,AAXX 01141 10424 47379 82305 10122 20110 39995 40098 56012 72250 333 55300 20112 30112 85/08 88/14=
10424,2012,01,01,15,00,AAXX 01151 10424 27368 82104 10120 20110 39993 40096 58007 72365 333 55300 20030 30030 69917 88/07=
10424,2012,01,01,16,00,AAXX 01161 10424 47374 82105 10118 20108 39990 40093 56009 75165 333 55300 20000 30000 87/07 88/24 88/41=
10424,2012,01,01,17,00,AAXX 01171 10424 47387 82104 10122 20106 39984 40087 58011 72250 333 55300 20000 30000 81/07 88/20 88/61=
10424,2012,01,01,18,00,AAXX 01181 10424 07586 82004 10124 20104 39975 40078 58018 60022 70065 333 10126 20106 3/010 55300 20000 30000 69927 87/27 88/50 88/58=
10424,2012,01,01,19,00,AAXX 01191 10424 47487 82008 10130 20102 39964 40066 58026 72365 333 55300 20000 30000 84/19 88/57 88/61=
10424,2012,01,01,20,00,AAXX 01201 10424 47588 82110 10133 20100 39957 40059 56027 72365 333 55300 20000 30000 88/26 88/58 88/60 91115=
10424,2012,01,01,21,00,AAXX 01211 10424 27588 82010 10137 20099 39945 40047 58030 72365 333 55300 20000 30000 69907 81/30 88/59 88/65 91115=
10424,2012,01,01,22,00,AAXX 01221 10424 45588 82011 10138 20098 39937 40039 58027 333 55300 20000 30000 82/26 88/60 88/63 91116 91211=
10424,2012,01,01,23,00,AAXX 01231 10424 47387 82111 10139 20099 39931 40033 56026 75150 333 55300 20000 30000 84/09 88/57 88/61 91117 91212=
10427,2012,01,01,00,00,AAXX 01001 10427 01/02 92609 10041 20041 39112 48421 50001 60041 75565 333 44037 55/// 20141 30141 55300 20000 30000 60027 96041 96263 96463 96455 96441=
10427,2012,01,01,01,00,AAXX 01011 10427 41/01 92610 10044 20044 39113 48422 52001 75354 333 55300 20000 30000 91113 96047=
10427,2012,01,01,02,00,AAXX 01021 10427 41/01 92610 10044 20044 39113 48422 55000 75354 333 55300 20000 30000 91114 96045=
10427,2012,01,01,03,00,AAXX 01031 10427 21/01 92609 10042 20042 39113 48422 51001 75154 333 55300 20000 30000 69977 91115 91212 96045 96455=
10427,2012,01,01,04,00,AAXX 01041 10427 41/01 92508 10043 20043 39114 48423 53001 75354 333 55300 20000 30000 96045=
10427,2012,01,01,05,00,AAXX 01051 10427 41/01 92408 10049 20049 39112 48423 58001 75354 333 55300 20000 30000 91113 96045=
10427,2012,01,01,06,00,AAXX 01061 10427 01/01 92408 10048 20048 39113 48423 54000 60062 75354 333 10050 20013 3/000 44033 55000 55300 20000 30000 60017 70105 91115 91212 96045 96455=
10427,2012,01,01,07,00,AAXX 01071 10427 41/01 92408 10050 20050 39115 48426 53001 74365 333 55300 20000 30000 91114 96259 96253=
10427,2012,01,01,08,00,AAXX 01081 10427 41/01 92407 10054 20054 39119 48430 53007 75254 333 55300 20000 30000 91113 96045 96253 96251=
10427,2012,01,01,09,00,AAXX 01091 10427 21/02 92408 10057 20057 39121 48432 52008 75065 333 20013 3/000 55300 20002 30002 60017 91114 96043 96459 96453 96452=
10427,2012,01,01,10,00,AAXX 01101 10427 41/02 92408 10060 20060 39122 48434 51007 75254 333 55300 20043 30043 91116 96045=
10427,2012,01,01,11,00,AAXX 01111 10427 41/02 92408 10063 20063 39122 48435 51003 75954 333 55300 20102 30101 91113 96045 96253 96252=
10427,2012,01,01,12,00,AAXX 01121 10427 01/02 92507 10064 20064 39120 48433 58001 60031 75365 333 42028 55300 20151 30151 60027 91116 96045 96459 96453 96452=
10427,2012,01,01,13,00,AAXX 01131 10427 41/02 92407 10066 20066 39117 48431 58005 75965 333 55300 20177 30176 96045 96253=
10427,2012,01,01,14,00,AAXX 01141 10427 41/02 92307 10067 20067 39114 48428 58008 75164 333 55300 20091 30091 96045 96259=
10427,2012,01,01,15,00,AAXX 01151 10427 21/02 92307 10067 20067 39114 48428 56006 75965 333 55300 20025 30025 60027 96045 96459 96453=
10427,2012,01,01,16,00,AAXX 01161 10427 41/03 92208 10067 20067 39111 48426 57006 75164 333 55300 20000 30000 96043 96259=
10427,2012,01,01,17,00,AAXX 01171 10427 41/03 92211 10068 20068 39107 48422 58007 75154 333 55300 20000 30000 91116 91212 96045=
10427,2012,01,01,18,00,AAXX 01181 10427 01/02 92212 10069 20069 39102 48418 58012 60062 75865 333 10070 20047 3/004 42021 55300 20000 30000 60017 91117 91212 96047 96459 96453 96452 96451=
10427,2012,01,01,19,00,AAXX 01191 10427 41/03 92211 10070 20070 39097 48414 58014 75864 333 55300 20000 30000 91118 91212 96041 96263=
10427,2012,01,01,20,00,AAXX 01201 10427 41/03 92213 10071 20071 39092 48410 57015 74164 333 55300 20000 30000 91123 91214=
10427,2012,01,01,21,00,AAXX 01211 10427 21/03 92212 10071 20071 39083 48402 58019 74164 333 55300 20000 30000 69977 91123 91214 96463 96458=
10427,2012,01,01,22,00,AAXX 01221 10427 41/02 92213 10071 20071 39078 48397 57019 75864 333 55300 20000 30000 91122 91214 96041=
10427,2012,01,01,23,00,AAXX 01231 10427 41/05 92213 10071 20071 39069 48389 57023 74164 333 55300 20000 30000 91121 91214=
10430,2012,01,01,00,00,AAXX 01001 10430 07103 32103 10086 20086 39915 40106 57003 60021 75865 333 55/// 20074 30074 55300 20000 30000 60017 82/03 83/08=
10430,2012,01,01,01,00,AAXX 01011 10430 47118 72104 10088 20087 39915 40106 58001 75165 333 55300 20000 30000 87/01=
10430,2012,01,01,02,00,AAXX 01021 10430 47230 82103 10091 20089 39916 40106 55001 72250 333 55300 20000 30000 88/03=
10430,2012,01,01,03,00,AAXX 01031 10430 27238 72202 10092 20088 39916 40106 52001 72265 333 55300 20000 30000 69987 84/05 87/14 87/30=
10430,2012,01,01,04,00,AAXX 01041 10430 47457 81903 10091 20083 39913 40103 58002 72250 333 55300 20000 30000 88/14 88/31=
10430,2012,01,01,05,00,AAXX 01051 10430 41334 82003 10091 20084 39911 40101 58005 75865 885// 333 55300 20000 30000 86708 88612=
10430,2012,01,01,06,00,AAXX 01061 10430 01445 82003 10096 20088 39910 40100 56006 60032 76165 886// 333 10096 20058 31005 55000 55300 20000 30000 69927 70042 87710=
10430,2012,01,01,07,00,AAXX 01071 10430 41356 82103 10097 20089 39912 40102 55001 76166 885// 333 55300 20000 30000 82709 87612=
10430,2012,01,01,08,00,AAXX 01081 10430 41150 82104 10098 20093 39913 40103 53002 72166 886// 333 55300 20000 30000 82703 87706=
10430,2012,01,01,09,00,AAXX 01091 10430 21463 82204 10106 20094 39914 40103 51004 72165 886// 333 20058 3/005 55300 20000 30000 60017 87711=
10430,2012,01,01,10,00,AAXX 01101 10430 41357 82304 10106 20098 39918 40107 53006 76166 886// 333 55300 20005 30005 87708=
10430,2012,01,01,11,00,AAXX 01111 10430 41224 82205 10106 20106 39918 40107 51005 75866 886// 333 55300 20052 30052 87705=
10430,2012,01,01,12,00,AAXX 01121 10430 01125 82204 10108 20108 39917 40106 50003 60031 75865 886// 333 31/// 55300 20057 30057 60027 82702 87705=
10430,2012,01,01,13,00,AAXX 01131 10430 41335 82404 10113 20107 39912 40101 58006 75165 886// 333 55300 20124 30124 87708=
10430,2012,01,01,14,00,AAXX 01141 10430 41318 82303 10113 20107 39910 40099 58008 75866 886// 333 55300 20076 30076 87707=
10430,2012,01,01,15,00,AAXX 01151 10430 21320 81903 10111 20107 39908 40097 56009 75165 886// 333 55300 20014 30014 69987 87709=
10430,2012,01,01,16,00,AAXX 01161 10430 41430 81902 10108 20108 39904 40093 58008 75855 886// 333 55300 20000 30000 87710=
10430,2012,01,01,17,00,AAXX 01171 10430 41460 82003 10111 20102 39903 40092 56007 72165 885// 333 55300 20000 30000 87617=
10430,2012,01,01,18,00,AAXX 01181 10430 01580 81903 10113 20098 39894 40082 58014 60052 72165 885// 333 10114 20096 31009 55300 20000 30000 69987 87625=
10430,2012,01,01,19,00,AAXX 01191 10430 42580 71904 10118 20097 39887 40075 58017 875// 333 55300 20000 30000 85622 87635=
10430,2012,01,01,20,00,AAXX 01201 10430 41560 71904 10117 20099 39880 40068 56023 76166 875// 333 55300 20000 30000 85625 87632=
10430,2012,01,01,21,00,AAXX 01211 10430 27588 82006 10129 20097 39869 40056 58025 72365 333 55300 20000 30000 60017 87/27 87/36 88/58=
10430,2012,01,01,22,00,AAXX 01221 10430 45588 82006 10130 20095 39860 40047 58027 333 55300 20000 30000 87/28 87/57 88/62=
10430,2012,01,01,23,00,AAXX 01231 10430 45688 82108 10133 20093 39851 40037 56029 333 55300 20000 30000 86/33 87/57 88/63=
10433,2012,01,01,00,00,AAXX 01001 10433 07/10 /1702 10044 20043 39794 40109 57002 69981 75165 333 55/// 20101 30101 55300 20000 30000 69937=
10433,2012,01,01,01,00,AAXX 01011 10433 47/17 /1603 10051 20050 39792 40106 58002 75265 333 55300 20000 30000=
10433,2012,01,01,02,00,AAXX 01021 10433 47/19 /1803 10059 20057 39792 40105 56004 75165 333 55300 20000 30000=
10433,2012,01,01,03,00,AAXX 01031 10433 27/25 /2404 10078 20077 39791 40102 56003 75165 333 55300 20000 30000 69997=
10433,2012,01,01,04,00,AAXX 01041 10433 47350 82404 10087 20079 39788 40098 58004 72250 333 55300 20000 30000 87/09 88/25=
10433,2012,01,01,05,00,AAXX 01051 10433 45359 82305 10090 20077 39787 40097 57005 333 55300 20000 30000 87/07 88/21=
10433,2012,01,01,06,00,AAXX 01061 10433 07258 72004 10079 20073 39788 40099 55003 60022 72365 333 10094 20026 3/003 55000 55300 20000 30000 69907 70026 87/04=
10433,2012,01,01,07,00,AAXX 01071 10433 47250 82104 10086 20080 39787 40097 57001 76265 333 55300 20000 30000 88/06=
10433,2012,01,01,08,00,AAXX 01081 10433 47233 72004 10085 20085 39792 40102 53005 75165 333 55300 20000 30000 87/04=
10433,2012,01,01,09,00,AAXX 01091 10433 27270 72104 10092 20086 39792 40102 53004 75165 333 20026 3/003 55300 20001 30001 60017 87/06=
10433,2012,01,01,10,00,AAXX 01101 10433 47335 82305 10101 20092 39795 40104 51008 75865 333 55300 20021 30021 88/07=
10433,2012,01,01,11,00,AAXX 01111 10433 47261 72204 10100 20095 39794 40103 50002 76265 333 55300 20065 30065 87/03 87/12=
10433,2012,01,01,12,00,AAXX 01121 10433 07257 72405 10104 20098 39793 40101 50001 60021 75265 333 55300 20101 30101 69997 87/04 87/08=
10433,2012,01,01,13,00,AAXX 01131 10433 47388 82304 10108 20098 39789 40097 58006 72365 333 55300 20111 30111 88/07=
10433,2012,01,01,14,00,AAXX 01141 10433 47256 72304 10107 20101 39788 40096 57006 75165 333 55300 20068 30068 87/04=
10433,2012,01,01,15,00,AAXX 01151 10433 27138 72004 10105 20100 39788 40096 56005 75265 333 55300 20028 30028 69927 87/03=
10433,2012,01,01,16,00,AAXX 01161 10433 47157 71905 10103 20099 39783 40091 58006 75165 333 55300 20000 30000 85/02 87/06 87/09=
10433,2012,01,01,17,00,AAXX 01171 10433 47240 71907 10102 20096 39781 40089 58007 75865 333 55300 20000 30000 87/06=
10433,2012,01,01,18,00,AAXX 01181 10433 07488 81907 10104 20095 39773 40081 58015 60032 72365 333 10109 20079 3/007 55300 20000 30000 60017 82/10 83/15 88/21=
10433,2012,01,01,19,00,AAXX 01191 10433 45488 81907 10108 20096 39768 40075 58015 333 55300 20000 30000 84/17 88/40 88/50=
10433,2012,01,01,20,00,AAXX 01201 10433 47364 71807 10105 20095 39760 40067 57021 76165 333 55300 20000 30000 87/08 87/16 87/24=
10433,2012,01,01,21,00,AAXX 01211 10433 27388 81908 10109 20096 39750 40056 58023 72365 333 55300 20000 30000 69977 83/08 87/23 88/56=
10433,2012,01,01,22,00,AAXX 01221 10433 47588 81908 10112 20094 39741 40047 58027 72365 333 55300 20000 30000 85/23 88/59 88/62 91114=
10433,2012,01,01,23,00,AAXX 01231 10433 45588 81908 10113 20094 39735 40040 56025 333 55300 20000 30000 88/21 91113=
10435,2012,01,01,00,00,AAXX 01001 10435 07325 81903 10044 20040 39831 40120 56001 69951 75265 333 55300 69927 88/07 88/22=
10435,2012,01,01,01,00,AAXX 01011 10435 47337 81903 10047 20047 39829 40117 50000 75165 333 55300 88/06=
10435,2012,01,01,02,00,AAXX 01021 10435 47459 72004 10056 20050 39828 40115 57004 72250 333 55300 87/10 87/22=
10435,2012,01,01,03,00,AAXX 01031 10435 27458 81803 10059 20052 39829 40116 55002 70065 333 55300 69927 84/12 88/24=
10435,2012,01,01,04,00,AAXX 01041 10435 47556 81703 10060 20054 39826 40113 58003 71000 333 55300 88/30=
10435,2012,01,01,05,00,AAXX 01051 10435 45459 82003 10068 20059 39825 40111 58003 333 55300 88/12=
10435,2012,01,01,06,00,AAXX 01061 10435 07460 82104 10075 20063 39824 40109 56005 69982 72365 333 10075 20029 3/003 55000 55300 69917 70017 87/17 88/60 88/71=
10435,2012,01,01,07,00,AAXX 01071 10435 47459 72104 10079 20069 39825 40110 55001 75165 333 55300 86/11 87/24 87/48=
10435,2012,01,01,08,00,AAXX 01081 10435 47461 72103 10081 20072 39831 40115 53006 72365 333 55300 83/11 86/22 87/27=
10435,2012,01,01,09,00,AAXX 01091 10435 27478 82003 10088 20077 39831 40115 51007 72265 333 20029 3/003 55300 69937 87/15 88/21=
10435,2012,01,01,10,00,AAXX 01101 10435 47441 72003 10094 20082 39831 40114 51006 76260 333 55300 86/15 87/29 87/42=
10435,2012,01,01,11,00,AAXX 01111 10435 47/67 /2003 10099 20092 39832 40115 53001 76165 333 55300=
10435,2012,01,01,12,00,AAXX 01121 10435 07477 72003 10106 20098 39831 40113 50000 60031 75165 333 55300 60037 83/11 85/50 87/57=
10435,2012,01,01,13,00,AAXX 01131 10435 47588 72003 10114 20098 39823 40104 58008 72365 333 55304 81/30 87/75 87/80=
10435,2012,01,01,14,00,AAXX 01141 10435 45488 72103 10117 20098 39824 40104 55008 333 55302 87/13 87/20=
10435,2012,01,01,15,00,AAXX 01151 10435 27488 82003 10113 20096 39824 40105 56007 70065 333 55300 69907 86/13 88/37 88/56=
10435,2012,01,01,16,00,AAXX 01161 10435 47488 82004 10110 20096 39819 40100 58004 72365 333 55300 81/12 88/58 88/63=
10435,2012,01,01,17,00,AAXX 01171 10435 45488 82105 10112 20097 39819 40100 57005 333 55300 82/10 88/56 88/60=
10435,2012,01,01,18,00,AAXX 01181 10435 07387 82106 10113 20097 39812 40092 58012 60032 70065 333 10118 20075 3/006 55300 69917 87/09 88/22 88/80=
10435,2012,01,01,19,00,AAXX 01191 10435 45488 82004 10114 20096 39805 40085 58014 333 55300 88/10 88/23 88/59=
10435,2012,01,01,20,00,AAXX 01201 10435 47588 82006 10114 20097 39797 40077 58022 72365 333 55300 83/31 88/60 88/63=
10435,2012,01,01,21,00,AAXX 01211 10435 27588 72006 10117 20095 39784 40063 58028 70065 333 55300 69907 85/26 87/59 87/60=
10435,2012,01,01,22,00,AAXX 01221 10435 45588 82106 10119 20095 39779 40058 56026 333 55300 85/26 88/62 88/65=
10435,2012,01,01,23,00,AAXX 01231 10435 47488 82106 10118 20096 39769 40048 56028 72250 333 55300 84/11 88/61 88/64=
10438,2012,01,01,00,00,AAXX 01001 10438 07405 81603 10044 20041 39841 40124 52001 69911 73065 333 55300 69907 81/17 87/38 88/47=
10438,2012,01,01,01,00,AAXX 01011 10438 47228 81703 10049 20046 39840 40122 50000 72365 333 55300 88/04 88/33=
10438,2012,01,01,02,00,AAXX 01021 10438 47216 81603 10052 20048 39840 40122 57001 71000 333 55300 87/04 88/44 88/63=
10438,2012,01,01,03,00,AAXX 01031 10438 27113 81703 10058 20058 39841 40122 55000 71065 333 55300 69917 88/03=
10438,2012,01,01,04,00,AAXX 01041 10438 47112 81602 10063 20059 39840 40121 50000 72030 333 55300 88/03=
10438,2012,01,01,05,00,AAXX 01051 10438 47227 81602 10068 20068 39838 40118 58002 72030 333 55300 88/05 88/24=
10438,2012,01,01,06,00,AAXX 01061 10438 07221 81802 10075 20075 39837 40116 57004 69922 75165 333 10075 20028 3/003 55000 55300 69907 70011 88/04=
10438,2012,01,01,07,00,AAXX 01071 10438 47319 81803 10080 20075 39837 40116 56003 76265 333 55300 85/08 88/18 88/61=
10438,2012,01,01,08,00,AAXX 01081 10438 47335 81803 10083 20078 39841 40120 53003 75765 333 55300 83/08 87/17 88/57=
10438,2012,01,01,09,00,AAXX 01091 10438 27456 71804 10088 20082 39841 40119 52004 72365 333 20028 3/003 55300 69967 84/17 87/61 87/69=
10438,2012,01,01,10,00,AAXX 01101 10438 47457 81703 10092 20086 39844 40122 51007 71000 333 55300 82/12 87/21 88/61=
10438,2012,01,01,11,00,AAXX 01111 10438 45468 81603 10100 20091 39842 40119 50001 333 55300 87/14 88/20=
10438,2012,01,01,12,00,AAXX 01121 10438 07487 81603 10109 20095 39840 40116 58001 69961 72365 333 55300 69907 86/14 88/20=
10438,2012,01,01,13,00,AAXX 01131 10438 47488 81603 10117 20097 39837 40112 58007 72365 333 55301 87/15 87/22 88/35=
10438,2012,01,01,14,00,AAXX 01141 10438 45488 81703 10113 20099 39836 40111 56006 333 55300 87/13 88/19=
10438,2012,01,01,15,00,AAXX 01151 10438 27384 81603 10109 20098 39838 40114 55002 72265 333 55300 69907 83/09 88/15=
10438,2012,01,01,16,00,AAXX 01161 10438 47382 81603 10107 20097 39835 40111 58002 72365 333 55300 83/08 87/13 88/17=
10438,2012,01,01,17,00,AAXX 01171 10438 47475 81704 10106 20095 39832 40108 58004 72365 333 55300 85/11 88/16 88/32=
10438,2012,01,01,18,00,AAXX 01181 10438 07369 81604 10108 20097 39827 40103 58011 69962 72265 333 10119 20074 3/007 55300 69907 88/07 88/10=
10438,2012,01,01,19,00,AAXX 01191 10438 45474 81704 10109 20096 39817 40092 58018 333 55300 87/13 88/21=
10438,2012,01,01,20,00,AAXX 01201 10438 47467 81805 10110 20098 39816 40091 56016 72365 333 55300 87/11 88/17=
10438,2012,01,01,22,00,AAXX 01221 10438 45485 81705 10115 20096 39798 40072 58019 333 55300 88/15=
10438,2012,01,01,23,00,AAXX 01231 10438 47484 81605 10116 20095 39791 40065 56025 75150 333 55300 87/18 88/24 91113=
10439,2012,01,01,00,00,AAXX 01001 10439 NIL=
10439,2012,01,01,01,00,AAXX 01011 10439 NIL=
10439,2012,01,01,02,00,AAXX 01021 10439 NIL=
10439,2012,01,01,03,00,AAXX 01031 10439 NIL=
10439,2012,01,01,04,00,AAXX 01041 10439 NIL=
10439,2012,01,01,05,00,AAXX 01051 10439 NIL=
10439,2012,01,01,06,00,AAXX 01061 10439 NIL=
10439,2012,01,01,07,00,AAXX 01071 10439 NIL=
10439,2012,01,01,08,00,AAXX 01081 10439 NIL=
10439,2012,01,01,09,00,AAXX 01091 10439 NIL=
10439,2012,01,01,10,00,AAXX 01101 10439 NIL=
10439,2012,01,01,11,00,AAXX 01111 10439 NIL=
10439,2012,01,01,12,00,AAXX 01121 10439 NIL=
10439,2012,01,01,13,00,AAXX 01131 10439 NIL=
10439,2012,01,01,14,00,AAXX 01141 10439 NIL=
10439,2012,01,01,15,00,AAXX 01151 10439 NIL=
10439,2012,01,01,16,00,AAXX 01161 10439 NIL=
10439,2012,01,01,17,00,AAXX 01171 10439 NIL=
10439,2012,01,01,18,00,AAXX 01181 10439 NIL=
10439,2012,01,01,19,00,AAXX 01191 10439 NIL=
10439,2012,01,01,20,00,AAXX 01201 10439 NIL=
10439,2012,01,01,21,00,AAXX 01211 10439 NIL=
10439,2012,01,01,22,00,AAXX 01221 10439 NIL=
10439,2012,01,01,23,00,AAXX 01231 10439 NIL=
10442,2012,01,01,00,00,AAXX 01001 10442 07227 81602 10054 20046 39934 40112 50000 69921 71065 333 55/// 20104 30103 55300 20000 30000 69907 88/04=
10442,2012,01,01,01,00,AAXX 01011 10442 47214 81003 10048 20048 39933 40111 58001 72250 333 55300 20000 30000 87/04 88/10=
10442,2012,01,01,02,00,AAXX 01021 10442 47343 81502 10057 20052 39930 40107 58006 75150 333 55300 20000 30000 88/07 88/36 88/64=
10442,2012,01,01,03,00,AAXX 01031 10442 27337 81503 10061 20054 39930 40107 56004 72250 333 55300 20000 30000 69937 88/06=
10442,2012,01,01,04,00,AAXX 01041 10442 47239 81403 10065 20059 39929 40106 56004 72250 333 55300 20000 30000 88/06=
10442,2012,01,01,05,00,AAXX 01051 10442 47356 81504 10073 20066 39928 40104 58002 72250 333 55300 20000 30000 88/08 88/30=
10442,2012,01,01,06,00,AAXX 01061 10442 07360 71405 10077 20065 39923 40099 58007 69952 72365 333 10078 20031 3/003 55000 55300 20000 30000 69907 70008 85/08 87/12 87/18=
10442,2012,01,01,07,00,AAXX 01071 10442 47350 81304 10079 20067 39923 40099 56006 76265 333 55300 20000 30000 88/07=
10442,2012,01,01,08,00,AAXX 01081 10442 47350 81305 10084 20074 39927 40102 55001 72365 333 55300 20000 30000 88/07=
10442,2012,01,01,09,00,AAXX 01091 10442 27359 81704 10093 20081 39928 40103 53005 72365 333 20031 3/003 55300 20014 30014 69977 88/07=
10442,2012,01,01,10,00,AAXX 01101 10442 47326 81803 10104 20089 39930 40104 51007 75865 333 55300 20059 30059 88/08=
10442,2012,01,01,11,00,AAXX 01111 10442 47358 72003 10109 20094 39931 40105 52004 75165 333 55300 20116 30116 87/08=
10442,2012,01,01,12,00,AAXX 01121 10442 07360 82102 10114 20097 39930 40103 50002 69991 72265 333 55300 20165 30165 69927 88/09=
10442,2012,01,01,13,00,AAXX 01131 10442 47366 82003 10116 20099 39922 40095 58008 75150 333 55300 20192 30192 88/08=
10442,2012,01,01,14,00,AAXX 01141 10442 47346 82402 10117 20102 39927 40100 55004 75765 333 55300 20072 30072 88/08=
10442,2012,01,01,15,00,AAXX 01151 10442 27350 72303 10115 20101 39928 40101 55002 75265 333 55300 20057 30057 69917 84/06 87/10=
10442,2012,01,01,16,00,AAXX 01161 10442 47388 81302 10115 20101 39922 40095 50000 72250 333 55300 20000 30000 88/09 88/23 88/68=
10442,2012,01,01,17,00,AAXX 01171 10442 47230 81204 10116 20100 39921 40094 58006 75865 333 55300 20000 30000 85/06 88/12=
10442,2012,01,01,18,00,AAXX 01181 10442 07384 81204 10111 20099 39912 40085 58016 60022 72365 333 10120 20074 3/007 55300 20000 30000 69977 88/06=
10442,2012,01,01,19,00,AAXX 01191 10442 45488 81204 10120 20096 39906 40079 58016 333 55300 20000 30000 87/15 88/29 88/60=
10442,2012,01,01,20,00,AAXX 01201 10442 47462 81403 10123 20097 39900 40072 56021 76165 333 55300 20000 30000 87/18 88/67 88/70=
10442,2012,01,01,21,00,AAXX 01211 10442 27486 71104 10126 20098 39887 40059 58025 72365 333 55300 20000 30000 69917 87/17 87/33 87/56=
10442,2012,01,01,22,00,AAXX 01221 10442 47488 81604 10129 20095 39878 40050 58028 75165 333 55300 20000 30000 88/18 88/36 88/56 91114=
10442,2012,01,01,23,00,AAXX 01231 10442 47588 81404 10130 20094 39868 40039 56032 72365 333 55300 20000 30000 87/21 87/57 88/65=
10444,2012,01,01,00,00,AAXX 01001 10444 07439 80901 10058 20046 39909 40114 50000 69901 72265 333 55/// 20097 30096 55300 20000 30000 69907 84/14 87/18 88/25=
10444,2012,01,01,01,00,AAXX 01011 10444 47465 72003 10065 20054 39907 40112 58002 72250 333 55300 20000 30000 84/17 86/27 87/34=
10444,2012,01,01,02,00,AAXX 01021 10444 45358 81803 10066 20056 39908 40113 55002 333 55300 20000 30000 85/08 88/15=
10444,2012,01,01,03,00,AAXX 01031 10444 27367 81903 10073 20061 39907 40111 56002 70050 333 55300 20000 30000 69907 81/08 88/19=
10444,2012,01,01,04,00,AAXX 01041 10444 45570 71904 10080 20065 39906 40109 58001 333 55300 20000 30000 84/21 87/30=
10444,2012,01,01,05,00,AAXX 01051 10444 41465 81401 10087 20066 39904 40107 58004 70222 885// 333 55300 20000 30000 82712 88630=
10444,2012,01,01,06,00,AAXX 01061 10444 11465 81402 10084 20065 39902 40105 58005 69902 70252 885// 333 10090 20035 31003 55000 55300 20000 30000 70007 82713 88624=
10444,2012,01,01,07,00,AAXX 01071 10444 41462 82105 10096 20074 39904 40106 55002 72122 875// 333 55300 20000 30000 81713 87621=
10444,2012,01,01,08,00,AAXX 01081 10444 41461 82204 10097 20078 39909 40111 53005 76162 8452/ 333 55300 20000 30000 82713 84623 88556 96263=
10444,2012,01,01,09,00,AAXX 01091 10444 21467 82004 10102 20083 39907 40109 50005 72162 875// 333 20035 3/003 55300 20029 30029 69937 81712 83615 87628 96261 96260 96463 96461 96460=
10444,2012,01,01,10,00,AAXX 01101 10444 42473 72105 10109 20085 39908 40109 51004 875// 333 55300 20083 30083 81712 83615 87656=
10444,2012,01,01,11,00,AAXX 01111 10444 41460 82305 10110 20090 39909 40110 55000 76122 8752/ 333 55300 20105 30104 81712 85616 86630=
10444,2012,01,01,12,00,AAXX 01121 10444 01473 72104 10110 20094 39907 40108 50000 69981 72162 878// 333 31/// 55300 20116 30116 69957 82812 87631 96261 96260 96463 96461 96460=
10444,2012,01,01,13,00,AAXX 01131 10444 41481 72004 10114 20096 39904 40105 58004 76062 878// 333 55300 20122 30121 84811 86636 96260=
10444,2012,01,01,14,00,AAXX 01141 10444 41483 62205 10120 20095 39902 40102 57007 72162 83832 333 55305 20461 30380 82815 83360 96260=
10444,2012,01,01,15,00,AAXX 01151 10444 21486 72204 10119 20096 39905 40105 55002 70262 878// 333 55300 20137 30135 69907 82811 87626 96460=
10444,2012,01,01,16,00,AAXX 01161 10444 42485 72105 10121 20095 39901 40101 58003 878// 333 55300 20000 30000 83811 86625=
10444,2012,01,01,17,00,AAXX 01171 10444 41485 72005 10121 20096 39901 40101 58001 72122 878// 333 55300 20000 30000 82811 83816 86623=
10444,2012,01,01,18,00,AAXX 01181 10444 01486 71905 10121 20094 39893 40093 58012 69982 70262 878// 333 10124 20084 31007 55300 20000 30000 69907 84818 87650 96460=
10444,2012,01,01,19,00,AAXX 01191 10444 42486 82005 10127 20096 39889 40089 58012 878// 333 55300 20000 30000 84818 83626 87650=
10444,2012,01,01,20,00,AAXX 01201 10444 41584 82107 10128 20095 39884 40083 56017 72122 875// 333 55300 20000 30000 85620 87650 96260=
10444,2012,01,01,21,00,AAXX 01211 10444 27588 72008 10129 20096 39874 40073 58019 70065 333 55300 20000 30000 69907 86/22 87/27 87/34 91115=
10444,2012,01,01,22,00,AAXX 01221 10444 45588 72008 10132 20094 39868 40067 58021 333 55300 20000 30000 87/21=
10444,2012,01,01,23,00,AAXX 01231 10444 45588 82109 10133 20093 39860 40059 56024 333 55300 20000 30000 88/22 91113=
10449,2012,01,01,00,00,AAXX 01001 10449 07257 82303 10048 20042 39694 40121 53003 69921 71065 333 55/// 20084 30084 55300 20000 30000 69917 88/05=
10449,2012,01,01,01,00,AAXX 01011 10449 45261 82303 10050 20043 39693 40120 50002 333 55300 20000 30000 88/05=
10449,2012,01,01,02,00,AAXX 01021 10449 47258 82403 10056 20050 39694 40120 52001 75150 333 55300 20000 30000 87/05 88/10=
10449,2012,01,01,03,00,AAXX 01031 10449 27267 82303 10061 20055 39693 40118 57001 72250 333 55300 20000 30000 69907 87/06 88/11=
10449,2012,01,01,04,00,AAXX 01041 10449 45268 82404 10067 20059 39694 40118 52001 333 55300 20000 30000 83/06 85/15 88/20=
10449,2012,01,01,05,00,AAXX 01051 10449 47562 82404 10068 20059 39693 40117 57001 72250 333 55300 20000 30000 88/30=
10449,2012,01,01,06,00,AAXX 01061 10449 07361 82102 10069 20060 39690 40113 58003 69922 70050 333 10071 20020 3/002 55000 55300 20000 30000 69907 70010 81/09 87/23 88/27=
10449,2012,01,01,07,00,AAXX 01071 10449 47362 82205 10080 20070 39692 40114 55002 75150 333 55300 20000 30000 84/09 87/15 88/20=
10449,2012,01,01,08,00,AAXX 01081 10449 47462 82305 10082 20071 39696 40118 53003 75165 333 55300 20000 30000 87/11 88/20=
10449,2012,01,01,09,00,AAXX 01091 10449 27467 82304 10089 20079 39694 40114 50004 75165 333 20020 3/002 55300 20029 30029 69957 87/11 88/18=
10449,2012,01,01,10,00,AAXX 01101 10449 47481 82305 10096 20082 39695 40114 51003 72250 333 55300 20070 30070 87/12 88/18=
10449,2012,01,01,11,00,AAXX 01111 10449 45487 82406 10102 20086 39694 40112 56002 333 55300 20162 30162 87/11 88/17=
10449,2012,01,01,12,00,AAXX 01121 10449 07464 72405 10101 20088 39696 40114 53002 69981 75765 333 55300 20121 30121 69937 87/12=
10449,2012,01,01,13,00,AAXX 01131 10449 47488 82405 10104 20087 39695 40113 54000 72365 333 55300 20087 30087 88/14=
10449,2012,01,01,14,00,AAXX 01141 10449 47488 72305 10108 20089 39691 40108 58003 72365 333 55300 20221 30219 87/14 87/20=
10449,2012,01,01,15,00,AAXX 01151 10449 27488 82205 10108 20088 39692 40109 55004 70065 333 55300 20138 30136 69907 85/15 88/23=
10449,2012,01,01,16,00,AAXX 01161 10449 47488 72203 10104 20089 39694 40112 55001 72250 333 55300 20001 30001 87/14=
10449,2012,01,01,17,00,AAXX 01171 10449 47376 72206 10102 20091 39691 40109 50000 75150 333 55300 20000 30000 84/09 87/13 87/41=
10449,2012,01,01,18,00,AAXX 01181 10449 07371 72206 10103 20092 39688 40106 58004 69992 75165 333 10110 20069 3/006 55300 20000 30000 69917 87/09 87/13 87/18=
10449,2012,01,01,19,00,AAXX 01191 10449 47370 82105 10103 20092 39683 40101 58011 75165 333 55300 20000 30000 87/09 88/14=
10449,2012,01,01,20,00,AAXX 01201 10449 47485 82109 10108 20092 39675 40091 58016 72250 333 55300 20000 30000 87/10 88/14 91114=
10449,2012,01,01,21,00,AAXX 01211 10449 27458 82109 10106 20094 39670 40086 57018 75165 333 55300 20000 30000 69907 85/10 87/14 88/23 91115=
10449,2012,01,01,22,00,AAXX 01221 10449 47488 82107 10111 20091 39662 40077 57021 72250 333 55300 20000 30000 87/14 87/18 88/23 91114=
10449,2012,01,01,23,00,AAXX 01231 10449 45488 82107 10111 20090 39653 40068 58022 333 55300 20000 30000 87/15 88/20 91113=
10452,2012,01,01,00,00,AAXX 01001 10452 07001 82202 10008 20005 39389 40122 53003 69941 73065 333 4/018 55/// 20104 30104 55300 20000 30000 69927 88/00=
10452,2012,01,01,01,00,AAXX 01011 10452 47002 82702 10020 20018 39389 40118 51004 74054 333 4/018 55300 20000 30000 88/00=
10452,2012,01,01,02,00,AAXX 01021 10452 47215 82502 10023 20021 39390 40118 52002 75154 333 4/017 55300 20000 30000 88/03=
10452,2012,01,01,03,00,AAXX 01031 10452 27216 82502 10028 20025 39389 40116 50000 72254 333 4/017 55300 20000 30000 69977 88/04=
10452,2012,01,01,04,00,AAXX 01041 10452 47116 82402 10026 20026 39388 40115 58001 75165 333 4/017 55300 20000 30000 88/03=
10452,2012,01,01,05,00,AAXX 01051 10452 47004 82502 10036 20036 39389 40114 55001 73054 333 4/016 55300 20000 30000 88/00=
10452,2012,01,01,06,00,AAXX 01061 10452 07009 82503 10041 20039 39383 40106 58006 60022 72265 333 10042 20000 3/100 4/015 55000 55300 20000 30000 69997 70031 87/01 88/07=
10452,2012,01,01,07,00,AAXX 01071 10452 47104 82304 10044 20042 39389 40111 53001 75154 333 4/015 55300 20000 30000 88/01=
10452,2012,01,01,08,00,AAXX 01081 10452 47013 82304 10051 20049 39393 40114 53004 76265 333 4/014 55300 20000 30000 88/01=
10452,2012,01,01,09,00,AAXX 01091 10452 27105 82204 10052 20050 39393 40113 51010 75865 333 20000 3/100 4/013 55300 20018 30018 60037 88/01=
10452,2012,01,01,10,00,AAXX 01101 10452 47018 82204 10057 20055 39393 40112 51004 75165 333 4/012 55300 20051 30050 88/01=
10452,2012,01,01,11,00,AAXX 01111 10452 47006 82304 10062 20060 39393 40110 54000 75865 333 4/011 55300 20054 30054 88/00=
10452,2012,01,01,12,00,AAXX 01121 10452 07225 82304 10066 20066 39394 40110 53001 60061 75765 333 4/010 55300 20115 30114 60037 88/04=
10452,2012,01,01,13,00,AAXX 01131 10452 47005 82305 10069 20067 39391 40106 58002 74065 333 4/010 55300 20038 30038 88/00=
10452,2012,01,01,14,00,AAXX 01141 10452 47003 82204 10068 20066 39390 40105 58003 73054 333 4/009 55300 20053 30053 88/00=
10452,2012,01,01,15,00,AAXX 01151 10452 27002 82304 10071 20069 39391 40106 55003 75165 333 4/008 55300 20016 30016 69977 88/00=
10452,2012,01,01,16,00,AAXX 01161 10452 47103 72105 10073 20071 39392 40106 53001 73065 333 4/007 55300 20000 30000 87/01=
10452,2012,01,01,17,00,AAXX 01171 10452 47001 82105 10073 20071 39390 40104 50000 73053 333 4/007 55300 20000 30000 88/00=
10452,2012,01,01,18,00,AAXX 01181 10452 07002 82105 10074 20072 39389 40103 58002 60072 75165 333 10077 20040 3/000 4/006 55300 20000 30000 69927 88/00=
10452,2012,01,01,19,00,AAXX 01191 10452 47102 72106 10077 20075 39383 40095 58009 72365 333 4/005 55300 20000 30000 87/01=
10452,2012,01,01,20,00,AAXX 01201 10452 47135 82106 10079 20077 39378 40089 58012 72365 333 4/004 55300 20000 30000 88/02=
10452,2012,01,01,21,00,AAXX 01211 10452 27130 82006 10081 20079 39369 40079 58020 76165 333 4/003 55300 20000 30000 69997 88/02 91113=
10452,2012,01,01,22,00,AAXX 01221 10452 47266 82107 10082 20080 39357 40066 58026 72365 333 4/002 55300 20000 30000 88/04 91113=
10452,2012,01,01,23,00,AAXX 01231 10452 45267 82108 10086 20086 39350 40057 56028 333 4/002 55300 20000 30000 88/05 91114=
10453,2012,01,01,00,00,AAXX 01001 10453 11/90 92817 10012 20012 38766 48400 53002 60031 74965 333 35/// 49115 55300 91121 91217 96466 96457 96451 96449=
10453,2012,01,01,01,00,AAXX 01011 10453 41/90 92714 10019 20019 38768 48402 53006 75344 333 55300 91119 91217 96049=
10453,2012,01,01,02,00,AAXX 01021 10453 41/90 92514 10019 20019 38769 48403 51006 75154 333 55300 91118 91214 96049 96253=
10453,2012,01,01,03,00,AAXX 01031 10453 41/90 92513 10025 20025 38770 48405 51004 75354 333 55300 91119 91217 96049 96453 96449=
10453,2012,01,01,04,00,AAXX 01041 10453 41/90 92514 10024 20024 38770 48405 51002 75154 333 55300 91120 91216 96049 96253=
10453,2012,01,01,05,00,AAXX 01051 10453 41/90 92416 10023 20023 38769 48404 50000 74954 333 55300 91120 91217 96251=
10453,2012,01,01,06,00,AAXX 01061 10453 11/90 92517 10028 20028 38763 48399 58007 60042 74954 333 10028 21012 3/101 49112 55005 55300 70065 91121 90203 91218 91218 96453 96449=
10453,2012,01,01,07,00,AAXX 01071 10453 41/90 92317 10026 20026 38766 48401 55004 75154 333 55300 91122 91218 96049=
10453,2012,01,01,08,00,AAXX 01081 10453 41/90 92319 10030 20030 38769 48404 55000 76354 333 55300 91122 91219 96045 96251 96249=
10453,2012,01,01,09,00,AAXX 01091 10453 41/90 92318 10033 20033 38771 48407 51008 75365 333 21012 3/101 55300 91123 91219 96045 96263 96463 96451 96449=
10453,2012,01,01,10,00,AAXX 01101 10453 41/90 92420 10038 20038 38771 48407 51005 75354 333 55300 91124 91220 96045=
10453,2012,01,01,11,00,AAXX 01111 10453 41/90 92419 10041 20041 38771 48407 51002 75154 333 55300 91124 91220 96045=
10453,2012,01,01,12,00,AAXX 01121 10453 11/90 92519 10044 20044 38773 48409 53002 60041 76165 333 49108 55300 91127 91220 96045 96251 96463 96453 96449=
10453,2012,01,01,13,00,AAXX 01131 10453 41/90 92519 10047 20047 38769 48406 58002 75165 333 55300 91125 91219 96045 96261=
10453,2012,01,01,14,00,AAXX 01141 10453 41/90 92416 10048 20048 38771 48408 54000 74554 333 55300 91124 91219 96251=
10453,2012,01,01,15,00,AAXX 01151 10453 41/90 92417 10049 20049 38774 48411 53001 75165 333 55300 91125 91219 96045 96461 96451=
10453,2012,01,01,16,00,AAXX 01161 10453 41/90 92316 10049 20049 38774 48411 51005 74554 333 55300 91121 91217 96251=
10453,2012,01,01,17,00,AAXX 01171 10453 41/90 92218 10051 20051 38770 48407 58001 74544 333 55300 91122 91218=
10453,2012,01,01,18,00,AAXX 01181 10453 11/90 92219 10050 20050 38763 48401 58011 60062 75165 333 10051 20024 3/002 49102 55300 91125 91220 96045 96461=
10453,2012,01,01,19,00,AAXX 01191 10453 41/90 92221 10052 20052 38755 48394 58019 75154 333 55300 91126 91221 96045=
10453,2012,01,01,20,00,AAXX 01201 10453 41/90 92119 10051 20051 38757 48395 55013 75154 333 55300 91125 91221 96045=
10453,2012,01,01,21,00,AAXX 01211 10453 41/90 92221 10053 20053 38746 48385 58017 76354 333 55300 91126 91221 96045 96451=
10453,2012,01,01,22,00,AAXX 01221 10453 41/90 92224 10053 20053 38731 48371 58024 76164 333 55300 91131 91225 96045=
10453,2012,01,01,23,00,AAXX 01231 10453 41/90 92226 10053 20053 38712 48354 58045 75164 333 55300 91133 91227 96045 96261=
10454,2012,01,01,00,00,AAXX 01001 10454 17682 32505 10078 20046 39818 40107 53001 69911 70065 333 55300 83/43=
10454,2012,01,01,01,00,AAXX 01011 10454 45683 82503 10087 20052 39819 40107 52003 333 55300 88/36=
10454,2012,01,01,02,00,AAXX 01021 10454 45580 81303 10064 20033 39821 40111 53004 333 55300 87/22 88/28=
10454,2012,01,01,03,00,AAXX 01031 10454 35682 81502 10062 20033 39816 40106 58002 333 55300 87/33 88/63=
10454,2012,01,01,04,00,AAXX 01041 10454 45488 81202 10064 20036 39814 40104 58005 333 55300 87/19 88/38=
10454,2012,01,01,05,00,AAXX 01051 10454 45484 71003 10075 20048 39814 40103 56007 333 55300 87/17=
10454,2012,01,01,06,00,AAXX 01061 10454 15585 51303 10101 20063 39808 40094 58008 69912 333 10101 20023 3/002 55020 55300 70002 82/24 85/60=
10454,2012,01,01,07,00,AAXX 01071 10454 45581 81302 10080 20050 39812 40100 55002 333 55300 87/20 87/29 88/60=
10454,2012,01,01,08,00,AAXX 01081 10454 47587 81802 10100 20065 39812 40098 56002 72250 333 55300 82/21 88/57=
10454,2012,01,01,09,00,AAXX 01091 10454 27788 82005 10101 20065 39814 40100 51006 72365 333 20023 3/002 55300 69927 87/50 88/57=
10454,2012,01,01,10,00,AAXX 01101 10454 47588 81502 10105 20067 39817 40103 53005 72360 333 55300 88/20=
10454,2012,01,01,11,00,AAXX 01111 10454 45488 72105 10114 20075 39813 40097 50001 333 55300 86/19 87/56=
10454,2012,01,01,12,00,AAXX 01121 10454 07688 72204 10122 20074 39818 40102 53004 69921 70065 333 55301 69907 82/41 85/50 87/56=
10454,2012,01,01,13,00,AAXX 01131 10454 45588 81803 10119 20078 39815 40099 56002 333 55300 88/20=
10454,2012,01,01,14,00,AAXX 01141 10454 45588 72002 10121 20080 39813 40097 50000 333 55302 82/22 87/58=
10454,2012,01,01,15,00,AAXX 01151 10454 35588 81602 10119 20077 39813 40097 56005 333 55301 87/25 88/33=
10454,2012,01,01,16,00,AAXX 01161 10454 45588 82102 10115 20078 39813 40097 56002 333 55300 85/22 87/33 88/59=
10454,2012,01,01,17,00,AAXX 01171 10454 45488 81803 10112 20083 39813 40098 54000 333 55300 86/19 87/28 88/61=
10454,2012,01,01,18,00,AAXX 01181 10454 07440 82004 10109 20087 39811 40096 58002 69922 75250 333 10126 20080 3/006 55300 69907 86/17 87/22 88/57=
10454,2012,01,01,19,00,AAXX 01191 10454 47488 81906 10115 20086 39800 40084 58013 72250 333 55300 87/19 88/60 88/72=
10454,2012,01,01,20,00,AAXX 01201 10454 47488 72006 10117 20085 39796 40080 58017 72250 333 55300 87/17=
10454,2012,01,01,21,00,AAXX 01211 10454 27457 81704 10114 20090 39791 40075 56020 76265 333 55300 69927 84/18 87/23 88/29=
10454,2012,01,01,22,00,AAXX 01221 10454 47588 72004 10120 20087 39778 40061 58022 72365 333 55300 87/23 87/28=
10454,2012,01,01,23,00,AAXX 01231 10454 47588 82006 10121 20085 39766 40048 58030 72365 333 55300 87/21 88/28=
10458,2012,01,01,00,00,AAXX 01001 10458 07/09 /2405 10032 20029 39614 40104 52005 69911 73065 333 55/// 20224 30195 55300 20000 30000 69907=
10458,2012,01,01,01,00,AAXX 01011 10458 47/17 /2405 10037 20035 39614 40103 51004 72030 333 55300 20000 30000=
10458,2012,01,01,02,00,AAXX 01021 10458 47/06 /2303 10035 20035 39617 40107 53004 75153 333 55300 20000 30000=
10458,2012,01,01,03,00,AAXX 01031 10458 27343 72103 10036 20036 39615 40104 50001 72253 333 55300 20000 30000 69907 85/08 87/19 87/29=
10458,2012,01,01,04,00,AAXX 01041 10458 47/49 82205 10037 20035 39612 40101 58002 72250 333 55300 20000 30000 88/// 88/// 88///=
10458,2012,01,01,05,00,AAXX 01051 10458 47357 72306 10045 20045 39612 40099 56005 71000 333 55300 20000 30000 87/07 87/19 87/48=
10458,2012,01,01,06,00,AAXX 01061 10458 07257 82305 10049 20047 39610 40096 56005 69912 71053 333 10050 20008 3/001 55009 55300 20000 30000 69907 70006 84/04 88/57 88/61=
10458,2012,01,01,07,00,AAXX 01071 10458 47156 82206 10055 20055 39612 40097 55000 71000 333 55300 20000 30000 81/01 87/24 88/80=
10458,2012,01,01,08,00,AAXX 01081 10458 47221 82208 10059 20056 39613 40098 53001 71000 333 55300 20000 30000 84/04 87/09 88/58=
10458,2012,01,01,09,00,AAXX 01091 10458 27257 72307 10071 20067 39612 40094 50002 76165 333 20008 3/001 55300 20008 30008 69917 86/05 87/11 87/56=
10458,2012,01,01,10,00,AAXX 01101 10458 47257 72308 10077 20072 39612 40093 50000 72360 333 55300 20084 30084 83/04 86/17 87/57=
10458,2012,01,01,11,00,AAXX 01111 10458 47250 72307 10080 20075 39613 40094 55000 71000 333 55300 20201 30201 82/05 87/13 87/18=
10458,2012,01,01,12,00,AAXX 01121 10458 07357 72306 10088 20082 39614 40093 53002 69921 75165 333 55300 20254 30251 69917 85/09 86/50 87/66=
10458,2012,01,01,13,00,AAXX 01131 10458 47383 72306 10092 20084 39613 40092 50001 72250 333 55300 20239 30237 87/08 87/12=
10458,2012,01,01,14,00,AAXX 01141 10458 45383 72305 10095 20085 39612 40090 58001 333 55300 20184 30184 87/08=
10458,2012,01,01,15,00,AAXX 01151 10458 27464 72206 10095 20085 39613 40091 55001 75165 333 55300 20048 30048 69907 87/10 87/14=
10458,2012,01,01,16,00,AAXX 01161 10458 47370 82207 10093 20085 39613 40091 55000 75150 333 55300 20000 30000 83/07 88/24 88/58=
10458,2012,01,01,17,00,AAXX 01171 10458 47362 72105 10094 20085 39614 40092 52002 72250 333 55300 20000 30000 85/09 87/20 87/62=
10458,2012,01,01,18,00,AAXX 01181 10458 07350 72207 10095 20087 39611 40089 58002 69922 75265 333 10096 20048 3/004 55300 20000 30000 69907 87/06=
10458,2012,01,01,19,00,AAXX 01191 10458 47280 72107 10095 20088 39603 40081 58010 72365 333 55300 20000 30000 87/04 87/13=
10458,2012,01,01,20,00,AAXX 01201 10458 45375 72107 10098 20089 39602 40079 56012 333 55300 20000 30000 87/06=
10458,2012,01,01,21,00,AAXX 01211 10458 27256 72106 10098 20089 39596 40073 56015 76165 333 55300 20000 30000 69917 87/06=
10458,2012,01,01,22,00,AAXX 01221 10458 47385 82007 10101 20090 39584 40060 58019 72365 333 55300 20000 30000 88/06 91114=
10458,2012,01,01,23,00,AAXX 01231 10458 45388 82007 10103 20088 39575 40050 58027 333 55300 20000 30000 88/08 91113=
10460,2012,01,01,00,00,AAXX 01001 10460 07340 82203 10041 20029 39923 40126 53005 69911 72065 333 55/// 20240 30180 55300 20000 30000 69907 88/09=
10460,2012,01,01,01,00,AAXX 01011 10460 47356 82203 10045 20034 39921 40124 50002 71000 333 55300 20000 30000 87/09 88/14 88/45=
10460,2012,01,01,02,00,AAXX 01021 10460 47447 82103 10050 20038 39923 40126 51003 75150 333 55300 20000 30000 87/10 88/16=
10460,2012,01,01,03,00,AAXX 01031 10460 27317 82103 10047 20041 39920 40123 58003 75150 333 55300 20000 30000 69907 88/07=
10460,2012,01,01,04,00,AAXX 01041 10460 47210 82103 10052 20047 39919 40121 58002 75250 333 55300 20000 30000 87/06 88/09=
10460,2012,01,01,05,00,AAXX 01051 10460 41360 82204 10057 20052 39917 40119 56006 72055 876// 333 55300 20000 30000 87708=
10460,2012,01,01,06,00,AAXX 01061 10460 01660 82205 10064 20056 39912 40113 58008 69912 70252 875// 333 10064 20027 31002 55022 55300 20000 30000 69907 70004 87634=
10460,2012,01,01,07,00,AAXX 01071 10460 42565 82304 10070 20058 39917 40118 55002 875// 333 55300 20000 30000 87632=
10460,2012,01,01,08,00,AAXX 01081 10460 41466 82204 10074 20060 39918 40119 53001 76022 877// 333 55300 20000 30000 87715=
10460,2012,01,01,09,00,AAXX 01091 10460 21560 82205 10079 20068 39919 40119 51007 76162 8652/ 333 20027 3/002 55300 20047 30047 69927 86621 88556=
10460,2012,01,01,10,00,AAXX 01101 10460 41465 82306 10086 20075 39918 40118 50001 75165 878// 333 55300 20195 30195 83818 87639=
10460,2012,01,01,11,00,AAXX 01111 10460 41480 82307 10102 20086 39916 40115 58002 72022 875// 333 55300 20158 30158 86712 87619=
10460,2012,01,01,12,00,AAXX 01121 10460 01466 82407 10109 20088 39917 40115 55002 69931 71565 875// 333 31/// 55300 20235 30235 69917 87618=
10460,2012,01,01,13,00,AAXX 01131 10460 41478 82306 10109 20094 39917 40115 56001 72152 878// 333 55300 20244 30244 82816 87637=
10460,2012,01,01,14,00,AAXX 01141 10460 41481 72306 10112 20096 39914 40112 58002 72562 8683/ 333 55300 20186 30182 83816 86650=
10460,2012,01,01,15,00,AAXX 01151 10460 21583 72307 10110 20094 39912 40110 58005 72586 83836 333 55300 20162 30155 69937 81820 83633 87273=
10460,2012,01,01,16,00,AAXX 01161 10460 42682 62307 10110 20092 39917 40115 55000 85508 333 55300 20009 30009 85634 86273=
10460,2012,01,01,17,00,AAXX 01171 10460 42582 72306 10112 20094 39915 40113 52001 875// 333 55300 20000 30000 87627=
10460,2012,01,01,18,00,AAXX 01181 10460 11982 72206 10107 20087 39914 40112 50002 69962 70386 8705/ 333 10113 20064 31006 55300 20000 30000 87362=
10460,2012,01,01,19,00,AAXX 01191 10460 41582 72105 10111 20086 39908 40106 58009 72122 875// 333 55300 20000 30000 87625=
10460,2012,01,01,20,00,AAXX 01201 10460 42581 82106 10117 20085 39906 40103 58009 875// 333 55300 20000 30000 87625=
10460,2012,01,01,21,00,AAXX 01211 10460 27588 72103 10112 20086 39900 40098 57014 70065 333 55300 20000 30000 69907 87/21=
10460,2012,01,01,22,00,AAXX 01221 10460 45588 82106 10118 20088 39886 40083 58022 333 55300 20000 30000 83/25 87/29 88/62=
10460,2012,01,01,23,00,AAXX 01231 10460 45688 72106 10116 20087 39877 40074 58029 333 55300 20000 30000 83/36 87/62=
10466,2012,01,01,00,00,AAXX 01001 10466 06/10 /2201 10040 20031 30001 40119 53001 69941 333 55/// 20275 30177 55300 20000 30000 69907=
10466,2012,01,01,01,00,AAXX 01011 10466 46/28 /2101 10042 20032 30000 40118 50000 333 55300 20000 30000=
10466,2012,01,01,02,00,AAXX 01021 10466 46/61 /2201 10049 20038 30002 40120 53002 333 55300 20000 30000=
10466,2012,01,01,03,00,AAXX 01031 10466 36/61 /1801 10049 20040 30000 40118 58001 333 55300 20000 30000=
10466,2012,01,01,04,00,AAXX 01041 10466 46/61 /2201 10062 20055 39999 40116 58001 333 55300 20000 30000=
10466,2012,01,01,05,00,AAXX 01051 10466 46/57 /2002 10063 20055 39999 40116 56003 333 55300 20000 30000=
10466,2012,01,01,06,00,AAXX 01061 10466 06/60 /2101 10066 20059 39999 40116 56001 69942 333 10066 20031 3/001 55024 55300 20000 30000 69907 70005=
10466,2012,01,01,07,00,AAXX 01071 10466 46/61 /1903 10071 20062 39998 40115 58001 333 55300 20000 30000=
10466,2012,01,01,08,00,AAXX 01081 10466 46/61 /2002 10077 20063 30001 40118 53002 333 55300 20003 30003=
10466,2012,01,01,09,00,AAXX 01091 10466 26/61 /1702 10081 20065 30002 40118 53003 333 20031 3/001 55300 20047 30047 69907=
10466,2012,01,01,10,00,AAXX 01101 10466 46/60 /1902 10083 20074 30002 40118 51004 333 55300 20059 30059=
10466,2012,01,01,11,00,AAXX 01111 10466 46/61 /1602 10086 20078 30000 40116 58001 333 55300 20122 30122=
10466,2012,01,01,12,00,AAXX 01121 10466 06/61 /1502 10091 20083 39998 40114 58004 60021 333 55300 20122 30122 60027=
10466,2012,01,01,13,00,AAXX 01131 10466 46/61 /2403 10108 20095 39996 40111 57006 333 55300 20077 30077=
10466,2012,01,01,14,00,AAXX 01141 10466 46/61 /2203 10115 20096 39993 40108 58007 333 55300 20111 30111=
10466,2012,01,01,15,00,AAXX 01151 10466 26/61 /2303 10119 20096 39990 40105 58008 333 55300 20128 30127 69907=
10466,2012,01,01,16,00,AAXX 01161 10466 46/61 /2603 10112 20092 39996 40111 55000 333 55300 20005 30005=
10466,2012,01,01,17,00,AAXX 01171 10466 46/61 /2102 10110 20090 39996 40111 53003 333 55300 20000 30000=
10466,2012,01,01,18,00,AAXX 01181 10466 16/61 /1702 10108 20090 39997 40112 51007 60022 333 10119 20067 3/004 55300 20000 30000=
10466,2012,01,01,19,00,AAXX 01191 10466 46/61 /1502 10111 20088 39993 40108 58003 333 55300 20000 30000=
10466,2012,01,01,20,00,AAXX 01201 10466 46/61 /2002 10112 20086 39988 40103 58008 333 55300 20000 30000=
10466,2012,01,01,21,00,AAXX 01211 10466 26/61 /1903 10118 20088 39980 40095 58017 333 55300 20000 30000 69907=
10466,2012,01,01,22,00,AAXX 01221 10466 46/61 /2104 10120 20088 39972 40086 58021 333 55300 20000 30000=
10466,2012,01,01,23,00,AAXX 01231 10466 46/61 /2003 10122 20090 39964 40078 57024 333 55300 20000 30000=
10469,2012,01,01,00,00,AAXX 01001 10469 01475 82104 10039 20031 39953 40120 55001 69931 70265 875// 333 32/// 55300 69927 85610 87625=
10469,2012,01,01,01,00,AAXX 01011 10469 42375 72105 10044 20034 39953 40120 52001 875// 333 55300 83608 83617 87656=
10469,2012,01,01,02,00,AAXX 01021 10469 42475 72205 10051 20041 39955 40121 53003 875// 333 55300 83610 87650=
10469,2012,01,01,03,00,AAXX 01031 10469 32475 72104 10049 20040 39953 40119 50000 875// 333 55300 82610 87645=
10469,2012,01,01,04,00,AAXX 01041 10469 42470 82004 10054 20045 39952 40118 58001 875// 333 55300 82610 87633=
10469,2012,01,01,05,00,AAXX 01051 10469 41225 82003 10057 20052 39953 40119 55002 75352 8672/ 333 55300 82704 85713 87520=
10469,2012,01,01,06,00,AAXX 01061 10469 01158 82005 10061 20057 39954 40119 53001 69952 75152 8672/ 333 10062 20030 32003 55021 55300 69927 70005 81703 86709 87530=
10469,2012,01,01,07,00,AAXX 01071 10469 41562 81805 10067 20067 39952 40117 50000 72055 885// 333 55300 83626 88636=
10469,2012,01,01,08,00,AAXX 01081 10469 42575 81904 10070 20062 39956 40121 53003 875// 333 55300 87632=
10469,2012,01,01,09,00,AAXX 01091 10469 21580 82004 10081 20068 39956 40120 53002 70352 885// 333 20030 3/003 55300 69907 83621 88626=
10469,2012,01,01,10,00,AAXX 01101 10469 41458 82005 10083 20071 39956 40120 51004 76362 8252/ 333 55300 82619 83546 88463=
10469,2012,01,01,11,00,AAXX 01111 10469 41475 82006 10086 20077 39955 40119 58001 76166 8252/ 333 55300 82615 87526=
10469,2012,01,01,12,00,AAXX 01121 10469 01481 82005 10093 20082 39953 40116 58003 60021 72165 885// 333 32/// 55300 60027 83617 88620=
10469,2012,01,01,13,00,AAXX 01131 10469 41484 82104 10101 20087 39953 40116 56003 72162 875// 333 55300 87617=
10469,2012,01,01,14,00,AAXX 01141 10469 41284 82306 10111 20094 39948 40110 58007 72122 878// 333 55300 81806 83627 85657=
10469,2012,01,01,15,00,AAXX 01151 10469 21484 72306 10113 20094 39948 40110 57005 70362 86802 333 55300 69907 82817 86627 87080=
10469,2012,01,01,16,00,AAXX 01161 10469 42484 72205 10108 20092 39950 40112 55003 85801 333 55300 81816 85632 86080=
10469,2012,01,01,17,00,AAXX 01171 10469 42486 62103 10101 20086 39954 40117 53006 85801 333 55300 81815 85632 85080=
10469,2012,01,01,18,00,AAXX 01181 10469 11486 61905 10106 20088 39952 40115 50004 60022 70362 86800 333 10114 20061 31006 55300 81818 86629=
10469,2012,01,01,19,00,AAXX 01191 10469 42586 71903 10105 20087 39950 40113 50000 8557/ 333 55300 85626 85359=
10469,2012,01,01,20,00,AAXX 01201 10469 42584 71905 10111 20088 39946 40108 58008 8457/ 333 55300 84626 86359=
10469,2012,01,01,22,00,AAXX 01221 10469 42584 71805 10107 20086 39929 40091 58021 8557/ 333 55300 85623 87359=
10469,2012,01,01,23,00,AAXX 01231 10469 42584 72006 10112 20089 39923 40085 56023 8357/ 333 55300 83630 87360=
10471,2012,01,01,00,00,AAXX 01001 10471 01440 82102 10039 20031 39949 40119 57001 69951 72065 876// 333 31/// 55/// 20299 30190 42597 55300 20000 30000 41199 69937 87710=
10471,2012,01,01,01,00,AAXX 01011 10471 47450 82102 10043 20034 39949 40119 56001 71000 333 55300 20000 30000 41206 86/10 88/16 88/24=
10471,2012,01,01,02,00,AAXX 01021 10471 47450 82102 10047 20037 39951 40120 53002 71000 333 55300 20000 30000 41180 81/11 87/36 88/50=
10471,2012,01,01,03,00,AAXX 01031 10471 35458 82102 10049 20040 39950 40119 50001 333 55300 20000 30000 41152 82/11 86/38 88/47=
10471,2012,01,01,04,00,AAXX 01041 10471 42565 82003 10054 20042 39948 40117 58001 875// 333 55300 20000 30000 41192 87626=
10471,2012,01,01,05,00,AAXX 01051 10471 41220 82103 10058 20052 39951 40120 55000 75322 877// 333 55300 20000 30000 41229 87704=
10471,2012,01,01,06,00,AAXX 01061 10471 01220 82103 10065 20065 39951 40119 53001 69982 75352 877// 333 10065 20031 31003 55026 55300 20000 30000 41243 69937 70008 87704=
10471,2012,01,01,07,00,AAXX 01071 10471 41256 82002 10066 20061 39951 40119 51003 72055 885// 333 55300 20000 30000 41244 85706 88625=
10471,2012,01,01,08,00,AAXX 01081 10471 42570 72103 10073 20062 39954 40122 53003 875// 333 55300 20023 30022 41228 83725 87633=
10471,2012,01,01,09,00,AAXX 01091 10471 21475 72103 10080 20064 39952 40119 50001 70252 875// 333 20031 3/003 55300 20072 30072 41256 69927 87613=
10471,2012,01,01,10,00,AAXX 01101 10471 41356 82104 10086 20070 39953 40120 51002 76362 8572/ 333 55300 20184 30184 41255 85708 88556=
10471,2012,01,01,11,00,AAXX 01111 10471 41358 82004 10088 20077 39951 40118 57003 76166 8372/ 333 55300 20150 30150 41265 83809 88523=
10471,2012,01,01,12,00,AAXX 01121 10471 01465 72103 10095 20081 39950 40116 58002 60021 72165 878// 333 32/// 55300 20140 30140 41282 60027 81813 87618=
10471,2012,01,01,13,00,AAXX 01131 10471 41475 72002 10100 20084 39949 40115 56004 72122 878// 333 55300 20089 30089 41292 84812 87618=
10471,2012,01,01,14,00,AAXX 01141 10471 41480 72203 10107 20087 39947 40113 58004 72122 878// 333 55300 20112 30112 41285 82813 84623 87656=
10471,2012,01,01,15,00,AAXX 01151 10471 21580 72003 10109 20086 39944 40109 58006 70362 82531 333 55300 20101 30100 41259 69907 82623 84360 86080=
10471,2012,01,01,16,00,AAXX 01161 10471 42582 72204 10110 20087 39945 40110 55004 83531 333 55300 20009 30008 41169 83630 85363=
10471,2012,01,01,17,00,AAXX 01171 10471 42583 72002 10108 20086 39950 40116 53003 82531 333 55300 20000 30000 41211 82633 84359=
10471,2012,01,01,18,00,AAXX 01181 10471 11584 72003 10103 20084 39949 40115 50005 60022 70262 85501 333 10114 20065 31006 55300 20000 30000 41112 85633 85080=
10471,2012,01,01,19,00,AAXX 01191 10471 42584 72003 10105 20084 39948 40114 50003 83532 333 55300 20000 30000 41198 83625 86080=
10471,2012,01,01,20,00,AAXX 01201 10471 42984 62003 10099 20080 39942 40108 58008 82032 333 55300 20000 30000 41199 82360 86080=
10471,2012,01,01,21,00,AAXX 01211 10471 35888 81903 10102 20081 39936 40102 58013 333 55300 20000 30000 41134 81/57 88/71 88/78=
10471,2012,01,01,22,00,AAXX 01221 10471 45588 82004 10111 20086 39929 40094 58019 333 55300 20000 30000 41232 81/28 88/60 88/64=
10471,2012,01,01,23,00,AAXX 01231 10471 45988 82004 10111 20084 39920 40085 58022 333 55300 20000 30000 41236 88/59=
10474,2012,01,01,00,00,AAXX 01001 10474 07/02 /1902 10030 20026 39988 40119 58002 69931 73065 333 55/// 20293 30219 55300 20000 30000 69937=
10474,2012,01,01,01,00,AAXX 01011 10474 47/07 /1802 10032 20029 39988 40119 58001 75253 333 55300 20000 30000=
10474,2012,01,01,02,00,AAXX 01021 10474 47114 71901 10034 20031 39988 40119 56002 72253 333 55300 20000 30000 87/02=
10474,2012,01,01,03,00,AAXX 01031 10474 27417 81901 10037 20037 39986 40117 58002 72253 333 55300 20000 30000 69917 88/10=
10474,2012,01,01,04,00,AAXX 01041 10474 47417 82101 10038 20038 39985 40116 58003 71000 333 55300 20000 30000 88/10 88/45=
10474,2012,01,01,05,00,AAXX 01051 10474 47434 72401 10042 20038 39987 40117 55001 75150 333 55300 20000 30000 86/11 87/21 87/50=
10474,2012,01,01,06,00,AAXX 01061 10474 07247 72202 10049 20044 39986 40116 54000 69942 75153 333 10049 20015 3/000 55032 55300 20000 30000 69907 70004 87/04 87/13 87/20=
10474,2012,01,01,07,00,AAXX 01071 10474 47/23 /2202 10057 20052 39983 40113 58002 72250 333 55300 20000 30000=
10474,2012,01,01,08,00,AAXX 01081 10474 47126 72202 10061 20057 39987 40116 55000 72250 333 55300 20004 30004 84/02 87/22 87/28=
10474,2012,01,01,09,00,AAXX 01091 10474 27545 82202 10068 20063 39986 40115 55000 71050 333 20015 3/000 55300 20063 30063 69917 87/27 88/35=
10474,2012,01,01,10,00,AAXX 01101 10474 47557 72303 10077 20067 39987 40116 51004 72365 333 55300 20133 30132 87/20 87/61 87/63=
10474,2012,01,01,11,00,AAXX 01111 10474 47330 72303 10083 20074 39984 40112 58003 76265 333 55300 20179 30179 87/08 87/28=
10474,2012,01,01,12,00,AAXX 01121 10474 07456 82303 10084 20076 39982 40110 58004 60011 72365 333 55300 20116 30116 60017 82/10 88/22=
10474,2012,01,01,13,00,AAXX 01131 10474 47258 72202 10086 20079 39981 40109 56006 72365 333 55300 20097 30097 83/06 87/10 87/15=
10474,2012,01,01,14,00,AAXX 01141 10474 47463 72303 10095 20085 39979 40107 57005 72250 333 55300 20062 30062 85/13 87/20 87/24=
10474,2012,01,01,15,00,AAXX 01151 10474 27570 82303 10102 20090 39977 40104 58005 70065 333 55300 20063 30063 69947 87/22 88/28 88/64=
10474,2012,01,01,16,00,AAXX 01161 10474 45577 72203 10100 20090 39982 40109 53001 333 55300 20004 30004 87/22=
10474,2012,01,01,17,00,AAXX 01171 10474 45574 72302 10101 20090 39985 40112 53006 333 55300 20000 30000 82/26 87/32=
10474,2012,01,01,18,00,AAXX 01181 10474 17580 82303 10104 20091 39984 40111 50007 60022 70065 333 10105 20049 3/005 55300 20000 30000 88/32=
10474,2012,01,01,19,00,AAXX 01191 10474 45580 82203 10105 20090 39983 40110 50001 333 55300 20000 30000 83/28 88/33 88/61=
10474,2012,01,01,20,00,AAXX 01201 10474 47486 71903 10103 20087 39976 40103 58009 72365 333 55300 20000 30000 84/19 87/60 87/62=
10474,2012,01,01,21,00,AAXX 01211 10474 27584 81903 10103 20086 39972 40099 58012 72365 333 55300 20000 30000 69907 87/21 88/56 88/57=
10474,2012,01,01,22,00,AAXX 01221 10474 47588 81904 10107 20085 39962 40089 58021 72360 333 55300 20000 30000 88/21 88/60=
10474,2012,01,01,23,00,AAXX 01231 10474 47488 81804 10107 20085 39951 40078 58025 72365 333 55300 20000 30000 84/17 88/26 88/57=
10476,2012,01,01,00,00,AAXX 01001 10476 41140 81503 10021 20017 39997 40123 57002 75862 877// 333 83703 87706=
10476,2012,01,01,01,00,AAXX 01011 10476 41135 81802 10026 20026 39995 40121 58003 72122 876// 333 87703=
10476,2012,01,01,02,00,AAXX 01021 10476 41140 81802 10032 20028 39996 40122 55002 71022 876// 333 83703 87707=
10476,2012,01,01,03,00,AAXX 01031 10476 41140 81702 10035 20035 39994 40119 57003 71062 876// 333 83703 87707=
10476,2012,01,01,04,00,AAXX 01041 10476 41350 81702 10039 20039 39992 40117 58003 71022 876// 333 83707 87715=
10476,2012,01,01,05,00,AAXX 01051 10476 41350 82002 10038 20038 39994 40119 55002 71022 875// 333 82707 84615 87640=
10476,2012,01,01,06,00,AAXX 01061 10476 11456 81902 10046 20040 39993 40118 57001 69942 71062 875// 333 10047 20003 31102 70004 83615 87635=
10476,2012,01,01,07,00,AAXX 01071 10476 41356 82204 10054 20047 39994 40119 52002 71022 875// 333 82707 85620 87635=
10476,2012,01,01,08,00,AAXX 01081 10476 41250 82103 10063 20057 39996 40120 53002 72052 875// 333 83706 85709 87620=
10476,2012,01,01,09,00,AAXX 01091 10476 41457 72202 10070 20063 39993 40117 50000 71052 875// 333 83710 85620 87633=
10476,2012,01,01,10,00,AAXX 01101 10476 42661 72103 10076 20067 39994 40118 50000 875// 333 85633 87657=
10476,2012,01,01,11,00,AAXX 01111 10476 41460 72204 10085 20070 39990 40113 57006 76122 875// 333 83710 87627=
10476,2012,01,01,12,00,AAXX 01121 10476 41457 82204 10087 20077 39987 40110 58006 76165 875// 333 83710 87626=
10476,2012,01,01,13,00,AAXX 01131 10476 41360 82404 10092 20082 39989 40112 55005 72166 875// 333 82709 87623=
10476,2012,01,01,14,00,AAXX 01141 10476 42562 72303 10098 20087 39986 40108 57004 875// 333 85623 87640=
10476,2012,01,01,15,00,AAXX 01151 10476 41562 62304 10099 20087 39987 40109 55000 70162 86500 333 86628=
10476,2012,01,01,16,00,AAXX 01161 10476 42562 62203 10102 20089 39989 40111 55000 86500 333 86630=
10476,2012,01,01,17,00,AAXX 01171 10476 42570 72203 10104 20089 39994 40116 53008 875// 333 87630=
10476,2012,01,01,18,00,AAXX 01181 10476 11675 72103 10101 20088 39992 40114 50005 69972 70262 875// 333 10106 20046 31004 87638=
10476,2012,01,01,19,00,AAXX 01191 10476 42675 72004 10104 20086 39993 40115 52004 875// 333 87640=
10476,2012,01,01,20,00,AAXX 01201 10476 42675 71904 10104 20084 39984 40106 57010 875// 333 87635=
10476,2012,01,01,21,00,AAXX 01211 10476 42575 71903 10102 20084 39980 40102 58012 875// 333 87630=
10476,2012,01,01,22,00,AAXX 01221 10476 42575 72005 10110 20085 39974 40096 57019 875// 333 87630=
10476,2012,01,01,23,00,AAXX 01231 10476 42575 71804 10111 20084 39962 40084 58022 875// 333 87630=
10480,2012,01,01,00,00,AAXX 01001 10480 07343 82103 10039 20031 39941 40126 56004 69911 72265 333 55/// 20355 30202 55300 20000 30000 69917 81/07 88/13=
10480,2012,01,01,01,00,AAXX 01011 10480 45461 82304 10045 20033 39941 40126 56002 333 55300 20000 30000 88/12=
10480,2012,01,01,02,00,AAXX 01021 10480 45462 82405 10049 20036 39941 40125 56001 333 55300 20000 30000 82/14 87/36 88/50=
10480,2012,01,01,03,00,AAXX 01031 10480 35660 82406 10052 20039 39939 40123 58002 333 55300 20000 30000 85/46 88/50=
10480,2012,01,01,04,00,AAXX 01041 10480 45761 42306 10050 20036 39942 40126 53001 333 55300 20000 30000 84/50=
10480,2012,01,01,05,00,AAXX 01051 10480 45765 72305 10059 20044 39941 40125 55000 333 55300 20000 30000 87/50=
10480,2012,01,01,06,00,AAXX 01061 10480 07462 72305 10063 20050 39942 40125 51003 69912 75150 333 10064 20018 3/001 55051 55300 20000 30000 69907 70001 82/18 87/35 87/44=
10480,2012,01,01,07,00,AAXX 01071 10480 47364 82205 10065 20060 39944 40127 53002 72250 333 55300 20000 30000 85/07 87/12 88/34=
10480,2012,01,01,08,00,AAXX 01081 10480 45470 72305 10065 20057 39945 40128 52004 333 55300 20009 30009 81/15 84/50 87/62=
10480,2012,01,01,09,00,AAXX 01091 10480 27682 72305 10079 20063 39945 40127 51003 70050 333 20018 3/001 55300 20177 30176 69917 87/35 87/56 87/62=
10480,2012,01,01,10,00,AAXX 01101 10480 45580 82305 10087 20067 39946 40128 52002 333 55300 20123 30123 81/21 87/39 88/50=
10480,2012,01,01,11,00,AAXX 01111 10480 47665 72306 10095 20076 39942 40123 58003 75765 333 55300 20262 30261 81/40 85/58 87/60=
10480,2012,01,01,12,00,AAXX 01121 10480 07575 72306 10095 20083 39939 40120 58006 69931 72365 333 55300 20228 30228 69927 83/26 86/37 87/57=
10480,2012,01,01,13,00,AAXX 01131 10480 47563 72307 10100 20084 39939 40120 56007 76165 333 55300 20196 30196 83/24 86/48 87/57=
10480,2012,01,01,14,00,AAXX 01141 10480 47581 72205 10101 20086 39938 40119 56004 72365 333 55300 20130 30130 85/21 87/49 87/50=
10480,2012,01,01,15,00,AAXX 01151 10480 27586 32305 10100 20085 39936 40117 58003 72365 333 55300 20070 30070 69937 82/25 83/80=
10480,2012,01,01,16,00,AAXX 01161 10480 45588 32305 10103 20085 39938 40118 55001 333 55300 20000 30000 83/28=
10480,2012,01,01,17,00,AAXX 01171 10480 45588 82306 10108 20088 39944 40124 53006 333 55300 20000 30000 88/32=
10480,2012,01,01,18,00,AAXX 01181 10480 17588 82305 10108 20086 39944 40124 51008 69962 70065 333 10111 20061 3/006 55300 20000 30000 82/26 88/35=
10480,2012,01,01,19,00,AAXX 01191 10480 45588 72204 10109 20088 39945 40125 51007 333 55300 20000 30000 87/31=
10480,2012,01,01,20,00,AAXX 01201 10480 45988 82003 10107 20085 39935 40115 58009 333 55300 20000 30000 87/59 88/62=
10480,2012,01,01,21,00,AAXX 01211 10480 27988 72105 10110 20087 39930 40110 58014 72360 333 55300 20000 30000 69907 87/59 87/63=
10480,2012,01,01,22,00,AAXX 01221 10480 45888 72206 10115 20087 39926 40106 56019 333 55300 20000 30000 85/57 87/62=
10480,2012,01,01,23,00,AAXX 01231 10480 45988 52106 10117 20088 39912 40091 58023 333 55300 20000 30000 81/60 85/62=
10488,2012,01,01,00,00,AAXX 01001 10488 01227 81604 10022 20015 39845 40131 56003 69901 75365 877// 333 31/// 55/// 20266 30195 42465 55300 20000 30000 41174 69907 83706 87709=
10488,2012,01,01,01,00,AAXX 01011 10488 41112 81603 10024 20020 39845 40131 57001 75155 877// 333 55300 20000 30000 41182 85702 87706=
10488,2012,01,01,02,00,AAXX 01021 10488 41015 81903 10026 20026 39845 40131 56001 75155 877// 333 55300 20000 30000 41188 85701 87706=
10488,2012,01,01,03,00,AAXX 01031 10488 21123 81704 10030 20028 39844 40129 58001 75155 877// 333 55300 20000 30000 41196 69917 85702 87708=
10488,2012,01,01,04,00,AAXX 01041 10488 41456 81704 10034 20031 39845 40130 55000 72022 876// 333 55300 20000 30000 41206 87712=
10488,2012,01,01,05,00,AAXX 01051 10488 42459 61704 10031 20027 39845 40130 55000 86500 333 55300 20000 30000 41110 83614 84619=
10488,2012,01,01,06,00,AAXX 01061 10488 01460 71705 10036 20031 39845 40130 51001 69912 70352 875// 333 10037 20016 31000 55028 55300 20000 30000 41116 69907 70001 82614 86646=
10488,2012,01,01,07,00,AAXX 01071 10488 42561 71805 10041 20035 39849 40133 53004 875// 333 55300 20000 30000 41201 87628=
10488,2012,01,01,08,00,AAXX 01081 10488 41250 81704 10044 20037 39850 40134 53005 75122 877// 333 55300 20015 30015 41228 83704 87709=
10488,2012,01,01,09,00,AAXX 01091 10488 21563 71804 10055 20048 39849 40132 50004 72052 878// 333 20016 3/000 55300 20110 30109 41218 69907 82829 86637=
10488,2012,01,01,10,00,AAXX 01101 10488 42580 71805 10068 20056 39850 40131 52001 875// 333 55300 20187 30185 41233 87631=
10488,2012,01,01,11,00,AAXX 01111 10488 41578 82005 10080 20063 39848 40128 58002 72022 878// 333 55300 20206 30204 41249 82828 87634=
10488,2012,01,01,12,00,AAXX 01121 10488 01465 82104 10088 20072 39845 40124 58004 69911 76152 878// 333 31/// 55300 20195 30193 41272 69917 83814 87620=
10488,2012,01,01,13,00,AAXX 01131 10488 41470 82305 10099 20082 39844 40122 56006 72166 878// 333 55300 20114 30113 41290 82814 87623=
10488,2012,01,01,14,00,AAXX 01141 10488 41468 82406 10102 20085 39845 40123 55003 75866 878// 333 55300 20099 30097 41301 82816 87622=
10488,2012,01,01,15,00,AAXX 01151 10488 21580 72305 10105 20084 39843 40120 58002 72162 875// 333 55300 20036 30035 41294 69947 85622 83636=
10488,2012,01,01,16,00,AAXX 01161 10488 42581 72205 10105 20082 39843 40120 58001 875// 333 55300 20006 30005 41237 87625=
10488,2012,01,01,17,00,AAXX 01171 10488 42582 72104 10101 20080 39849 40127 53004 875// 333 55300 20000 30000 41282 87627=
10488,2012,01,01,18,00,AAXX 01181 10488 01480 82105 10107 20083 39850 40127 53007 69952 72162 878// 333 10110 20036 31003 55300 20000 30000 41298 69907 81811 87628=
10488,2012,01,01,19,00,AAXX 01191 10488 42581 81704 10089 20074 39849 40128 50006 875// 333 55300 20000 30000 41287 87632=
10488,2012,01,01,20,00,AAXX 01201 10488 42582 62004 10093 20073 39847 40126 58002 86500 333 55300 20000 30000 41270 86632=
10488,2012,01,01,22,00,AAXX 01221 10488 42481 81705 10087 20067 39834 40113 58015 8555/ 333 55300 20000 30000 41137 82616 84657 87358=
10488,2012,01,01,23,00,AAXX 01231 10488 42782 81706 10095 20071 39827 40105 57020 875// 333 55300 20000 30000 41186 84650 87657=
10490,2012,01,01,00,00,AAXX 01001 10490 07220 81803 10016 20007 30000 40122 57001 69941 75165 333 55/// 20304 30171 55300 20000 30000 69947 82/06 87/23 88/34=
10490,2012,01,01,01,00,AAXX 01011 10490 47113 81803 10022 20015 39996 40118 58005 72365 333 55300 20000 30000 86/03 86/09 88/18=
10490,2012,01,01,02,00,AAXX 01021 10490 47221 81903 10029 20023 39997 40118 55003 75150 333 55300 20000 30000 88/04=
10490,2012,01,01,03,00,AAXX 01031 10490 27431 82002 10035 20030 39995 40116 56005 72265 333 55300 20000 30000 69927 88/10=
10490,2012,01,01,04,00,AAXX 01041 10490 47436 81902 10039 20034 39995 40116 58001 72250 333 55300 20000 30000 88/13=
10490,2012,01,01,05,00,AAXX 01051 10490 47450 81903 10044 20038 39993 40113 57004 71000 333 55300 20000 30000 88/12=
10490,2012,01,01,06,00,AAXX 01061 10490 07557 81903 10049 20041 39994 40114 55001 69962 71065 333 10049 21004 3/103 55048 55300 20000 30000 69907 70006 84/20 88/42=
10490,2012,01,01,07,00,AAXX 01071 10490 47559 81903 10050 20041 39995 40115 55000 72360 333 55300 20000 30000 88/32=
10490,2012,01,01,08,00,AAXX 01081 10490 47250 81903 10055 20048 39996 40116 52003 72265 333 55300 20002 30002 87/05 88/11=
10490,2012,01,01,09,00,AAXX 01091 10490 27262 82004 10069 20063 39995 40114 50001 70065 333 21004 3/103 55300 20091 30091 69907 86/05 88/33=
10490,2012,01,01,10,00,AAXX 01101 10490 45577 72104 10077 20064 39995 40114 50000 333 55300 20176 30176 81/20 87/31=
10490,2012,01,01,11,00,AAXX 01111 10490 45580 82103 10085 20068 39991 40110 58005 333 55300 20158 30158 83/27 85/34 88/46=
10490,2012,01,01,12,00,AAXX 01121 10490 07560 82305 10089 20075 39989 40107 58006 69931 75765 333 55300 20214 30214 69937 87/29 87/36 88/56=
10490,2012,01,01,13,00,AAXX 01131 10490 47564 72204 10092 20082 39988 40106 56007 72365 333 55300 20150 30150 86/28 87/39 87/50=
10490,2012,01,01,14,00,AAXX 01141 10490 47463 82204 10097 20086 39989 40107 55002 75165 333 55300 20077 30077 84/13 87/29 88/35=
10490,2012,01,01,15,00,AAXX 01151 10490 27582 82103 10100 20087 39986 40104 58003 72265 333 55300 20023 30023 69947 87/28 88/33=
10490,2012,01,01,16,00,AAXX 01161 10490 45567 82003 10097 20085 39988 40106 55000 333 55300 20000 30000 88/29=
10490,2012,01,01,17,00,AAXX 01171 10490 45583 82103 10100 20085 39995 40113 53006 333 55300 20000 30000 88/30=
10490,2012,01,01,18,00,AAXX 01181 10490 07583 72004 10099 20086 39995 40113 51009 69972 72365 333 10101 20047 3/004 55300 20000 30000 69907 87/32 87/41=
10490,2012,01,01,19,00,AAXX 01191 10490 45687 82104 10104 20086 39995 40113 51007 333 55300 20000 30000 88/37=
10490,2012,01,01,20,00,AAXX 01201 10490 45588 82104 10107 20086 39992 40110 58003 333 55300 20000 30000 85/31 88/38=
10490,2012,01,01,21,00,AAXX 01211 10490 27688 71904 10106 20084 39984 40102 58011 72360 333 55300 20000 30000 69907 85/33 86/57 87/62=
10490,2012,01,01,22,00,AAXX 01221 10490 47588 82004 10107 20083 39979 40096 58016 72360 333 55300 20000 30000 81/29 87/59 88/61=
10490,2012,01,01,23,00,AAXX 01231 10490 45988 81904 10106 20084 39967 40084 58025 333 55300 20000 30000 86/58 88/61=
10495,2012,01,01,00,00,AAXX 01001 10495 07228 81703 10023 20008 39989 40133 56003 69901 75165 333 55300 69907 88/05 88/65=
10495,2012,01,01,01,00,AAXX 01011 10495 47256 81703 10024 20015 39986 40130 58003 72250 333 55300 88/06 88/64 88/66=
10495,2012,01,01,02,00,AAXX 01021 10495 47356 81803 10027 20018 39984 40128 58006 72250 333 55300 88/07=
10495,2012,01,01,04,00,AAXX 01041 10495 47357 81602 10036 20028 39982 40125 57004 72250 333 55300 88/07=
10495,2012,01,01,05,00,AAXX 01051 10495 45359 81702 10042 20033 39982 40125 57002 333 55300 88/08=
10495,2012,01,01,06,00,AAXX 01061 10495 07457 81601 10038 20029 39983 40126 55001 69912 71065 333 10043 20005 3/102 55045 55300 69907 70001 86/15 88/80 88/81=
10495,2012,01,01,07,00,AAXX 01071 10495 45460 81802 10043 20034 39985 40128 53003 333 55300 86/13 88/43=
10495,2012,01,01,08,00,AAXX 01081 10495 45362 81702 10051 20039 39986 40129 52004 333 55300 84/09 88/22 88/63=
10495,2012,01,01,10,00,AAXX 01101 10495 45468 81903 10073 20060 39985 40126 50000 333 55300 81/14 88/28 88/65=
10495,2012,01,01,11,00,AAXX 01111 10495 45378 82205 10092 20066 39983 40123 58003 333 55300 83/07 88/31 88/65=
10495,2012,01,01,12,00,AAXX 01121 10495 07481 82205 10100 20073 39977 40117 58009 69901 72250 333 55300 69907 87/18 88/34 88/46=
10495,2012,01,01,13,00,AAXX 01131 10495 47479 82304 10097 20083 39976 40116 56009 72365 333 55300 87/10 88/28 88/57=
10495,2012,01,01,14,00,AAXX 01141 10495 47257 82304 10099 20089 39976 40116 56007 75865 333 55300 88/06 88/64=
10495,2012,01,01,16,00,AAXX 01161 10495 45481 82003 10100 20090 39977 40117 50001 333 55300 86/10 87/18 88/26=
10495,2012,01,01,17,00,AAXX 01171 10495 45478 81903 10097 20085 39982 40122 53006 333 55300 84/11 88/23 88/65=
10495,2012,01,01,18,00,AAXX 01181 10495 07270 82103 10099 20085 39986 40126 53008 69952 75165 333 10102 20038 3/001 55300 69907 85/06 87/11 88/23=
10495,2012,01,01,19,00,AAXX 01191 10495 47371 82002 10096 20086 39982 40122 50005 75150 333 55300 87/08 88/14 88/37=
10495,2012,01,01,20,00,AAXX 01201 10495 47484 82104 10109 20091 39982 40122 50000 72250 333 55300 85/10 87/17 88/24=
10495,2012,01,01,22,00,AAXX 01221 10495 45677 81603 10087 20072 39970 40111 58012 333 55300 84/33 88/73 88/80=
10495,2012,01,01,23,00,AAXX 01231 10495 45869 81703 10084 20066 39963 40104 56019 333 55300 88/57 88/61 88/65=
10496,2012,01,01,00,00,AAXX 01001 10496 07330 81803 10025 20002 30041 40128 56006 69901 72251 333 55/// 20249 30168 55300 20000 30000 69907 82/08 83/12 88/29=
10496,2012,01,01,01,00,AAXX 01011 10496 45358 81803 10027 20009 30040 40126 57003 333 55300 20000 30000 88/08 88/26 88/34=
10496,2012,01,01,02,00,AAXX 01021 10496 47250 81903 10028 20015 30038 40124 58004 71000 333 55300 20000 30000 88/06=
10496,2012,01,01,03,00,AAXX 01031 10496 27250 81902 10031 20019 30035 40121 58006 72250 333 55300 20000 30000 69907 88/05=
10496,2012,01,01,04,00,AAXX 01041 10496 47230 82002 10034 20025 30033 40119 57007 75150 333 55300 20000 30000 88/04=
10496,2012,01,01,05,00,AAXX 01051 10496 41232 82002 10038 20031 30033 40119 56005 75152 887// 333 55300 20000 30000 88705=
10496,2012,01,01,06,00,AAXX 01061 10496 01338 82002 10044 20037 30033 40119 56002 69902 72052 886// 333 10044 20003 31102 55021 55300 20000 30000 69907 79999 88709=
10496,2012,01,01,07,00,AAXX 01071 10496 41450 82102 10048 20039 30035 40121 53002 71022 875// 333 55300 20000 30000 87615=
10496,2012,01,01,08,00,AAXX 01081 10496 41557 82103 10055 20044 30037 40123 53004 71022 875// 333 55300 20011 30011 87620=
10496,2012,01,01,09,00,AAXX 01091 10496 21260 82103 10062 20049 30035 40120 50002 72022 886// 333 20003 3/102 55300 20059 30059 69907 88706=
10496,2012,01,01,10,00,AAXX 01101 10496 41459 82203 10072 20062 30034 40119 58001 72022 885// 333 55300 20111 30111 83710 88628=
10496,2012,01,01,11,00,AAXX 01111 10496 42570 82203 10080 20066 30030 40115 58007 885// 333 55300 20140 30139 88627=
10496,2012,01,01,12,00,AAXX 01121 10496 01480 82304 10093 20072 30027 40111 58008 69901 76152 885// 333 31/// 55300 20140 30140 69907 85710 88616=
10496,2012,01,01,13,00,AAXX 01131 10496 41366 82303 10091 20081 30025 40109 56009 72166 885// 333 55300 20142 30142 82709 88629=
10496,2012,01,01,14,00,AAXX 01141 10496 41230 82404 10093 20086 30025 40109 56005 75162 887// 333 55300 20064 30064 88706=
10496,2012,01,01,15,00,AAXX 01151 10496 21367 82304 10096 20089 30025 40109 56002 72065 885// 333 55300 20024 30024 60017 85708 88623=
10496,2012,01,01,16,00,AAXX 01161 10496 41480 82304 10100 20091 30025 40109 54000 72022 885// 333 55300 20000 30000 88619=
10496,2012,01,01,17,00,AAXX 01171 10496 41581 82403 10101 20090 30031 40115 53006 72122 885// 333 55300 20000 30000 88625=
10496,2012,01,01,18,00,AAXX 01181 10496 01484 82204 10106 20092 30034 40118 53009 60012 72165 885// 333 10106 20045 31004 55300 20000 30000 69907 88617=
10496,2012,01,01,19,00,AAXX 01191 10496 42484 82102 10103 20091 30030 40114 50005 885// 333 55300 20000 30000 88615=
10496,2012,01,01,20,00,AAXX 01201 10496 42586 82203 10109 20092 30032 40116 51001 885// 333 55300 20000 30000 88633=
10496,2012,01,01,21,00,AAXX 01211 10496 35688 82103 10105 20088 30021 40105 58013 333 55300 20000 30000 88/36 88/61 88/80=
10496,2012,01,01,22,00,AAXX 01221 10496 45388 82103 10112 20091 30018 40102 58012 333 55300 20000 30000 81/09 88/28 88/58=
10496,2012,01,01,23,00,AAXX 01231 10496 47588 81903 10105 20087 30011 40095 56021 72365 333 55300 20000 30000 83/29 88/59 88/61=
10499,2012,01,01,00,00,AAXX 01001 10499 12668 82008 10022 21003 39841 40136 58003 60001 885// 333 31/// 55/// 20338 30190 55300 20000 30000 88635=
10499,2012,01,01,01,00,AAXX 01011 10499 42563 82008 10020 20001 39838 40134 58006 885// 333 55300 20000 30000 88623 91113=
10499,2012,01,01,02,00,AAXX 01021 10499 42566 81908 10020 20002 39837 40133 56006 885// 333 55300 20000 30000 88620 91113=
10499,2012,01,01,03,00,AAXX 01031 10499 21335 82009 10019 20006 39838 40134 55003 75852 877// 333 55300 20000 30000 69907 87708 91113=
10499,2012,01,01,04,00,AAXX 01041 10499 41462 82008 10021 20006 39837 40132 57001 72162 876// 333 55300 20000 30000 87714=
10499,2012,01,01,05,00,AAXX 01051 10499 41458 82006 10025 20010 39838 40133 52001 75122 877// 333 55300 20000 30000 87712=
10499,2012,01,01,06,00,AAXX 01061 10499 01362 82108 10024 20011 39837 40132 57001 69902 72065 876// 333 10026 20002 31102 55034 55300 20000 30000 69907 79999 87708 91113=
10499,2012,01,01,07,00,AAXX 01071 10499 42362 82005 10027 20012 39841 40136 53004 885// 333 55300 20000 30000 84709 88615=
10499,2012,01,01,08,00,AAXX 01081 10499 42462 81906 10030 20016 39844 40139 53006 875// 333 55300 20042 30041 83711 87616=
10499,2012,01,01,09,00,AAXX 01091 10499 32462 82008 10035 20017 39843 40137 50006 885// 333 20002 3/102 55300 20179 30177 88616=
10499,2012,01,01,10,00,AAXX 01101 10499 41350 82107 10035 20022 39843 40137 51002 75122 877// 333 55300 20181 30178 87708=
10499,2012,01,01,11,00,AAXX 01111 10499 41563 82108 10045 20024 39842 40135 57002 72022 875// 333 55300 20290 30288 87620=
10499,2012,01,01,12,00,AAXX 01121 10499 01460 82207 10045 20026 39837 40130 58006 69901 70352 875// 333 31/// 55300 20231 30230 69907 82710 87626=
10499,2012,01,01,13,00,AAXX 01131 10499 41360 82107 10046 20032 39838 40131 55005 75152 875// 333 55300 20151 30150 83708 87620=
10499,2012,01,01,14,00,AAXX 01141 10499 41460 82108 10047 20033 39839 40131 55003 75165 875// 333 55300 20102 30101 87615=
10499,2012,01,01,15,00,AAXX 01151 10499 21360 82207 10051 20039 39837 40129 50000 72165 875// 333 55300 20038 30037 69977 84709 87616=
10499,2012,01,01,16,00,AAXX 01161 10499 41356 82207 10054 20044 39838 40130 54000 75152 875// 333 55300 20001 30001 82709 87615=
10499,2012,01,01,17,00,AAXX 01171 10499 41475 82207 10057 20045 39839 40130 55000 72165 885// 333 55300 20000 30000 88613=
10499,2012,01,01,18,00,AAXX 01181 10499 01458 82205 10057 20045 39847 40139 53010 69972 75865 885// 333 10060 20024 31002 55300 20000 30000 69907 83711 88626=
10499,2012,01,01,19,00,AAXX 01191 10499 41564 82207 10066 20054 39844 40134 50006 72162 875// 333 55300 20000 30000 87625=
10499,2012,01,01,20,00,AAXX 01201 10499 42567 82207 10070 20054 39842 40132 50003 885// 333 55300 20000 30000 88627=
10499,2012,01,01,21,00,AAXX 01211 10499 21566 82104 10071 20056 39838 40128 58009 70162 875// 333 55300 20000 30000 69917 87631=
10499,2012,01,01,22,00,AAXX 01221 10499 42664 82007 10067 20055 39834 40124 58010 875// 333 55300 20000 30000 87634=
10499,2012,01,01,23,00,AAXX 01231 10499 42964 81807 10074 20062 39828 40117 58014 84037 333 55300 20000 30000 84359 88280=
10500,2012,01,01,00,00,AAXX 01001 10500 NIL=
10500,2012,01,01,01,00,AAXX 01011 10500 NIL=
10500,2012,01,01,02,00,AAXX 01021 10500 NIL=
10500,2012,01,01,04,00,AAXX 01041 10500 NIL=
10500,2012,01,01,05,00,AAXX 01051 10500 NIL=
10500,2012,01,01,06,00,AAXX 01061 10500 NIL=
10500,2012,01,01,07,00,AAXX 01071 10500 NIL=
10500,2012,01,01,08,00,AAXX 01081 10500 NIL=
10500,2012,01,01,10,00,AAXX 01101 10500 NIL=
10500,2012,01,01,11,00,AAXX 01111 10500 NIL=
10500,2012,01,01,12,00,AAXX 01121 10500 NIL=
10500,2012,01,01,13,00,AAXX 01131 10500 NIL=
10500,2012,01,01,14,00,AAXX 01141 10500 NIL=
10500,2012,01,01,16,00,AAXX 01161 10500 NIL=
10500,2012,01,01,17,00,AAXX 01171 10500 NIL=
10500,2012,01,01,18,00,AAXX 01181 10500 NIL=
10500,2012,01,01,19,00,AAXX 01191 10500 NIL=
10500,2012,01,01,20,00,AAXX 01201 10500 NIL=
10500,2012,01,01,22,00,AAXX 01221 10500 NIL=
10500,2012,01,01,23,00,AAXX 01231 10500 NIL=
10502,2012,01,01,00,00,AAXX 01001 10502 41475 82605 10111 20093 39962 40123 53002 70252 875// 333 83612 87635=
10502,2012,01,01,01,00,AAXX 01011 10502 42475 82504 10111 20093 39958 40119 58002 875// 333 84615 87635=
10502,2012,01,01,02,00,AAXX 01021 10502 42475 82703 10112 20089 39958 40119 56003 875// 333 82618 87635=
10502,2012,01,01,03,00,AAXX 01031 10502 42475 82404 10117 20087 39959 40120 55003 875// 333 85616 87630=
10502,2012,01,01,04,00,AAXX 01041 10502 42475 82404 10117 20093 39958 40119 50000 875// 333 83616 87630=
10502,2012,01,01,05,00,AAXX 01051 10502 41465 82404 10112 20093 39954 40115 58004 76322 875// 333 81616 83635 87656=
10502,2012,01,01,06,00,AAXX 01061 10502 11470 82304 10117 20095 39955 40115 55004 69992 76162 875// 333 10118 20101 31009 55000 70059 81615 87630=
10502,2012,01,01,07,00,AAXX 01071 10502 41570 72405 10122 20095 39955 40115 55002 76166 875// 333 82620 87650=
10502,2012,01,01,08,00,AAXX 01081 10502 41470 82406 10125 20095 39962 40122 52008 72122 875// 333 81618 87625=
10502,2012,01,01,09,00,AAXX 01091 10502 41470 82204 10120 20097 39960 40120 50005 78062 878// 333 81810 87650=
10502,2012,01,01,10,00,AAXX 01101 10502 41465 82304 10128 20097 39963 40123 53008 75882 878// 333 81810 85620 87640=
10502,2012,01,01,11,00,AAXX 01111 10502 41475 72404 10133 20100 39961 40121 58001 72152 878// 333 81815 87620=
10502,2012,01,01,12,00,AAXX 01121 10502 41480 72304 10139 20098 39954 40113 58006 70286 878// 333 81815 87625=
10502,2012,01,01,13,00,AAXX 01131 10502 42582 82103 10135 20098 39949 40108 57014 875// 333 87620=
10502,2012,01,01,14,00,AAXX 01141 10502 41470 82003 10125 20108 39946 40106 57015 72162 878// 333 81818 87625=
10502,2012,01,01,15,00,AAXX 01151 10502 41580 81802 10126 20108 39943 40103 57011 75862 875// 333 87625=
10502,2012,01,01,16,00,AAXX 01161 10502 41580 81802 10129 20099 39939 40099 57010 72122 875// 333 87625=
10502,2012,01,01,17,00,AAXX 01171 10502 42880 71904 10129 20094 39930 40089 57016 8553/ 333 85657 87360=
10502,2012,01,01,18,00,AAXX 01181 10502 11580 72005 10134 20092 39923 40082 57020 69952 70362 8583/ 333 10140 20117 31011 81825 84656 87361=
10502,2012,01,01,19,00,AAXX 01191 10502 42580 72105 10134 20091 39917 40076 57022 8581/ 333 81825 84657 87465=
10502,2012,01,01,20,00,AAXX 01201 10502 42580 72105 10137 20091 39911 40070 57019 875// 333 87630=
10502,2012,01,01,21,00,AAXX 01211 10502 42580 72106 10139 20091 39905 40063 57018 875// 333 87628=
10502,2012,01,01,22,00,AAXX 01221 10502 42580 72107 10138 20089 39893 40051 57024 8553/ 333 85628 87359 91013 91113=
10502,2012,01,01,23,00,AAXX 01231 10502 42580 72207 10144 20088 39891 40049 57020 875// 333 87627 91114=
10505,2012,01,01,00,00,AAXX 01001 10505 01262 82408 10101 20094 39843 40121 58001 60011 75155 877// 333 31/// 55/// 20045 30045 55300 20000 30000 69947 87706 91113=
10505,2012,01,01,01,00,AAXX 01011 10505 41468 82308 10101 20091 39840 40118 58004 72022 876// 333 55300 20000 30000 87710=
10505,2012,01,01,02,00,AAXX 01021 10505 42480 82308 10102 20090 39841 40119 55003 876// 333 55300 20000 30000 87710=
10505,2012,01,01,03,00,AAXX 01031 10505 21370 82408 10102 20094 39842 40120 55001 75052 876// 333 55300 20000 30000 69907 87708=
10505,2012,01,01,04,00,AAXX 01041 10505 41258 82308 10100 20095 39841 40119 50001 75952 877// 333 55300 20000 30000 87706=
10505,2012,01,01,05,00,AAXX 01051 10505 41258 82208 10101 20096 39837 40115 58004 75866 877// 333 55300 20000 30000 87706=
10505,2012,01,01,06,00,AAXX 01061 10505 01282 82209 10108 20098 39837 40114 56005 60032 76065 878// 333 10108 20094 32009 55000 55300 20000 30000 60027 70050 82806 87609 91113=
10505,2012,01,01,07,00,AAXX 01071 10505 41368 82309 10109 20100 39840 40117 55001 76166 8572/ 333 55300 20000 30000 85808 88515 91113=
10505,2012,01,01,08,00,AAXX 01081 10505 41240 82208 10107 20102 39843 40120 53006 75866 877// 333 55300 20000 30000 87806=
10505,2012,01,01,09,00,AAXX 01091 10505 21375 82309 10110 20101 39845 40122 51008 75866 877// 333 20094 3/009 55300 20007 30007 69957 87807 91114=
10505,2012,01,01,10,00,AAXX 01101 10505 41366 82308 10110 20103 39847 40124 51007 75866 877// 333 55300 20052 30052 87807 91113=
10505,2012,01,01,11,00,AAXX 01111 10505 41258 82307 10112 20106 39843 40120 50000 75866 8672/ 333 55300 20238 30238 86806 88510=
10505,2012,01,01,12,00,AAXX 01121 10505 01380 82209 10114 20105 39834 40110 58011 60011 75866 888// 333 32/// 55300 20234 30234 69987 86807 88611 91114=
10505,2012,01,01,13,00,AAXX 01131 10505 41382 82308 10116 20105 39830 40106 57017 72166 888// 333 55300 20196 30196 86808 88612=
10505,2012,01,01,14,00,AAXX 01141 10505 41382 82207 10117 20106 39825 40101 56018 72162 877// 333 55300 20154 30154 87808=
10505,2012,01,01,15,00,AAXX 01151 10505 21381 82209 10119 20105 39821 40096 57013 72162 877// 333 55300 20124 30124 69917 87809 91113=
10505,2012,01,01,16,00,AAXX 01161 10505 41481 82108 10117 20102 39814 40089 58016 72122 878// 333 55300 20010 30010 85810 87630 91113=
10505,2012,01,01,17,00,AAXX 01171 10505 42484 72110 10123 20100 39807 40082 58018 8517/ 333 55300 20000 30000 85814 87357 91115=
10505,2012,01,01,18,00,AAXX 01181 10505 01486 82211 10122 20101 39802 40077 56019 60012 72162 878// 333 10126 20105 32010 55300 20000 30000 69907 85811 87656 91118 91213=
10505,2012,01,01,19,00,AAXX 01191 10505 41486 82212 10124 20101 39794 40068 58020 72122 878// 333 55300 20000 30000 86812 91117 91212=
10505,2012,01,01,20,00,AAXX 01201 10505 41486 72112 10125 20101 39784 40058 58023 72122 875// 333 55300 20000 30000 87612 91119 91213=
10505,2012,01,01,21,00,AAXX 01211 10505 21486 72113 10123 20099 39773 40047 58029 72162 878// 333 55300 20000 30000 69907 82812 87618 91122 91214=
10505,2012,01,01,22,00,AAXX 01221 10505 41489 82215 10128 20097 39768 40041 56026 72122 878// 333 55300 20000 30000 83811 87635 91124 91216=
10505,2012,01,01,23,00,AAXX 01231 10505 41489 82214 10124 20099 39768 40041 56016 76022 878// 333 55300 20000 30000 84812 87635 91122 91216=
10506,2012,01,01,00,00,AAXX 01001 10506 01280 82504 10087 20075 39557 40134 53004 69911 75165 886// 333 31/// 55/// 20106 30106 55300 20000 30000 69917 88705=
10506,2012,01,01,01,00,AAXX 01011 10506 41280 82404 10088 20071 39551 40127 58002 72022 876// 333 55300 20000 30000 87706=
10506,2012,01,01,02,00,AAXX 01021 10506 41281 82504 10088 20073 39554 40130 54000 75122 885// 333 55300 20000 30000 85705 87616=
10506,2012,01,01,03,00,AAXX 01031 10506 21276 82405 10089 20077 39553 40129 56004 75122 886// 333 55300 20000 30000 69907 88704=
10506,2012,01,01,04,00,AAXX 01041 10506 41280 82405 10089 20079 39553 40129 51002 75155 886// 333 55300 20000 30000 87704=
10506,2012,01,01,05,00,AAXX 01051 10506 41180 82405 10092 20079 39553 40128 56001 72022 886// 333 55300 20000 30000 88703=
10506,2012,01,01,06,00,AAXX 01061 10506 01178 82405 10091 20081 39553 40128 54000 69932 72152 886// 333 10093 20078 31007 55000 55300 20000 30000 69927 70011 88703 96263=
10506,2012,01,01,07,00,AAXX 01071 10506 41268 82406 10093 20084 39555 40130 53002 72152 885// 333 55300 20000 30000 84704 87609 96259=
10506,2012,01,01,08,00,AAXX 01081 10506 41274 82405 10097 20085 39560 40135 53007 76122 885// 333 55300 20000 30000 86704 88610=
10506,2012,01,01,09,00,AAXX 01091 10506 21267 82405 10095 20085 39562 40137 52009 76065 888// 333 20078 3/007 55300 20016 30016 69927 86804 88609=
10506,2012,01,01,10,00,AAXX 01101 10506 41171 82405 10097 20088 39564 40139 51009 75866 886// 333 55300 20102 30102 87703=
10506,2012,01,01,11,00,AAXX 01111 10506 41261 82406 10103 20089 39560 40133 50000 75866 886// 333 55300 20182 30182 87704=
10506,2012,01,01,12,00,AAXX 01121 10506 01260 82305 10102 20091 39554 40127 58008 69941 75065 886// 333 31/// 55300 20262 30261 69927 88704=
10506,2012,01,01,13,00,AAXX 01131 10506 41273 82306 10104 20089 39546 40118 58018 72022 888// 333 55300 20257 30257 87806=
10506,2012,01,01,14,00,AAXX 01141 10506 41256 82204 10102 20091 39543 40115 56017 76162 877// 333 55300 20203 30203 87704 96010=
10506,2012,01,01,15,00,AAXX 01151 10506 21150 82204 10101 20091 39544 40117 55010 76065 876// 333 55300 20091 30091 69927 87702 96010=
10506,2012,01,01,16,00,AAXX 01161 10506 41161 82204 10101 20090 39540 40112 58006 76066 886// 333 55300 20013 30013 88702=
10506,2012,01,01,17,00,AAXX 01171 10506 41168 82105 10102 20090 39535 40107 58008 76066 886// 333 55300 20000 30000 88702=
10506,2012,01,01,18,00,AAXX 01181 10506 01163 82206 10103 20090 39528 40099 58016 69972 75865 886// 333 10105 20091 31008 55300 20000 30000 69917 88703=
10506,2012,01,01,19,00,AAXX 01191 10506 41281 82307 10105 20088 39524 40095 56016 75065 886// 333 55300 20000 30000 83704 88707 91113=
10506,2012,01,01,20,00,AAXX 01201 10506 41275 82307 10105 20089 39516 40086 58019 75052 885// 333 55300 20000 30000 85705 87611 91113=
10506,2012,01,01,22,00,AAXX 01221 10506 41268 82309 10106 20088 39501 40070 56023 75155 886// 333 55300 20000 30000 85705 88710 91115=
10506,2012,01,01,23,00,AAXX 01231 10506 41268 82208 10106 20088 39493 40062 56023 75155 887// 333 55300 20000 30000 85705 88708 91116=
10513,2012,01,01,00,00,AAXX 01001 10513 01456 81701 10099 20093 30010 40130 52003 69971 72065 885// 333 32/// 55/// 20062 30062 55300 20000 30000 69917 85616 87625 96010=
10513,2012,01,01,01,00,AAXX 01011 10513 41325 81802 10093 20091 30007 40127 58001 75152 875// 333 55300 20000 30000 82707 86617 87635 96010=
10513,2012,01,01,02,00,AAXX 01021 10513 41435 81601 10093 20092 30008 40128 57001 72055 885// 333 55300 20000 30000 82615 87620 96010=
10513,2012,01,01,03,00,AAXX 01031 10513 21556 81702 10095 20090 30007 40127 56003 72052 875// 333 55300 20000 30000 69907 82620 87630 96010=
10513,2012,01,01,04,00,AAXX 01041 10513 41470 82103 10102 20091 30006 40126 58001 72022 875// 333 55300 20000 30000 81710 87620=
10513,2012,01,01,05,00,AAXX 01051 10513 41580 81803 10107 20093 30003 40123 58005 72022 885// 333 55300 20000 30000 88623=
10513,2012,01,01,06,00,AAXX 01061 10513 01575 81703 10101 20097 30000 40120 58007 60022 76165 885// 333 10107 20087 32008 55000 55300 20000 30000 60017 70093 86621 88630=
10513,2012,01,01,07,00,AAXX 01071 10513 41575 81602 10101 20100 30003 40123 55003 76066 875// 333 55300 20000 30000 87623=
10513,2012,01,01,08,00,AAXX 01081 10513 41575 81602 10102 20102 30008 40128 53005 72166 875// 333 55300 20000 30000 87626=
10513,2012,01,01,09,00,AAXX 01091 10513 21580 81703 10107 20106 30005 40125 50005 72162 875// 333 20087 3/008 55300 20022 30022 69997 85630 87635=
10513,2012,01,01,10,00,AAXX 01101 10513 41580 71702 10112 20107 30011 40131 53008 72122 875// 333 55300 20062 30062 85625 87630=
10513,2012,01,01,11,00,AAXX 01111 10513 41280 82002 10116 20111 30007 40126 58001 72122 8657/ 333 55300 20140 30140 81705 84610 86624=
10513,2012,01,01,12,00,AAXX 01121 10513 01582 72203 10130 20117 39999 40118 58006 60021 70162 8653/ 333 32/// 55300 20281 30281 69997 84624 86648=
10513,2012,01,01,13,00,AAXX 01131 10513 41582 72203 10136 20118 39995 40113 57016 72122 8683/ 333 55300 20260 30259 83826 86648=
10513,2012,01,01,14,00,AAXX 01141 10513 41456 72404 10131 20111 39993 40112 56014 78022 872// 333 55300 20153 30153 82810 86826=
10513,2012,01,01,15,00,AAXX 01151 10513 21470 71802 10126 20111 39993 40112 56006 72586 8683/ 333 55300 20043 30043 69907 81810 86635 96015=
10513,2012,01,01,16,00,AAXX 01161 10513 42480 71903 10131 20108 39988 40107 58007 8683/ 333 55300 20007 30007 82810 86630=
10513,2012,01,01,17,00,AAXX 01171 10513 42582 71804 10128 20101 39984 40103 58009 8683/ 333 55300 20000 30000 82830 86645=
10513,2012,01,01,18,00,AAXX 01181 10513 01484 71805 10130 20099 39977 40095 58016 60022 72586 878// 333 10139 20100 32009 55300 20000 30000 69907 81810 86656=
10513,2012,01,01,19,00,AAXX 01191 10513 42584 71805 10132 20098 39971 40089 58017 8257/ 333 55300 20000 30000 82625 87358=
10513,2012,01,01,20,00,AAXX 01201 10513 42584 71805 10132 20096 39964 40082 57020 8257/ 333 55300 20000 30000 82625 86358=
10513,2012,01,01,21,00,AAXX 01211 10513 32584 71906 10136 20096 39957 40075 58020 8457/ 333 55300 20000 30000 84629 87360=
10513,2012,01,01,22,00,AAXX 01221 10513 42584 71805 10135 20095 39948 40066 58023 8357/ 333 55300 20000 30000 83630 86360 91113=
10513,2012,01,01,23,00,AAXX 01231 10513 42584 71907 10137 20095 39943 40061 56021 8557/ 333 55300 20000 30000 84630 86360=
10516,2012,01,01,00,00,AAXX 01001 10516 NIL=
10516,2012,01,01,01,00,AAXX 01011 10516 NIL=
10516,2012,01,01,02,00,AAXX 01021 10516 NIL=
10516,2012,01,01,04,00,AAXX 01041 10516 NIL=
10516,2012,01,01,05,00,AAXX 01051 10516 NIL=
10516,2012,01,01,06,00,AAXX 01061 10516 12565 62003 10116 20096 30016 40133 57001 69932 86500 333 10116 20064 31006 70045 82628 86632=
10516,2012,01,01,07,00,AAXX 01071 10516 42565 71802 10115 20098 30014 40131 57004 875// 333 83625 85630=
10516,2012,01,01,08,00,AAXX 01081 10516 41465 82203 10118 20098 30019 40136 53004 72122 875// 333 85712 87625=
10516,2012,01,01,10,00,AAXX 01101 10516 42475 82004 10124 20102 30023 40140 53009 878// 333 83812 87620=
10516,2012,01,01,11,00,AAXX 01111 10516 42475 82103 10126 20102 30020 40137 53001 878// 333 83812 87620=
10516,2012,01,01,12,00,AAXX 01121 10516 41482 72204 10133 20102 30016 40133 57005 70162 872// 333 87815=
10516,2012,01,01,13,00,AAXX 01131 10516 42484 72003 10135 20104 30008 40124 57015 878// 333 85815 85657=
10516,2012,01,01,14,00,AAXX 01141 10516 42484 72203 10133 20103 30006 40122 57014 878// 333 85817 85627=
10516,2012,01,01,16,00,AAXX 01161 10516 42484 72103 10131 20103 30004 40121 57004 872// 333 87817=
10516,2012,01,01,17,00,AAXX 01171 10516 42484 61702 10129 20102 30001 40118 57005 84830 333 82817 83630 85358=
10516,2012,01,01,18,00,AAXX 01181 10516 12484 61803 10132 20104 39996 40112 57010 60012 84830 333 10139 20113 31010 81817 83630 85359=
10516,2012,01,01,19,00,AAXX 01191 10516 41457 82003 10132 20105 39994 40110 56010 75052 885// 333 85710 88620=
10516,2012,01,01,20,00,AAXX 01201 10516 41475 71903 10138 20099 39984 40100 58017 72022 875// 333 81712 87620=
10516,2012,01,01,22,00,AAXX 01221 10516 NIL=
10516,2012,01,01,23,00,AAXX 01231 10516 NIL=
10519,2012,01,01,00,00,AAXX 01001 10519 07533 82102 10091 20082 39935 40129 52004 69951 72065 333 55300 69907 86/22 87/28 88/36=
10519,2012,01,01,01,00,AAXX 01011 10519 47422 72103 10095 20085 39931 40124 58001 75165 333 55300 82/10 87/25 87/37=
10519,2012,01,01,02,00,AAXX 01021 10519 47546 82103 10095 20083 39933 40126 55001 72365 333 55300 83/21 84/29 88/35=
10519,2012,01,01,03,00,AAXX 01031 10519 27559 82104 10098 20082 39932 40125 56003 70065 333 55300 69907 81/23 88/36=
10519,2012,01,01,04,00,AAXX 01041 10519 47357 72103 10099 20082 39933 40126 51002 72250 333 55300 84/09 87/14 87/19=
10519,2012,01,01,05,00,AAXX 01051 10519 47580 81904 10106 20086 39929 40121 58004 72250 333 55300 87/21 88/31=
10519,2012,01,01,06,00,AAXX 01061 10519 07356 72004 10101 20090 39928 40121 58004 60012 76265 333 10107 20085 3/008 55000 55300 69987 70085 82/09 83/15 87/32=
10519,2012,01,01,07,00,AAXX 01071 10519 47367 82004 10102 20094 39930 40123 55003 75765 333 55300 82/08 87/30 88/57=
10519,2012,01,01,08,00,AAXX 01081 10519 47483 82104 10104 20096 39933 40125 53004 75165 333 55300 81/12 86/31 88/58=
10519,2012,01,01,09,00,AAXX 01091 10519 27588 82104 10107 20097 39933 40125 51005 72365 333 20085 3/008 55300 60037 87/31 88/57 88/59=
10519,2012,01,01,10,00,AAXX 01101 10519 47588 72103 10110 20099 39938 40130 53008 72365 333 55300 86/32 87/40 87/50=
10519,2012,01,01,11,00,AAXX 01111 10519 45588 82104 10122 20104 39934 40125 50001 333 55300 87/27 87/56 88/65=
10519,2012,01,01,12,00,AAXX 01121 10519 07588 82103 10133 20107 39928 40118 58005 60031 72265 333 55300 69927 85/22 87/31 88/50=
10519,2012,01,01,13,00,AAXX 01131 10519 45588 82104 10136 20103 39923 40113 58015 333 55300 87/20 87/32 88/50=
10519,2012,01,01,14,00,AAXX 01141 10519 47317 72204 10127 20103 39919 40110 56015 75865 333 55300 81/06 87/20 87/33=
10519,2012,01,01,15,00,AAXX 01151 10519 27588 82104 10127 20101 39921 40112 55007 72365 333 55300 69917 85/20 87/50 88/56=
10519,2012,01,01,16,00,AAXX 01161 10519 45688 82104 10126 20101 39916 40107 58007 333 55300 82/39 83/50 88/57=
10519,2012,01,01,17,00,AAXX 01171 10519 45488 82005 10126 20097 39911 40102 58008 333 55300 81/14 87/50 88/56=
10519,2012,01,01,18,00,AAXX 01181 10519 17488 81904 10126 20097 39905 40095 58016 60032 70065 333 10141 20100 3/009 55300 81/19 88/58=
10519,2012,01,01,19,00,AAXX 01191 10519 45588 82007 10132 20097 39899 40089 58017 333 55300 83/23 86/59 88/62 91113=
10519,2012,01,01,20,00,AAXX 01201 10519 45588 82007 10134 20095 39891 40081 58020 333 55300 85/23 88/62 88/66=
10519,2012,01,01,21,00,AAXX 01211 10519 35588 82106 10133 20094 39886 40076 56019 333 55300 87/23 88/58 88/65 91114=
10519,2012,01,01,22,00,AAXX 01221 10519 45588 81908 10134 20094 39874 40063 58025 333 55300 84/24 88/62 88/66 91114=
10519,2012,01,01,23,00,AAXX 01231 10519 45588 82007 10136 20093 39873 40062 56018 333 55300 87/24 88/36 88/56 91114=
10520,2012,01,01,00,00,AAXX 01001 10520 17501 82101 10064 20062 30041 40134 53002 69911 73065 333 55300 83/28 88/41 88/65=
10520,2012,01,01,01,00,AAXX 01011 10520 47501 82002 10065 20065 30039 40132 50001 73065 333 55300 82/25 83/31 88/45=
10520,2012,01,01,02,00,AAXX 01021 10520 47602 81701 10069 20067 30042 40135 53001 73033 333 55300 88/45=
10520,2012,01,01,04,00,AAXX 01041 10520 47505 80701 10076 20076 30041 40134 51002 75153 333 55300 87/26 88/30=
10520,2012,01,01,05,00,AAXX 01051 10520 47505 80601 10079 20077 30039 40132 58003 73053 333 55300 85/27 88/32=
10520,2012,01,01,06,00,AAXX 01061 10520 07519 80502 10079 20077 30038 40131 58003 69912 72065 333 10083 20057 3/005 55000 55300 69907 70063 87/25 87/32 88/47=
10520,2012,01,01,07,00,AAXX 01071 10520 47425 80601 10086 20086 30039 40132 55002 75765 333 55300 86/19 87/26 88/50=
10520,2012,01,01,08,00,AAXX 01081 10520 47550 80101 10091 20089 30041 40133 53002 75165 333 55300 87/22 88/26 88/50=
10520,2012,01,01,10,00,AAXX 01101 10520 47788 82305 10128 20104 30043 40134 51004 72365 333 55300 81/56 87/60 88/62=
10520,2012,01,01,11,00,AAXX 01111 10520 45588 82101 10129 20105 30041 40132 50000 333 55300 83/24 87/60 88/62=
10520,2012,01,01,12,00,AAXX 01121 10520 07588 52305 10139 20106 30035 40126 58008 60021 70065 333 55305 69927 81/23 83/56 85/57=
10520,2012,01,01,13,00,AAXX 01131 10520 45488 72305 10137 20107 30028 40119 58015 333 55310 83/17 85/27 87/59=
10520,2012,01,01,14,00,AAXX 01141 10520 45588 72204 10132 20108 30027 40118 56014 333 55301 87/27=
10520,2012,01,01,16,00,AAXX 01161 10520 47988 82204 10128 20104 30024 40115 58004 72250 333 55300 87/58 88/63=
10520,2012,01,01,17,00,AAXX 01171 10520 45988 82205 10125 20106 30022 40113 58005 333 55300 82/60 83/61 88/65=
10520,2012,01,01,18,00,AAXX 01181 10520 07588 82204 10126 20107 30018 40109 58009 60022 70050 333 10142 20078 3/007 55300 69907 81/24 87/64 88/66=
10520,2012,01,01,19,00,AAXX 01191 10520 47588 82204 10131 20108 30015 40106 58009 72250 333 55300 87/25 88/31=
10520,2012,01,01,20,00,AAXX 01201 10520 47588 82105 10135 20104 30006 40097 58016 72250 333 55300 87/26 88/31=
10520,2012,01,01,22,00,AAXX 01221 10520 47588 72105 10136 20105 39996 40086 56019 72250 333 55300 85/23 87/28=
10520,2012,01,01,23,00,AAXX 01231 10520 47588 72105 10136 20105 39988 40078 58018 72250 333 55300 84/27 87/32=
10526,2012,01,01,00,00,AAXX 01001 10526 06000 72303 10059 20055 39473 40132 53003 60021 333 55300 60017 87/00 87/04=
10526,2012,01,01,01,00,AAXX 01011 10526 46000 82203 10060 20056 39473 40132 51003 333 55300 88/00=
10526,2012,01,01,02,00,AAXX 01021 10526 46000 72204 10063 20059 39473 40131 51001 333 55300 87/00=
10526,2012,01,01,03,00,AAXX 01031 10526 26000 82204 10068 20068 39475 40132 53002 333 55300 69937 88/00=
10526,2012,01,01,04,00,AAXX 01041 10526 46018 82205 10070 20066 39475 40132 52002 333 55300 87/00 87/05 88/10=
10526,2012,01,01,05,00,AAXX 01051 10526 46000 82205 10069 20065 39472 40129 58001 333 55300 88/00=
10526,2012,01,01,06,00,AAXX 01061 10526 06000 82204 10071 20067 39473 40129 55002 60032 333 10075 20035 3/000 55000 55300 69957 70086 88/00=
10526,2012,01,01,07,00,AAXX 01071 10526 46001 82104 10074 20070 39475 40131 55000 333 55300 88/00=
10526,2012,01,01,08,00,AAXX 01081 10526 46006 72205 10079 20075 39478 40133 53006 333 55300 87/00=
10526,2012,01,01,09,00,AAXX 01091 10526 26001 82205 10082 20078 39480 40134 52007 333 20035 3/000 55300 60027 88/00=
10526,2012,01,01,10,00,AAXX 01101 10526 46003 82106 10086 20086 39482 40135 51007 333 55300 88/00=
10526,2012,01,01,11,00,AAXX 01111 10526 46041 72207 10088 20088 39479 40131 50001 333 55300 87/01=
10526,2012,01,01,12,00,AAXX 01121 10526 06008 82206 10089 20085 39475 40127 58005 60031 333 55300 60017 88/00=
10526,2012,01,01,13,00,AAXX 01131 10526 46062 72207 10090 20086 39469 40120 58013 333 55300 87/01=
10526,2012,01,01,14,00,AAXX 01141 10526 46275 82106 10091 20087 39467 40118 56012 333 55300 88/03=
10526,2012,01,01,15,00,AAXX 01151 10526 26168 72106 10091 20087 39468 40119 55007 333 55300 69917 87/02=
10526,2012,01,01,16,00,AAXX 01161 10526 46178 82106 10092 20088 39466 40116 57003 333 55300 88/03=
10526,2012,01,01,17,00,AAXX 01171 10526 46285 82007 10094 20089 39464 40114 58003 333 55300 88/05=
10526,2012,01,01,18,00,AAXX 01181 10526 06288 82007 10095 20087 39458 40107 58010 60032 333 10095 20071 3/005 55300 69927 88/05=
10526,2012,01,01,19,00,AAXX 01191 10526 46288 82009 10097 20087 39453 40101 58013 333 55300 88/06 91113=
10526,2012,01,01,20,00,AAXX 01201 10526 46284 82008 10096 20087 39449 40097 56015 333 55300 87/06 88/10 91115=
10526,2012,01,01,21,00,AAXX 01211 10526 26276 81908 10096 20086 39442 40090 58016 333 55300 69907 87/06 88/10 91115=
10526,2012,01,01,22,00,AAXX 01221 10526 46388 82109 10097 20084 39435 40082 58018 333 55300 87/08 88/14 91116=
10526,2012,01,01,23,00,AAXX 01231 10526 46388 82010 10097 20083 39426 40073 58023 333 55300 87/09 88/15 91116=
10532,2012,01,01,00,00,AAXX 01001 10532 07/01 /1901 10045 20045 39881 40131 54000 69911 73053 333 55/// 20083 30083 55300 20000 30000 69907=
10532,2012,01,01,01,00,AAXX 01011 10532 47001 71101 10050 20049 39882 40132 53001 73033 333 55300 20000 30000 81/00 85/18 87/25=
10532,2012,01,01,02,00,AAXX 01021 10532 47003 71802 10057 20057 39881 40130 50000 73053 333 55300 20000 30000 83/01 85/09 87/40=
10532,2012,01,01,03,00,AAXX 01031 10532 27307 72501 10064 20064 39881 40130 50000 73053 333 55300 20000 30000 69907 85/07 87/38 87/50=
10532,2012,01,01,04,00,AAXX 01041 10532 47311 82202 10068 20068 39880 40128 57002 72030 333 55300 20000 30000 84/07 88/36 88/50=
10532,2012,01,01,05,00,AAXX 01051 10532 47524 82002 10072 20072 39879 40127 58002 72030 333 55300 20000 30000 87/25 87/47 88/61=
10532,2012,01,01,06,00,AAXX 01061 10532 17321 82301 10080 20078 39881 40128 55000 69912 71053 333 10080 20036 3/003 55000 55300 20000 30000 70035 88/08 88/24=
10532,2012,01,01,07,00,AAXX 01071 10532 47457 72102 10088 20086 39879 40125 58001 71000 333 55300 20000 30000 86/12 87/18 87/27=
10532,2012,01,01,08,00,AAXX 01081 10532 47470 82205 10096 20091 39886 40132 53007 72365 333 55300 20000 30000 87/10 88/43 88/57=
10532,2012,01,01,09,00,AAXX 01091 10532 27467 72205 10100 20095 39886 40131 53005 75165 333 20036 3/003 55300 20036 30036 69917 87/11 87/27 87/45=
10532,2012,01,01,10,00,AAXX 01101 10532 47484 62204 10105 20098 39890 40135 51011 72365 333 55300 20105 30105 86/13 86/29=
10532,2012,01,01,11,00,AAXX 01111 10532 47360 72205 10109 20101 39887 40131 50001 72365 333 55300 20096 30096 87/09 87/25=
10532,2012,01,01,12,00,AAXX 01121 10532 07485 72203 10109 20102 39884 40128 58002 69961 70065 333 55300 20096 30096 69957 87/10 87/26=
10532,2012,01,01,13,00,AAXX 01131 10532 45488 72004 10116 20101 39877 40121 58013 333 55300 20104 30103 87/15 87/30=
10532,2012,01,01,14,00,AAXX 01141 10532 45488 72004 10116 20100 39875 40119 56012 333 55300 20079 30079 86/14 87/18 87/31=
10532,2012,01,01,15,00,AAXX 01151 10532 27334 71803 10117 20099 39875 40118 56009 75865 333 55300 20026 30026 69907 82/09 87/18 87/32=
10532,2012,01,01,16,00,AAXX 01161 10532 47374 71903 10110 20101 39876 40120 55001 75165 333 55300 20000 30000 83/07 87/18 87/30=
10532,2012,01,01,17,00,AAXX 01171 10532 47485 71603 10114 20100 39871 40115 58004 72365 333 55300 20000 30000 83/12 87/16 87/32=
10532,2012,01,01,18,00,AAXX 01181 10532 07483 71703 10110 20098 39867 40111 58008 60012 72365 333 10121 20078 3/006 55300 20000 30000 69947 83/13 87/19 87/34=
10532,2012,01,01,19,00,AAXX 01191 10532 45488 71906 10119 20100 39862 40105 57014 333 55300 20000 30000 87/15 87/32=
10532,2012,01,01,20,00,AAXX 01201 10532 45484 71806 10113 20100 39860 40103 56011 333 55300 20000 30000 87/14 87/30=
10532,2012,01,01,21,00,AAXX 01211 10532 35486 81905 10114 20100 39852 40095 58015 333 55300 20000 30000 83/12 88/20 88/33=
10532,2012,01,01,22,00,AAXX 01221 10532 45488 71906 10122 20100 39847 40089 58015 333 55300 20000 30000 82/12 87/17 87/31=
10532,2012,01,01,23,00,AAXX 01231 10532 45488 81908 10123 20099 39838 40080 58022 333 55300 20000 30000 86/19 88/35 88/42=
10534,2012,01,01,00,00,AAXX 01001 10534 07/90 /2304 10042 20041 39259 40136 53004 60011 75165 333 4/011 55300 69977=
10534,2012,01,01,01,00,AAXX 01011 10534 47/90 /2305 10045 20045 39257 40133 50003 75165 333 4/010 55300=
10534,2012,01,01,02,00,AAXX 01021 10534 47/90 /2406 10053 20052 39258 40132 51002 73065 333 4/008 55300=
10534,2012,01,01,04,00,AAXX 01041 10534 47/90 /2207 10055 20055 39260 40133 52003 73033 333 4/008 55300=
10534,2012,01,01,05,00,AAXX 01051 10534 47/90 /2207 10057 20056 39259 40131 50001 73033 333 4/007 55300=
10534,2012,01,01,06,00,AAXX 01061 10534 07/90 /2107 10060 20059 39261 40132 53002 60022 75265 333 10061 21001 3/100 4/006 55000 55300 69907 70058=
10534,2012,01,01,07,00,AAXX 01071 10534 47/90 /2208 10061 20060 39263 40134 53003 74165 333 4/005 55300 91114=
10534,2012,01,01,08,00,AAXX 01081 10534 47/90 /2207 10063 20062 39269 40140 53010 73064 333 4/004 55300=
10534,2012,01,01,10,00,AAXX 01101 10534 47/00 /2208 10068 20067 39272 40142 51009 74264 333 4/003 55300=
10534,2012,01,01,11,00,AAXX 01111 10534 47/00 /2208 10071 20070 39269 40137 50000 75864 333 4/001 55300 91113=
10534,2012,01,01,12,00,AAXX 01121 10534 07/90 /2208 10073 20072 39265 40132 58004 60051 75265 333 55300 60037 91114=
10534,2012,01,01,13,00,AAXX 01131 10534 47/00 /2208 10075 20075 39262 40128 57010 75865 333 55300 91114=
10534,2012,01,01,14,00,AAXX 01141 10534 47/00 /2207 10076 20075 39260 40126 56009 73065 333 55300=
10534,2012,01,01,16,00,AAXX 01161 10534 47/00 /2008 10077 20076 39264 40130 53002 75765 333 55300 91113=
10534,2012,01,01,17,00,AAXX 01171 10534 47/90 /2109 10078 20077 39262 40127 50002 73065 333 55300 91114=
10534,2012,01,01,18,00,AAXX 01181 10534 07/00 /2010 10079 20078 39256 40120 58007 60062 73065 333 10079 20059 3/100 55300 69957 91115=
10534,2012,01,01,19,00,AAXX 01191 10534 47/90 /2108 10079 20078 39254 40118 57010 75265 333 55300 91113=
10534,2012,01,01,20,00,AAXX 01201 10534 47/90 /2009 10080 20079 39252 40116 56010 73065 333 55300 91115=
10534,2012,01,01,22,00,AAXX 01221 10534 47/00 /2011 10080 20079 39237 40099 58017 75165 333 55300 91120 91212=
10534,2012,01,01,23,00,AAXX 01231 10534 47/00 /2013 10079 20078 39231 40093 56021 73053 333 55300 91121 91213=
10537,2012,01,01,00,00,AAXX 01001 10537 07/01 /1905 10053 20052 39706 40130 52001 69901 73065 333 55300 69907=
10537,2012,01,01,01,00,AAXX 01011 10537 47/00 /1905 10054 20053 39707 40131 52002 73033 333 55300=
10537,2012,01,01,02,00,AAXX 01021 10537 47/00 /1804 10060 20059 39707 40130 52001 73033 333 55300=
10537,2012,01,01,04,00,AAXX 01041 10537 47/01 /2005 10070 20069 39706 40128 58001 73033 333 55300=
10537,2012,01,01,05,00,AAXX 01051 10537 47/04 /2005 10070 20069 39705 40127 58002 73033 333 55300=
10537,2012,01,01,06,00,AAXX 01061 10537 17214 81805 10076 20075 39707 40128 55000 69902 72030 333 10076 20027 3/003 55000 55300 70015 87/03 88/09=
10537,2012,01,01,07,00,AAXX 01071 10537 47127 71905 10082 20081 39708 40128 53002 72250 333 55300 87/01 87/05=
10537,2012,01,01,08,00,AAXX 01081 10537 47133 81905 10084 20083 39715 40135 53010 75165 333 55300 85/02 87/05 88/10=
10537,2012,01,01,10,00,AAXX 01101 10537 47259 71906 10090 20089 39715 40134 51007 72365 333 55300 84/03 87/10=
10537,2012,01,01,11,00,AAXX 01111 10537 47261 72005 10093 20091 39715 40133 55000 75165 333 55300 84/04 87/10=
10537,2012,01,01,12,00,AAXX 01121 10537 07/60 /2005 10096 20096 39711 40129 58003 69991 72365 333 55300 69967=
10537,2012,01,01,13,00,AAXX 01131 10537 47/61 /2005 10100 20097 39706 40123 58009 75165 333 55300=
10537,2012,01,01,14,00,AAXX 01141 10537 47/59 /1804 10097 20097 39704 40121 56011 72250 333 55300=
10537,2012,01,01,16,00,AAXX 01161 10537 47159 81806 10099 20096 39705 40122 56001 75165 333 55300 86/01 86/05 88/13=
10537,2012,01,01,17,00,AAXX 01171 10537 47156 71807 10099 20096 39702 40119 58002 72365 333 55300 85/01 86/05 87/14=
10537,2012,01,01,18,00,AAXX 01181 10537 07159 81808 10100 20097 39697 40113 58009 60012 72365 333 10101 20076 3/008 55300 69957 87/02 87/06 88/15=
10537,2012,01,01,19,00,AAXX 01191 10537 47258 81708 10100 20095 39694 40110 57011 75150 333 55300 86/04 88/12=
10537,2012,01,01,20,00,AAXX 01201 10537 47162 71808 10101 20097 39688 40104 58014 72250 333 55300 87/02 87/16 91114=
10537,2012,01,01,22,00,AAXX 01221 10537 45274 81809 10103 20096 39673 40088 56021 333 55300 87/04 88/20 88/59 91114=
10537,2012,01,01,23,00,AAXX 01231 10537 47280 81909 10102 20094 39668 40083 56020 72250 333 55300 87/05 88/12 88/18 91114=
10540,2012,01,01,00,00,AAXX 01001 10540 07234 82604 10045 20038 39739 40120 53003 69901 72365 333 55/// 20137 30137 55300 20000 30000 69907 88/03=
10540,2012,01,01,01,00,AAXX 01011 10540 47248 82604 10047 20041 39736 40116 58001 75150 333 55300 20000 30000 88/03=
10540,2012,01,01,02,00,AAXX 01021 10540 47233 72703 10050 20044 39738 40118 52001 75155 333 55300 20000 30000 87/03=
10540,2012,01,01,04,00,AAXX 01041 10540 45261 82404 10064 20055 39737 40115 51001 333 55300 20000 30000 88/06 88/16 88/32=
10540,2012,01,01,05,00,AAXX 01051 10540 47361 82404 10069 20061 39736 40113 57002 72365 333 55300 20000 30000 84/06 84/20 88/31=
10540,2012,01,01,06,00,AAXX 01061 10540 07460 82504 10071 20061 39734 40111 58003 69932 70065 333 10074 20024 3/002 55000 55300 20000 30000 69907 70009 88/10 88/21 88/32=
10540,2012,01,01,07,00,AAXX 01071 10540 47460 82505 10076 20064 39739 40115 53002 72250 333 55300 20000 30000 86/12 88/22 88/33=
10540,2012,01,01,08,00,AAXX 01081 10540 47360 82405 10085 20074 39742 40117 53006 76165 333 55300 20000 30000 87/07 88/10=
10540,2012,01,01,10,00,AAXX 01101 10540 47270 82404 10093 20084 39744 40118 51005 75150 333 55300 20059 30059 88/05=
10540,2012,01,01,11,00,AAXX 01111 10540 47380 72407 10101 20087 39741 40114 58001 75165 333 55300 20129 30129 87/09=
10540,2012,01,01,12,00,AAXX 01121 10540 07383 82406 10104 20090 39740 40112 58003 69921 75165 333 55300 20101 30101 69917 88/07=
10540,2012,01,01,13,00,AAXX 01131 10540 47384 82406 10105 20093 39740 40112 56004 72365 333 4/001 55300 20092 30092 88/08=
10540,2012,01,01,14,00,AAXX 01141 10540 47372 82405 10105 20093 39739 40111 57002 72365 333 55300 20080 30080 88/06=
10540,2012,01,01,16,00,AAXX 01161 10540 45285 82406 10105 20094 39739 40111 55001 333 55300 20002 30002 88/06 88/18 88/22=
10540,2012,01,01,17,00,AAXX 01171 10540 47388 82206 10107 20093 39738 40110 57001 72250 333 55300 20000 30000 85/07 88/12=
10540,2012,01,01,18,00,AAXX 01181 10540 07388 82207 10111 20092 39731 40102 58007 69952 72365 333 10111 20069 3/006 55300 20000 30000 69907 88/09 88/61=
10540,2012,01,01,19,00,AAXX 01191 10540 45388 82308 10113 20092 39730 40100 57009 333 55300 20000 30000 88/09 91113=
10540,2012,01,01,20,00,AAXX 01201 10540 47388 82308 10115 20093 39725 40095 56013 72250 333 55300 20000 30000 88/09 91113=
10540,2012,01,01,22,00,AAXX 01221 10540 47388 72308 10117 20093 39707 40076 58023 72365 333 55300 20000 30000 83/08 87/14 91114=
10540,2012,01,01,23,00,AAXX 01231 10540 47488 82410 10121 20090 39700 40068 56025 72250 333 55300 20000 30000 88/15 91116 91211=
10542,2012,01,01,00,00,AAXX 01001 10542 07221 81802 10053 20052 39802 40131 53001 69941 75765 333 55/// 20094 30094 55300 20000 30000 69917 88/05=
10542,2012,01,01,01,00,AAXX 01011 10542 47229 81604 10061 20060 39798 40126 58001 75165 333 55300 20000 30000 88/06=
10542,2012,01,01,02,00,AAXX 01021 10542 47231 81902 10068 20065 39800 40127 55001 72250 333 55300 20000 30000 88/06=
10542,2012,01,01,03,00,AAXX 01031 10542 27339 81802 10073 20070 39800 40126 56002 71065 333 55300 20000 30000 60017 87/08 88/13=
10542,2012,01,01,04,00,AAXX 01041 10542 47456 81704 10080 20075 39800 40125 51002 72250 333 55300 20000 30000 87/11 88/17=
10542,2012,01,01,05,00,AAXX 01051 10542 47450 81603 10083 20077 39800 40125 54000 71000 333 55300 20000 30000 88/11=
10542,2012,01,01,06,00,AAXX 01061 10542 07450 81804 10085 20077 39800 40125 54000 60012 71065 333 10086 20029 3/003 55000 55300 20000 30000 69907 70028 81/14 87/27 88/33=
10542,2012,01,01,07,00,AAXX 01071 10542 47424 81706 10089 20080 39800 40124 54000 75150 333 55300 20000 30000 86/11 88/18=
10542,2012,01,01,08,00,AAXX 01081 10542 47457 81804 10093 20085 39805 40129 53005 76265 333 55300 20000 30000 81/10 87/16 88/24=
10542,2012,01,01,09,00,AAXX 01091 10542 27350 81805 10096 20091 39804 40127 50004 76165 333 20029 3/003 55300 20014 30014 69937 86/08 88/12=
10542,2012,01,01,10,00,AAXX 01101 10542 47462 81805 10100 20093 39806 40129 51006 76165 333 55300 20043 30043 88/10=
10542,2012,01,01,11,00,AAXX 01111 10542 47475 81905 10107 20097 39803 40125 58002 75765 333 55300 20107 30107 88/12=
10542,2012,01,01,12,00,AAXX 01121 10542 07477 81905 10109 20098 39802 40124 58002 69971 72365 333 55300 20215 30215 69947 87/10 88/16=
10542,2012,01,01,13,00,AAXX 01131 10542 47460 81904 10110 20101 39799 40121 57007 75165 333 55300 20221 30221 87/11 88/18=
10542,2012,01,01,14,00,AAXX 01141 10542 47459 81706 10108 20101 39798 40120 57005 72250 333 55300 20111 30111 87/11 87/16 88/25=
10542,2012,01,01,15,00,AAXX 01151 10542 27332 81705 10105 20105 39799 40121 55003 75265 333 55300 20033 30033 69927 86/08 87/13 88/21=
10542,2012,01,01,16,00,AAXX 01161 10542 47481 81804 10110 20099 39799 40121 55000 72250 333 55300 20001 30001 86/11 88/16=
10542,2012,01,01,17,00,AAXX 01171 10542 47465 81906 10109 20098 39796 40118 58002 75165 333 55300 20000 30000 83/11 88/17=
10542,2012,01,01,18,00,AAXX 01181 10542 07480 81807 10109 20099 39789 40110 58010 69992 72365 333 10112 20086 3/008 55300 20000 30000 69907 86/10 87/15 88/21=
10542,2012,01,01,19,00,AAXX 01191 10542 47470 81806 10111 20100 39789 40110 56010 72250 333 55300 20000 30000 87/11 88/16=
10542,2012,01,01,20,00,AAXX 01201 10542 47340 81806 10108 20102 39784 40105 56012 75165 333 55300 20000 30000 81/06 87/16 88/21=
10542,2012,01,01,21,00,AAXX 01211 10542 27480 81907 10114 20101 39776 40096 58013 72265 333 55300 20000 30000 69917 87/12 88/18=
10542,2012,01,01,22,00,AAXX 01221 10542 45481 81807 10116 20101 39767 40087 58022 333 55300 20000 30000 84/14 87/20 88/27 91114=
10542,2012,01,01,23,00,AAXX 01231 10542 45482 81908 10119 20098 39762 40081 56022 333 55300 20000 30000 87/19 88/24 91115=
10544,2012,01,01,00,00,AAXX 01001 10544 01/01 92507 10030 20030 39052 48433 52005 60021 75165 333 44020 55300 60017 96047=
10544,2012,01,01,01,00,AAXX 01011 10544 41/01 92507 10034 20034 39052 48433 51003 75364 333 55300 96045 96259=
10544,2012,01,01,02,00,AAXX 01021 10544 41/01 92408 10038 20038 39055 48437 53005 75154 333 55300 96045 96253=
10544,2012,01,01,03,00,AAXX 01031 10544 21/01 92508 10039 20039 39056 48438 53004 75365 333 55300 60017 96045 96459=
10544,2012,01,01,04,00,AAXX 01041 10544 41/01 92409 10041 20041 39055 48437 50003 75065 333 55300 91114 96045 96259=
10544,2012,01,01,05,00,AAXX 01051 10544 41/01 92411 10041 20041 39056 48438 52001 74554 333 55300 91115 91211 96250=
10544,2012,01,01,06,00,AAXX 01061 10544 01/01 92311 10043 20043 39056 48439 55000 60032 74565 333 10044 20001 3/000 44016 55000 55300 69917 70060 91115 91211 96459 96453 96450=
10544,2012,01,01,07,00,AAXX 01071 10544 41/01 92310 10046 20046 39059 48442 53004 75864 333 55300 91114 91211 96045=
10544,2012,01,01,08,00,AAXX 01081 10544 41/01 92312 10053 20053 39062 48446 53006 75864 333 55300 91117 91213 96045=
10544,2012,01,01,09,00,AAXX 01091 10544 21/01 92312 10055 20055 39065 48449 52009 76364 333 20001 3/000 55300 69977 91117 91213 96045 96258=
10544,2012,01,01,10,00,AAXX 01101 10544 41/01 92413 10057 20057 39065 48449 51006 76164 333 55300 91117 91213 96045 96263=
10544,2012,01,01,11,00,AAXX 01111 10544 41/01 92313 10060 20060 39064 48449 50002 75864 333 55300 91118 91213 96045=
10544,2012,01,01,12,00,AAXX 01121 10544 01/01 92313 10063 20063 39063 48449 58002 60021 76364 333 44012 55300 60017 91118 91213 96045 96258 96463=
10544,2012,01,01,13,00,AAXX 01131 10544 41/01 92311 10064 20064 39060 48446 58005 75864 333 55300 91117 91213 96045 96263=
10544,2012,01,01,14,00,AAXX 01141 10544 41/01 92312 10064 20064 39058 48445 58006 75864 333 55300 91117 91212 96045=
10544,2012,01,01,15,00,AAXX 01151 10544 21/01 92311 10064 20064 39061 48447 55002 75864 333 55300 69977 91117 91213 96045=
10544,2012,01,01,16,00,AAXX 01161 10544 41/01 92211 10064 20064 39061 48447 53001 75864 333 55300 91116 91212 96045=
10544,2012,01,01,17,00,AAXX 01171 10544 41/01 92111 10066 20066 39060 48447 50002 75964 333 55300 91115 91211 96045=
10544,2012,01,01,18,00,AAXX 01181 10544 01/01 92111 10067 20067 39056 48443 58005 60032 75864 333 10068 20042 3/004 42008 55300 69997 91117 91213 96045 96259 96463=
10544,2012,01,01,19,00,AAXX 01191 10544 41/01 92113 10069 20069 39053 48441 58008 75864 333 55300 91119 91213 96045=
10544,2012,01,01,20,00,AAXX 01201 10544 41/01 92114 10070 20070 39049 48438 57011 75964 333 55300 91119 91215 96045=
10544,2012,01,01,21,00,AAXX 01211 10544 21/01 92214 10071 20071 39038 48428 58018 75864 333 55300 60017 91122 91216 96045=
10544,2012,01,01,22,00,AAXX 01221 10544 41/01 92215 10070 20070 39033 48423 58020 75864 333 55300 91122 91217 96045=
10544,2012,01,01,23,00,AAXX 01231 10544 41/01 92216 10070 20070 39027 48418 56022 75864 333 55300 91124 91217 96045=
10548,2012,01,01,00,00,AAXX 01001 10548 07/01 /1602 10008 20008 39597 40150 52002 69951 75265 333 4/001 55/// 20081 30081 55300 20000 30000 69937=
10548,2012,01,01,01,00,AAXX 01011 10548 47/01 /1503 10009 20009 39596 40148 50000 75265 333 4/001 55300 20000 30000=
10548,2012,01,01,02,00,AAXX 01021 10548 47/01 /1503 10011 20011 39599 40151 53003 75265 333 4/001 55300 20000 30000=
10548,2012,01,01,03,00,AAXX 01031 10548 27/00 /1502 10013 20013 39599 40151 53002 73065 333 4/001 55300 20000 30000 69957=
10548,2012,01,01,04,00,AAXX 01041 10548 47/01 /1603 10015 20015 39598 40149 50002 75153 333 55300 20000 30000=
10548,2012,01,01,05,00,AAXX 01051 10548 41/02 91402 10016 20016 39598 40149 57001 74554 333 4/001 55300 20000 30000 96251=
10548,2012,01,01,06,00,AAXX 01061 10548 01/02 91603 10018 20018 39598 40148 56001 60012 74554 333 10018 20003 31000 55000 55300 20000 30000 69907 70034 96451=
10548,2012,01,01,07,00,AAXX 01071 10548 41/02 91702 10031 20031 39602 40150 53004 74544 333 55300 20000 30000=
10548,2012,01,01,08,00,AAXX 01081 10548 41/01 91401 10033 20032 39605 40153 53007 74754 333 55300 20000 30000 96251=
10548,2012,01,01,09,00,AAXX 01091 10548 21/01 91803 10053 20052 39607 40150 51009 76165 333 20003 3/000 55300 20010 30010 69937 96045=
10548,2012,01,01,10,00,AAXX 01101 10548 41/05 91803 10072 20072 39606 40145 50004 74364 333 55300 20118 30118 96261=
10548,2012,01,01,11,00,AAXX 01111 10548 41/05 91903 10079 20079 39604 40142 58001 75154 333 55300 20085 30085 96047=
10548,2012,01,01,12,00,AAXX 01121 10548 01430 82003 10086 20086 39602 40138 58005 69951 75165 887// 333 31/// 55300 20123 30123 69927 88713 96443=
10548,2012,01,01,13,00,AAXX 01131 10548 41460 82103 10096 20096 39600 40134 57006 72165 875// 333 55300 20266 30266 84710 87656=
10548,2012,01,01,14,00,AAXX 01141 10548 41264 62203 10098 20097 39599 40133 56005 72022 86600 333 55300 20237 30236 86706=
10548,2012,01,01,15,00,AAXX 01151 10548 21268 62203 10096 20096 39600 40134 55002 70365 86500 333 55300 20095 30094 69927 83706 85620=
10548,2012,01,01,16,00,AAXX 01161 10548 41262 82205 10096 20090 39600 40134 55000 72022 885// 333 55300 20006 30006 83706 88630=
10548,2012,01,01,17,00,AAXX 01171 10548 41266 82005 10093 20087 39602 40137 53003 72022 885// 333 55300 20000 30000 83705 88633=
10548,2012,01,01,18,00,AAXX 01181 10548 01166 82004 10090 20087 39596 40131 58004 69972 72065 876// 333 10099 20018 31002 55300 20000 30000 69907 87703=
10548,2012,01,01,19,00,AAXX 01191 10548 42162 82006 10092 20090 39593 40127 58007 886// 333 55300 20000 30000 88702=
10548,2012,01,01,20,00,AAXX 01201 10548 41158 81806 10092 20090 39592 40126 56010 75122 887// 333 55300 20000 30000 88702=
10548,2012,01,01,22,00,AAXX 01221 10548 47160 71906 10096 20096 39577 40110 58016 75155 333 55300 20000 30000 87/02=
10548,2012,01,01,23,00,AAXX 01231 10548 47257 72006 10095 20090 39570 40103 58022 75165 333 55300 20000 30000 85/03 87/07 87/10=
10552,2012,01,01,00,00,AAXX 01001 10552 07000 82506 10005 20005 39032 48424 51006 69961 75165 333 4/034 55300 69957 88/00=
10552,2012,01,01,01,00,AAXX 01011 10552 47001 82508 10005 20005 39030 48422 50001 73065 333 4/034 55300 88/00=
10552,2012,01,01,02,00,AAXX 01021 10552 47001 82508 10005 20005 39034 48426 53004 75865 333 4/034 55300 88/00=
10552,2012,01,01,03,00,AAXX 01031 10552 27002 82507 10006 20006 39033 48425 53001 75365 333 4/034 55300 60027 88/00=
10552,2012,01,01,04,00,AAXX 01041 10552 47001 82508 10011 20011 39034 48427 51004 75253 333 4/033 55300 88/00=
10552,2012,01,01,05,00,AAXX 01051 10552 47001 82509 10013 20013 39031 48424 58003 75153 333 4/034 55300 88/00=
10552,2012,01,01,06,00,AAXX 01061 10552 07000 82410 10019 20019 39031 48426 58002 60022 73065 333 10020 21015 3/100 4/033 55000 55300 69937 70048 88/00 91113=
10552,2012,01,01,07,00,AAXX 01071 10552 47000 82409 10026 20026 39038 48433 53004 73053 333 4/033 55300 88/00 91114=
10552,2012,01,01,08,00,AAXX 01081 10552 47000 82409 10031 20031 39042 48438 53011 75765 333 4/033 55300 88/00 91114=
10552,2012,01,01,09,00,AAXX 01091 10552 27000 82410 10038 20038 39042 48439 51011 76265 333 21015 3/100 4/031 55300 69967 88/00 91114=
10552,2012,01,01,10,00,AAXX 01101 10552 47000 82309 10045 20045 39045 48443 51007 75765 333 4/032 55300 88/00 91114=
10552,2012,01,01,11,00,AAXX 01111 10552 47000 82407 10049 20049 39046 48445 53004 76265 333 4/031 55300 88/00 91113=
10552,2012,01,01,12,00,AAXX 01121 10552 07001 82305 10049 20049 39045 48444 50003 60031 76265 333 4/030 55300 60037 88/00 91114=
10552,2012,01,01,13,00,AAXX 01131 10552 47000 82305 10055 20055 39045 48445 50000 75765 333 4/030 55300 88/00=
10552,2012,01,01,14,00,AAXX 01141 10552 47000 82305 10058 20058 39045 48445 56001 75265 333 4/029 55300 88/00=
10552,2012,01,01,15,00,AAXX 01151 10552 27000 82306 10060 20060 39043 48444 58002 73065 333 4/029 55300 60027 88/00=
10552,2012,01,01,16,00,AAXX 01161 10552 47000 82307 10061 20061 39046 48447 53001 75865 333 4/028 55300 88/00=
10552,2012,01,01,17,00,AAXX 01171 10552 47000 82207 10064 20064 39047 48448 53002 73065 333 4/027 55300 88/00 91113=
10552,2012,01,01,18,00,AAXX 01181 10552 07000 82209 10065 20065 39044 48446 50001 60062 73065 333 10065 20020 3/100 4/024 55300 60027 88/00 91114=
10552,2012,01,01,19,00,AAXX 01191 10552 47000 82109 10064 20064 39039 48441 58007 75865 333 4/023 55300 88/00 91116=
10552,2012,01,01,20,00,AAXX 01201 10552 47000 82212 10066 20066 39033 48436 58014 75165 333 4/024 55300 88/00 91118 91212=
10552,2012,01,01,21,00,AAXX 01211 10552 27000 82212 10066 20066 39026 48430 58018 75165 333 4/022 55300 60017 88/00 91119 91213=
10552,2012,01,01,22,00,AAXX 01221 10552 47000 82214 10068 20068 39017 48422 58022 75153 333 4/022 55300 88/00 91122 91215=
10552,2012,01,01,23,00,AAXX 01231 10552 47000 82215 10068 20068 39010 48416 57023 75765 333 4/022 55300 88/00 91122 91215=
10554,2012,01,01,00,00,AAXX 01001 10554 01470 82605 10053 20042 39736 40125 53005 69901 72065 875// 333 31/// 55/// 20176 30168 55300 20000 30000 69907 87610 96251 96458=
10554,2012,01,01,01,00,AAXX 01011 10554 41475 82405 10053 20044 39735 40124 50003 72022 885// 333 55300 20000 30000 85612 87620 96251=
10554,2012,01,01,02,00,AAXX 01021 10554 41475 82304 10055 20046 39736 40125 51003 72022 885// 333 55300 20000 30000 84613 87628 96251=
10554,2012,01,01,03,00,AAXX 01031 10554 21470 82405 10061 20050 39734 40122 58002 72052 875// 333 55300 20000 30000 69907 87613 96251=
10554,2012,01,01,04,00,AAXX 01041 10554 41480 82407 10066 20052 39734 40121 58001 72022 885// 333 55300 20000 30000 83614 87636 96251=
10554,2012,01,01,05,00,AAXX 01051 10554 42582 82405 10067 20056 39736 40123 55000 878// 333 55300 20000 30000 82827 87632=
10554,2012,01,01,06,00,AAXX 01061 10554 01480 82306 10071 20058 39736 40123 52002 69902 72052 878// 333 10071 20021 31002 55004 55300 20000 30000 69907 70002 81813 87636=
10554,2012,01,01,07,00,AAXX 01071 10554 42480 82204 10074 20059 39738 40124 52004 878// 333 55300 20000 30000 82815 87620=
10554,2012,01,01,08,00,AAXX 01081 10554 41480 72306 10084 20062 39737 40122 50001 76022 878// 333 55300 20001 30001 81815 83620 87657=
10554,2012,01,01,09,00,AAXX 01091 10554 21480 72407 10089 20072 39741 40125 53005 76062 8487/ 333 20021 3/002 55300 20032 30031 69907 81815 84620 87462 96261=
10554,2012,01,01,10,00,AAXX 01101 10554 41580 82406 10096 20077 39741 40124 53003 72122 8387/ 333 55300 20161 30160 81820 83656 87462 96260=
10554,2012,01,01,11,00,AAXX 01111 10554 42480 82509 10107 20084 39736 40117 58001 8487/ 333 55300 20187 30186 81815 83620 87462=
10554,2012,01,01,12,00,AAXX 01121 10554 01480 82509 10108 20087 39737 40118 55004 69901 70362 8587/ 333 31/// 55300 20217 30217 69907 83816 83620 87462 96461=
10554,2012,01,01,13,00,AAXX 01131 10554 41480 82508 10107 20091 39738 40119 55003 75822 878// 333 55300 20171 30171 85816 87626=
10554,2012,01,01,14,00,AAXX 01141 10554 41475 82407 10102 20094 39738 40120 51002 75866 8587/ 333 55300 20172 30171 83816 84626 87360=
10554,2012,01,01,15,00,AAXX 01151 10554 21482 72306 10101 20089 39735 40117 58002 72162 81838 333 55300 20078 30077 69917 81816 87280 96258=
10554,2012,01,01,16,00,AAXX 01161 10554 42482 72306 10096 20083 39737 40120 55001 84808 333 55300 20007 30007 81816 84640 87280=
10554,2012,01,01,17,00,AAXX 01171 10554 42482 72306 10100 20085 39737 40119 56001 878// 333 55300 20000 30000 81815 87622=
10554,2012,01,01,18,00,AAXX 01181 10554 11482 82204 10102 20084 39736 40118 50001 69912 70362 8357/ 333 10108 20070 31007 55300 20000 30000 83616 87360 96458=
10554,2012,01,01,19,00,AAXX 01191 10554 42482 72308 10102 20082 39727 40109 58010 83808 333 55300 20000 30000 82818 87280=
10554,2012,01,01,20,00,AAXX 01201 10554 42482 62310 10105 20086 39723 40104 58014 85508 333 55300 20000 30000 83618 83657=
10554,2012,01,01,21,00,AAXX 01211 10554 32482 72208 10109 20086 39718 40098 56018 84578 333 55300 20000 30000 81616 84656=
10554,2012,01,01,22,00,AAXX 01221 10554 42582 72309 10115 20087 39708 40087 58019 8557/ 333 55300 20000 30000 85620 87360=
10554,2012,01,01,23,00,AAXX 01231 10554 42582 82309 10117 20087 39703 40082 57020 875// 333 55300 20000 30000 87623 91114 91211=
10557,2012,01,01,00,00,AAXX 01001 10557 01/02 92505 10012 20012 39135 48427 52005 69901 74776 333 44041 55/// 20121 30121 55300 20000 30000 69907 96261 96477 96449 96441=
10557,2012,01,01,01,00,AAXX 01011 10557 41/02 92403 10013 20013 39135 48427 51004 75044 333 55300 20000 30000 96045=
10557,2012,01,01,02,00,AAXX 01021 10557 41/02 92405 10017 20017 39135 48428 51001 75054 333 55300 20000 30000 96045=
10557,2012,01,01,03,00,AAXX 01031 10557 21/02 92406 10023 20023 39137 48431 53002 75054 333 55300 20000 30000 69927 96045=
10557,2012,01,01,04,00,AAXX 01041 10557 41/02 92507 10029 20029 39137 48433 52002 75164 333 55300 20000 30000 96045 96258=
10557,2012,01,01,05,00,AAXX 01051 10557 41/00 92404 10031 20031 39141 48437 53006 74754 333 55300 20000 30000 89/01 96147 96251=
10557,2012,01,01,06,00,AAXX 01061 10557 01/00 92304 10031 20031 39142 48438 53005 69952 75065 333 10037 21012 3/101 44039 55000 55300 20000 30000 69937 70027 89/00 96047 96147 96458 96451=
10557,2012,01,01,07,00,AAXX 01071 10557 41/01 92406 10039 20039 39143 48440 51006 75054 333 55300 20000 30000 89/01 96043=
10557,2012,01,01,08,00,AAXX 01081 10557 41/00 92304 10040 20040 39147 48444 53006 75054 333 55300 20000 30000 89/01 96047 96147=
10557,2012,01,01,09,00,AAXX 01091 10557 21/00 92406 10050 20050 39149 48448 53007 75854 333 21012 3/101 55300 20026 30026 69947 89/01 96045 96147 96253 96450=
10557,2012,01,01,10,00,AAXX 01101 10557 41/00 92405 10052 20052 39151 48450 51008 75164 333 55300 20080 30080 89/01 96043 96147 96258=
10557,2012,01,01,11,00,AAXX 01111 10557 41/00 92506 10058 20058 39148 48449 50001 75154 333 55300 20104 30104 89/01 96045 96147 96253=
10557,2012,01,01,12,00,AAXX 01121 10557 01/00 92507 10063 20063 39146 48448 58003 60011 76365 333 44036 55300 20118 30118 69997 89/01 91113 96043 96458 96453=
10557,2012,01,01,13,00,AAXX 01131 10557 41/01 92506 10065 20065 39151 48453 55000 76364 333 55300 20151 30151 89/01 91113 96043 96261=
10557,2012,01,01,14,00,AAXX 01141 10557 41/00 92405 10066 20066 39147 48450 58001 76065 333 55300 20070 30070 89/01 96047 96147 96263 96251=
10557,2012,01,01,15,00,AAXX 01151 10557 21/05 92505 10067 20067 39147 48450 51001 75965 333 55300 20020 30020 60037 91113 96041 96463 96451=
10557,2012,01,01,16,00,AAXX 01161 10557 41/03 92407 10067 20067 39148 48451 55003 75964 333 55300 20000 30000 96041 96258=
10557,2012,01,01,17,00,AAXX 01171 10557 41/01 92409 10067 20067 39149 48452 53002 75064 333 55300 20000 30000 91114 96041 96258=
10557,2012,01,01,18,00,AAXX 01181 10557 01/04 92306 10065 20065 39151 48453 53004 60072 75565 333 10068 20031 3/002 44032 55300 20000 30000 60027 91114 96041 96253 96463 96459 96451=
10557,2012,01,01,19,00,AAXX 01191 10557 41/01 92205 10066 20066 39147 48450 58001 75154 333 55300 20000 30000 96041 96255 96253=
10557,2012,01,01,20,00,AAXX 01201 10557 41/00 92105 10067 20067 39144 48448 58005 75154 333 55300 20000 30000 89/00 96047 96148 96255 96253=
10557,2012,01,01,21,00,AAXX 01211 10557 21/00 92105 10068 20068 39138 48442 58013 76154 333 55300 20000 30000 60037 89/00 96045 96148 96263 96455 96453=
10557,2012,01,01,22,00,AAXX 01221 10557 41/90 92106 10069 20069 39128 48434 58019 76164 333 55300 20000 30000 89/00 91115 96047 96148 96263 96260=
10557,2012,01,01,23,00,AAXX 01231 10557 41/90 92207 10068 20068 39119 48426 58025 74564 333 55300 20000 30000 89/00 91115 96148 96261 96260=
10564,2012,01,01,00,00,AAXX 01001 10564 07/65 /2203 10027 20021 39534 40140 53004 69971 72265 333 55300 69927=
10564,2012,01,01,01,00,AAXX 01011 10564 47/72 /2104 10031 20026 39534 40139 51004 72365 333 55300=
10564,2012,01,01,02,00,AAXX 01021 10564 47/81 /2204 10038 20032 39534 40137 51002 72250 333 55300=
10564,2012,01,01,03,00,AAXX 01031 10564 27/57 /2203 10040 20034 39536 40139 53002 75165 333 55300 69917=
10564,2012,01,01,04,00,AAXX 01041 10564 47/81 /2204 10043 20038 39537 40139 53003 75165 333 55300=
10564,2012,01,01,05,00,AAXX 01051 10564 47/68 /2404 10047 20041 39538 40139 51004 75150 333 55300=
10564,2012,01,01,06,00,AAXX 01061 10564 07/70 /2205 10049 20043 39541 40142 53005 60012 72265 333 10051 20007 3/000 55005 55300 69927 70015=
10564,2012,01,01,07,00,AAXX 01071 10564 45/65 /2303 10055 20055 39540 40140 50003 333 55300=
10564,2012,01,01,08,00,AAXX 01081 10564 45/61 /2307 10063 20057 39543 40141 52005 333 55300=
10564,2012,01,01,09,00,AAXX 01091 10564 27/57 /2307 10066 20061 39543 40140 53002 75765 333 20007 3/000 55300 69907=
10564,2012,01,01,10,00,AAXX 01101 10564 47/61 /2306 10074 20068 39545 40140 51005 76165 333 55300=
10564,2012,01,01,11,00,AAXX 01111 10564 47/60 /2306 10079 20073 39544 40138 50001 72365 333 55300=
10564,2012,01,01,12,00,AAXX 01121 10564 07/62 /2306 10085 20075 39543 40136 50000 69931 76165 333 55300 69937=
10564,2012,01,01,13,00,AAXX 01131 10564 47/80 /2304 10085 20078 39544 40137 55001 72365 333 55300=
10564,2012,01,01,14,00,AAXX 01141 10564 47/73 /2304 10089 20082 39543 40135 57001 76165 333 55300=
10564,2012,01,01,15,00,AAXX 01151 10564 27/66 /2405 10089 20082 39544 40136 52001 72365 333 55300 69987=
10564,2012,01,01,16,00,AAXX 01161 10564 45/86 /2206 10092 20081 39543 40134 57001 333 55300=
10564,2012,01,01,17,00,AAXX 01171 10564 45/80 /2206 10091 20082 39544 40135 52001 333 55300=
10564,2012,01,01,18,00,AAXX 01181 10564 17/82 /2206 10093 20081 39545 40136 53001 60012 70065 333 10093 20048 3/004 55300=
10564,2012,01,01,19,00,AAXX 01191 10564 45/87 /1906 10093 20080 39539 40130 58004 333 55300=
10564,2012,01,01,20,00,AAXX 01201 10564 45/81 /2207 10095 20083 39537 40127 58007 333 55300=
10564,2012,01,01,21,00,AAXX 01211 10564 35/88 /2105 10095 20082 39531 40121 57014 333 55300=
10564,2012,01,01,22,00,AAXX 01221 10564 45/68 /2106 10093 20083 39525 40115 58014 333 55300=
10564,2012,01,01,23,00,AAXX 01231 10564 47/80 /2106 10097 20084 39519 40108 57018 72250 333 55300 91115=
10565,2012,01,01,00,00,AAXX 01001 10565 07460 82303 10049 20034 39824 40123 52004 69911 70065 333 55300 69907 87/10 88/28 88/48=
10565,2012,01,01,01,00,AAXX 01011 10565 47460 82303 10049 20036 39824 40123 51003 72250 333 55300 86/12 88/39 88/50=
10565,2012,01,01,02,00,AAXX 01021 10565 45460 82302 10052 20036 39826 40125 53003 333 55300 83/11 88/50=
10565,2012,01,01,03,00,AAXX 01031 10565 27460 81903 10055 20039 39825 40124 50001 70050 333 55300 69907 81/11 86/32 88/46=
10565,2012,01,01,04,00,AAXX 01041 10565 47250 72103 10057 20049 39825 40123 51001 72250 333 55300 87/06=
10565,2012,01,01,05,00,AAXX 01051 10565 47260 82303 10062 20054 39824 40122 57002 72250 333 55300 88/06=
10565,2012,01,01,06,00,AAXX 01061 10565 07460 82203 10068 20054 39825 40122 55000 69912 70050 333 10068 20025 3/002 55025 55300 69907 70001 82/14 85/28 88/35=
10565,2012,01,01,07,00,AAXX 01071 10565 45560 82204 10070 20051 39824 40121 57001 333 55300 84/31 88/61 88/63=
10565,2012,01,01,08,00,AAXX 01081 10565 45560 82104 10080 20057 39829 40125 53005 333 55300 82/26 88/32=
10565,2012,01,01,09,00,AAXX 01091 10565 27560 82205 10086 20060 39828 40123 52003 76165 333 20025 3/002 55300 69907 87/25 88/34=
10565,2012,01,01,10,00,AAXX 01101 10565 47560 82105 10088 20068 39827 40122 50003 75165 333 55300 83/23 88/29 88/49=
10565,2012,01,01,11,00,AAXX 01111 10565 47560 82104 10096 20073 39827 40121 56002 72365 333 55300 88/24=
10565,2012,01,01,12,00,AAXX 01121 10565 07560 82304 10103 20078 39824 40117 58004 69911 70065 333 55300 69917 87/22 88/27=
10565,2012,01,01,13,00,AAXX 01131 10565 45560 82304 10115 20083 39825 40117 55002 333 55300 88/22=
10565,2012,01,01,14,00,AAXX 01141 10565 45560 82205 10116 20084 39822 40114 57005 333 55300 88/21=
10565,2012,01,01,15,00,AAXX 01151 10565 35460 62205 10106 20085 39823 40116 57001 333 55300 81/15 85/28 86/80=
10565,2012,01,01,16,00,AAXX 01161 10565 45560 82205 10109 20084 39823 40116 56002 333 55300 88/28=
10565,2012,01,01,17,00,AAXX 01171 10565 45560 62304 10107 20081 39825 40118 53003 333 55300 81/26 86/33=
10565,2012,01,01,18,00,AAXX 01181 10565 15960 72205 10104 20080 39825 40118 52002 69912 333 10117 20068 3/006 55300 87/80=
10565,2012,01,01,19,00,AAXX 01191 10565 45960 82205 10110 20082 39817 40109 58006 333 55300 88/62=
10565,2012,01,01,20,00,AAXX 01201 10565 45960 72204 10108 20080 39817 40109 57008 333 55300 82/61 87/80=
10565,2012,01,01,21,00,AAXX 01211 10565 35560 72106 10109 20082 39810 40102 56015 333 55300 83/22 87/60 87/64=
10565,2012,01,01,22,00,AAXX 01221 10565 45860 82006 10114 20084 39803 40094 58014 333 55300 82/57 87/60 88/68=
10565,2012,01,01,23,00,AAXX 01231 10565 45560 82006 10115 20085 39793 40084 58024 333 55300 87/24 87/61 88/67=
10567,2012,01,01,00,00,AAXX 01001 10567 01480 82304 10037 20030 39750 40130 53004 69971 70262 875// 333 31/// 55/// 20272 30204 55300 20000 30000 69907 87610=
10567,2012,01,01,01,00,AAXX 01011 10567 42480 82205 10041 20031 39750 40129 51004 875// 333 55300 20000 30000 87610=
10567,2012,01,01,02,00,AAXX 01021 10567 42475 82104 10045 20034 39752 40131 52004 875// 333 55300 20000 30000 87610=
10567,2012,01,01,03,00,AAXX 01031 10567 32475 82205 10047 20036 39750 40128 50000 875// 333 55300 20000 30000 87610=
10567,2012,01,01,04,00,AAXX 01041 10567 42475 82105 10048 20045 39752 40130 52002 875// 333 55300 20000 30000 87610=
10567,2012,01,01,05,00,AAXX 01051 10567 42375 82005 10050 20047 39752 40130 55000 875// 333 55300 20000 30000 87608=
10567,2012,01,01,06,00,AAXX 01061 10567 01475 82106 10055 20049 39753 40130 51003 69972 72022 875// 333 10056 20018 31002 55026 55300 20000 30000 69907 70007 87610=
10567,2012,01,01,07,00,AAXX 01071 10567 42582 62207 10062 20050 39752 40128 50000 86500 333 55300 20000 30000 86623=
10567,2012,01,01,08,00,AAXX 01081 10567 42581 82206 10071 20055 39756 40131 53004 875// 333 55300 20000 30000 87633=
10567,2012,01,01,09,00,AAXX 01091 10567 32578 82006 10072 20059 39758 40133 53005 875// 333 20018 3/002 55300 20039 30039 87625=
10567,2012,01,01,10,00,AAXX 01101 10567 41472 82106 10081 20069 39758 40132 51006 72162 8582/ 333 55300 20153 30153 81812 85628 87456=
10567,2012,01,01,11,00,AAXX 01111 10567 41581 82207 10093 20076 39754 40126 58002 72122 8582/ 333 55300 20318 30316 81824 85633 87457=
10567,2012,01,01,12,00,AAXX 01121 10567 01581 82306 10099 20079 39754 40125 57004 69911 70262 8682/ 333 31/// 55300 20276 30276 69917 81821 86628 87459=
10567,2012,01,01,13,00,AAXX 01131 10567 42481 72506 10103 20081 39753 40123 56005 8487/ 333 55300 20186 30186 81815 84638 85357=
10567,2012,01,01,14,00,AAXX 01141 10567 41581 82405 10100 20084 39753 40124 57001 76022 8587/ 333 55300 20221 30221 81821 85650 86357=
10567,2012,01,01,15,00,AAXX 01151 10567 21682 72306 10101 20082 39752 40123 57002 72162 84531 333 55300 20124 30124 69907 84634 84363 86073=
10567,2012,01,01,16,00,AAXX 01161 10567 42582 62206 10096 20079 39753 40124 55000 81531 333 55300 20002 30002 81630 85077=
10567,2012,01,01,17,00,AAXX 01171 10567 42586 52206 10094 20078 39756 40128 53003 81531 333 55300 20000 30000 81620 84077=
10567,2012,01,01,18,00,AAXX 01181 10567 11786 52007 10092 20077 39753 40125 50001 69912 70262 81504 333 10105 20055 31005 55300 20000 30000 81650 85080=
10567,2012,01,01,19,00,AAXX 01191 10567 42584 82005 10099 20079 39749 40120 58004 8357/ 333 55300 20000 30000 83620 87356=
10567,2012,01,01,20,00,AAXX 01201 10567 42986 72208 10101 20079 39747 40117 56009 8702/ 333 55300 20000 30000 87466=
10567,2012,01,01,21,00,AAXX 01211 10567 32986 82206 10103 20081 39744 40114 56009 8702/ 333 55300 20000 30000 87461=
10567,2012,01,01,22,00,AAXX 01221 10567 42886 82208 10102 20080 39736 40106 58013 8702/ 333 55300 20000 30000 87458=
10567,2012,01,01,23,00,AAXX 01231 10567 42586 82209 10108 20084 39728 40097 58019 8452/ 333 55300 20000 30000 84623 87461 91115=
10569,2012,01,01,00,00,AAXX 01001 10569 07459 81905 10025 20018 39669 40143 53002 60011 72376 333 55/// 20221 30197 55300 20000 30000 69947 88/15=
10569,2012,01,01,01,00,AAXX 01011 10569 47430 82003 10027 20019 39670 40143 52003 75150 333 55300 20000 30000 87/15 88/34 88/48=
10569,2012,01,01,02,00,AAXX 01021 10569 47457 81904 10031 20024 39671 40144 52003 72365 333 55300 20000 30000 88/16 88/46=
10569,2012,01,01,03,00,AAXX 01031 10569 27429 81904 10033 20027 39672 40144 52003 75265 333 55300 20000 30000 69927 88/16=
10569,2012,01,01,04,00,AAXX 01041 10569 47429 71903 10033 20029 39672 40144 51002 75765 333 55300 20000 30000 86/10 87/18 87/24=
10569,2012,01,01,05,00,AAXX 01051 10569 47450 81904 10039 20034 39673 40144 52002 75165 333 55300 20000 30000 83/10 87/25 88/32=
10569,2012,01,01,06,00,AAXX 01061 10569 07370 82004 10045 20039 39676 40146 53004 60022 72265 333 10045 20009 3/000 55011 55300 20000 30000 69967 70024 84/09 87/31 88/39=
10569,2012,01,01,07,00,AAXX 01071 10569 45267 81905 10052 20045 39675 40144 50003 333 55300 20000 30000 81/06 88/37=
10569,2012,01,01,08,00,AAXX 01081 10569 45367 81904 10058 20050 39678 40146 52005 333 55300 20004 30004 84/09 88/40=
10569,2012,01,01,09,00,AAXX 01091 10569 35467 82004 10070 20061 39682 40148 53006 333 20009 3/000 55300 20053 30053 87/14 87/18 88/31=
10569,2012,01,01,10,00,AAXX 01101 10569 47358 81904 10072 20064 39680 40146 50005 75765 333 55300 20097 30097 82/08 88/13=
10569,2012,01,01,11,00,AAXX 01111 10569 47369 82004 10085 20077 39678 40141 50000 75165 333 55300 20144 30144 87/09 88/12=
10569,2012,01,01,12,00,AAXX 01121 10569 07481 82103 10092 20082 39675 40137 58007 69931 75165 333 55300 20134 30134 69937 88/10=
10569,2012,01,01,13,00,AAXX 01131 10569 47462 82103 10094 20085 39676 40137 55004 76265 333 55300 20062 30062 87/14 88/20=
10569,2012,01,01,14,00,AAXX 01141 10569 47482 82204 10097 20086 39678 40139 55000 72365 333 55300 20034 30034 88/10=
10569,2012,01,01,15,00,AAXX 01151 10569 27483 82204 10099 20086 39677 40138 50002 72365 333 55300 20025 30025 60017 88/13=
10569,2012,01,01,16,00,AAXX 01161 10569 45484 82003 10095 20084 39677 40138 51001 333 55300 20000 30000 85/16 87/20 88/56=
10569,2012,01,01,17,00,AAXX 01171 10569 45484 82002 10093 20083 39679 40141 53001 333 55300 20000 30000 86/11 87/19 88/50=
10569,2012,01,01,18,00,AAXX 01181 10569 17484 72004 10094 20085 39678 40139 50001 60012 70065 333 10100 20045 3/004 55300 20000 30000 82/10 87/20=
10569,2012,01,01,19,00,AAXX 01191 10569 45485 82004 10095 20083 39676 40137 58001 333 55300 20000 30000 85/12 87/19 88/62=
10569,2012,01,01,20,00,AAXX 01201 10569 45483 82005 10099 20086 39674 40134 58005 333 55300 20000 30000 88/15=
10569,2012,01,01,21,00,AAXX 01211 10569 35485 72004 10098 20084 39668 40128 58010 333 55300 20000 30000 83/16 86/22 87/28=
10569,2012,01,01,22,00,AAXX 01221 10569 45466 72107 10100 20086 39664 40124 58012 333 55300 20000 30000 86/12 87/17=
10569,2012,01,01,23,00,AAXX 01231 10569 45484 81906 10102 20086 39656 40115 58018 333 55300 20000 30000 88/13=
10574,2012,01,01,00,00,AAXX 01001 10574 07/07 /2801 10006 20005 39079 48426 53006 60021 73076 333 4/021 55300 60017=
10574,2012,01,01,01,00,AAXX 01011 10574 47/01 /2903 10012 20012 39081 48428 51007 75165 333 4/021 55300=
10574,2012,01,01,02,00,AAXX 01021 10574 47/03 /3001 10012 20012 39083 48430 52006 75165 333 4/021 55300=
10574,2012,01,01,03,00,AAXX 01031 10574 27/02 /2902 10017 20017 39084 48432 51005 75165 333 4/021 55300 69927=
10574,2012,01,01,04,00,AAXX 01041 10574 47/16 /2703 10022 20022 39084 48433 51003 75365 333 4/021 55300=
10574,2012,01,01,05,00,AAXX 01051 10574 47112 72704 10029 20029 39086 48436 53003 75865 333 4/020 55300 87/01 87/06=
10574,2012,01,01,06,00,AAXX 01061 10574 07/17 /2705 10036 20036 39090 48441 53006 60052 75865 333 10037 21021 3/101 4/019 55003 55300 60037 70053=
10574,2012,01,01,07,00,AAXX 01071 10574 47/20 /2704 10038 20038 39092 48444 52008 75165 333 4/018 55300=
10574,2012,01,01,08,00,AAXX 01081 10574 47/41 /2705 10040 20040 39094 48446 51008 72250 333 4/017 55300=
10574,2012,01,01,09,00,AAXX 01091 10574 27057 72705 10044 20044 39098 48450 53008 75165 333 21021 3/101 4/017 55300 69987 84/01 85/06 87/20 91113=
10574,2012,01,01,10,00,AAXX 01101 10574 47/06 /2605 10046 20046 39100 48452 52008 76265 333 4/016 55300=
10574,2012,01,01,11,00,AAXX 01111 10574 47/08 /2606 10051 20051 39097 48451 50003 75165 333 4/015 55300=
10574,2012,01,01,12,00,AAXX 01121 10574 07/11 /2705 10055 20055 39094 48449 58004 60021 72365 333 4/015 55300 60017 91113=
10574,2012,01,01,13,00,AAXX 01131 10574 47/27 /2705 10057 20057 39096 48451 55004 76265 333 4/014 55300=
10574,2012,01,01,14,00,AAXX 01141 10574 47141 72705 10060 20060 39098 48454 53001 75866 333 4/013 55300 87/01=
10574,2012,01,01,15,00,AAXX 01151 10574 27/07 /2605 10059 20059 39096 48452 50002 75165 333 4/012 55300 60027=
10574,2012,01,01,16,00,AAXX 01161 10574 47/21 /2604 10059 20059 39098 48453 52002 75265 333 4/011 55300=
10574,2012,01,01,17,00,AAXX 01171 10574 47/06 /2603 10058 20058 39103 48458 53005 75265 333 4/011 55300=
10574,2012,01,01,18,00,AAXX 01181 10574 07/05 /2605 10059 20059 39102 48457 50006 60052 73065 333 10061 20035 3/100 4/010 55300 69957=
10574,2012,01,01,19,00,AAXX 01191 10574 47/03 /2605 10058 20058 39100 48455 50002 75153 333 4/010 55300=
10574,2012,01,01,20,00,AAXX 01201 10574 47/02 /2505 10058 20058 39095 48450 58008 73053 333 4/009 55300=
10574,2012,01,01,21,00,AAXX 01211 10574 27/05 /2504 10058 20058 39094 48450 56008 75165 333 4/008 55300 69927=
10574,2012,01,01,22,00,AAXX 01221 10574 47/03 /2305 10060 20060 39090 48446 56010 75253 333 4/008 55300=
10574,2012,01,01,23,00,AAXX 01231 10574 47/03 /2505 10058 20058 39080 48437 58015 75153 333 4/008 55300=
10577,2012,01,01,00,00,AAXX 01001 10577 07206 82206 10021 20016 39622 40132 55000 69951 75876 333 4/003 55/// 20399 30238 55300 20000 30000 69937 88/06=
10577,2012,01,01,01,00,AAXX 01011 10577 47340 82206 10029 20023 39624 40133 53003 72365 333 4/003 55300 20000 30000 88/07=
10577,2012,01,01,02,00,AAXX 01021 10577 47349 82305 10030 20023 39627 40136 53005 76165 333 4/002 55300 20000 30000 88/09 88/15 88/23=
10577,2012,01,01,03,00,AAXX 01031 10577 27362 82206 10034 20026 39626 40134 50004 72365 333 4/002 55300 20000 30000 69907 88/08=
10577,2012,01,01,04,00,AAXX 01041 10577 45462 82205 10035 20027 39626 40134 51002 333 4/002 55300 20000 30000 83/10 84/33 88/47=
10577,2012,01,01,05,00,AAXX 01051 10577 41256 82206 10037 20031 39628 40135 53001 75122 875// 333 4/002 55300 20000 30000 87706 87625 96010=
10577,2012,01,01,06,00,AAXX 01061 10577 01228 82205 10039 20035 39629 40136 53003 69972 75865 877// 333 10040 20011 3/001 42002 55040 55300 20000 30000 69927 70007 87705 96010 96259=
10577,2012,01,01,07,00,AAXX 01071 10577 41362 82206 10049 20046 39631 40136 52005 72166 875// 333 55300 20000 30000 83707 87629=
10577,2012,01,01,08,00,AAXX 01081 10577 41672 82305 10057 20051 39634 40138 53006 72122 875// 333 55300 20024 30024 87634=
10577,2012,01,01,09,00,AAXX 01091 10577 21673 82206 10067 20056 39636 40138 52007 70262 875// 333 20011 3/001 55300 20083 30083 69937 87635=
10577,2012,01,01,10,00,AAXX 01101 10577 41570 82308 10080 20066 39637 40137 51006 72022 875// 333 55300 20151 30150 87627=
10577,2012,01,01,11,00,AAXX 01111 10577 41465 82307 10085 20074 39632 40130 58002 76162 8652/ 333 55300 20170 30169 84712 84620 88536 91113 96263=
10577,2012,01,01,12,00,AAXX 01121 10577 01468 82308 10087 20077 39629 40127 58007 60021 72165 875// 333 32/// 4/998 55300 20246 30244 60027 85711 87627 91113 96263=
10577,2012,01,01,13,00,AAXX 01131 10577 42477 82408 10092 20079 39631 40128 55006 878// 333 55300 20206 30205 86811 87626=
10577,2012,01,01,14,00,AAXX 01141 10577 42484 82309 10094 20080 39630 40127 56002 878// 333 55300 20120 30119 85813 83636 86643=
10577,2012,01,01,15,00,AAXX 01151 10577 21484 82407 10094 20081 39630 40127 51001 72122 875// 333 55300 20048 30047 69907 87611=
10577,2012,01,01,16,00,AAXX 01161 10577 42473 72208 10096 20082 39630 40126 56001 878// 333 55300 20006 30006 85810 86633=
10577,2012,01,01,17,00,AAXX 01171 10577 42481 82210 10099 20083 39631 40127 53001 8683/ 333 55300 20000 30000 81812 85632 86357 91115=
10577,2012,01,01,18,00,AAXX 01181 10577 11482 72209 10098 20081 39633 40129 53003 60022 70362 8287/ 333 10100 20039 32003 55300 20000 30000 81812 85357 91115=
10577,2012,01,01,19,00,AAXX 01191 10577 42483 82210 10097 20079 39634 40130 52004 875// 333 55300 20000 30000 87616 91113=
10577,2012,01,01,20,00,AAXX 01201 10577 42783 52108 10096 20077 39628 40124 58003 83530 333 55300 20000 30000 83656 83362 91113=
10577,2012,01,01,21,00,AAXX 01211 10577 35488 62109 10097 20076 39623 40119 58010 333 55300 20000 30000 86/17 91113=
10577,2012,01,01,22,00,AAXX 01221 10577 45488 52108 10101 20078 39617 40112 57017 333 55300 20000 30000 85/19 91113=
10577,2012,01,01,23,00,AAXX 01231 10577 45488 62109 10099 20078 39609 40104 58019 333 55300 20000 30000 86/17 91115=
10578,2012,01,01,00,00,AAXX 01001 10578 11/00 92709 10000 20000 38723 48422 53008 60011 74575 333 35/// 44071 55/// 20314 30269 55300 20000 30000 96456 96449=
10578,2012,01,01,01,00,AAXX 01011 10578 41/00 92707 10000 20000 38725 48424 51009 74744 333 55300 20000 30000=
10578,2012,01,01,02,00,AAXX 01021 10578 41/00 92710 10001 20001 38728 48426 51009 74544 333 55300 20000 30000=
10578,2012,01,01,03,00,AAXX 01031 10578 41/00 92710 10001 20001 38730 48428 52007 74344 333 55300 20000 30000=
10578,2012,01,01,04,00,AAXX 01041 10578 41/01 92609 10001 20001 38732 48430 51007 75154 333 55300 20000 30000 91113 91211 96043=
10578,2012,01,01,05,00,AAXX 01051 10578 41/01 92612 10001 20001 38732 48430 51004 75154 333 55300 20000 30000 91115 91212 96045=
10578,2012,01,01,06,00,AAXX 01061 10578 11/01 92614 10010 20010 38734 48433 52004 60032 76154 333 10010 21039 35104 44069 55011 55300 20000 30000 70036 96043=
10578,2012,01,01,07,00,AAXX 01071 10578 41/01 92616 10016 20016 38737 48436 53005 76164 333 55300 20000 30000 91120 91216 96047=
10578,2012,01,01,08,00,AAXX 01081 10578 41/01 92618 10019 20019 38736 48435 50004 74564 333 55300 20050 30050 91121 91218=
10578,2012,01,01,09,00,AAXX 01091 10578 41/01 92619 10021 20021 38739 48438 52005 74564 333 21039 3/104 55300 20243 30238 91123 90211 91218 91220=
10578,2012,01,01,10,00,AAXX 01101 10578 41/01 92617 10028 20028 38746 48445 53009 75144 333 55300 20177 30176 91123 91220 96045=
10578,2012,01,01,11,00,AAXX 01111 10578 41/01 92516 10035 20035 38745 48445 50009 75154 333 55300 20260 30256 91122 91218 96045=
10578,2012,01,01,12,00,AAXX 01121 10578 11/01 92616 10038 20038 38742 48442 50003 60011 74565 333 44067 55300 20310 30305 91123 90241 91218 90315 91220=
10578,2012,01,01,13,00,AAXX 01131 10578 41/01 92615 10039 20039 38744 48444 55002 74544 333 55300 20185 30183 91121 91217=
10578,2012,01,01,14,00,AAXX 01141 10578 41/01 92616 10040 20040 38745 48445 55000 76164 333 55300 20100 30099 91121 91217 96043=
10578,2012,01,01,15,00,AAXX 01151 10578 41/01 92515 10041 20041 38746 48446 51004 76164 333 55300 20070 30070 91121 91217 96045=
10578,2012,01,01,16,00,AAXX 01161 10578 41/01 92513 10040 20040 38750 48450 53006 74564 333 55300 20006 30006 91118 91215=
10578,2012,01,01,17,00,AAXX 01171 10578 41/01 92514 10039 20039 38752 48452 53007 76064 333 55300 20000 30000 91117 91214 96045=
10578,2012,01,01,18,00,AAXX 01181 10578 11/01 92414 10040 20040 38754 48454 51008 60032 76064 333 10042 20009 3/001 44064 55300 20000 30000 91121 91217 96045=
10578,2012,01,01,19,00,AAXX 01191 10578 41/01 92414 10039 20039 38754 48454 51004 76064 333 55300 20000 30000 91118 91215 96045=
10578,2012,01,01,20,00,AAXX 01201 10578 41/01 92214 10041 20041 38750 48450 58002 74764 333 55300 20000 30000 91119 91215=
10578,2012,01,01,21,00,AAXX 01211 10578 41/01 92214 10042 20042 38747 48447 58007 74365 333 55300 20000 30000 91119 91215=
10578,2012,01,01,22,00,AAXX 01221 10578 41/01 92316 10041 20041 38741 48442 58013 74744 333 55300 20000 30000 91121 91216=
10578,2012,01,01,23,00,AAXX 01231 10578 41/01 92318 10043 20043 38731 48433 58019 74544 333 55300 20000 30000 91124 91219=
10579,2012,01,01,00,00,AAXX 01001 10579 07/03 /2304 10014 20014 39368 40137 51002 69961 73076 333 4/008 55300 69957=
10579,2012,01,01,01,00,AAXX 01011 10579 47/01 /2304 10019 20019 39370 40137 53003 75165 333 4/008 55300=
10579,2012,01,01,02,00,AAXX 01021 10579 47/01 /2303 10020 20020 39372 40139 53004 73053 333 4/008 55300=
10579,2012,01,01,03,00,AAXX 01031 10579 27/01 /2403 10023 20023 39372 40138 51004 73065 333 4/008 55300 69917=
10579,2012,01,01,04,00,AAXX 01041 10579 47/02 /2404 10029 20029 39374 40139 52004 73033 333 4/008 55300=
10579,2012,01,01,05,00,AAXX 01051 10579 47/09 /2403 10032 20032 39375 40139 53003 73030 333 4/006 55300=
10579,2012,01,01,06,00,AAXX 01061 10579 07/13 /2303 10035 20035 39378 40141 53006 69972 75365 333 10037 21003 3/101 4/006 55042 55300 69907 70007=
10579,2012,01,01,07,00,AAXX 01071 10579 47/03 /2404 10037 20037 39380 40143 53006 75165 333 4/004 55300=
10579,2012,01,01,08,00,AAXX 01081 10579 47/61 /2404 10044 20044 39383 40144 52008 72253 333 4/003 55300=
10579,2012,01,01,09,00,AAXX 01091 10579 27/81 /2405 10048 20048 39384 40144 51006 70065 333 21003 3/101 4/003 55300 69947=
10579,2012,01,01,10,00,AAXX 01101 10579 45/71 /2305 10054 20048 39386 40144 51006 333 4/002 55300=
10579,2012,01,01,11,00,AAXX 01111 10579 47/61 /2403 10055 20055 39383 40141 50000 75165 333 4/001 55300=
10579,2012,01,01,12,00,AAXX 01121 10579 07/66 /2505 10066 20066 39381 40135 58003 69961 75765 333 4/001 55300 69927=
10579,2012,01,01,13,00,AAXX 01131 10579 47/82 /2504 10070 20067 39382 40135 55004 72365 333 55300=
10579,2012,01,01,14,00,AAXX 01141 10579 47/87 /2404 10072 20068 39383 40135 55000 72365 333 55300=
10579,2012,01,01,15,00,AAXX 01151 10579 27/88 /2404 10073 20070 39383 40135 51002 70065 333 55300 69917=
10579,2012,01,01,16,00,AAXX 01161 10579 45/80 /2304 10074 20070 39383 40135 51001 333 55300=
10579,2012,01,01,17,00,AAXX 01171 10579 47/50 /2305 10075 20075 39387 40139 53004 71000 333 55300=
10579,2012,01,01,18,00,AAXX 01181 10579 17/88 /2305 10079 20071 39389 40140 53006 69972 70065 333 10080 20035 3/100 55300=
10579,2012,01,01,19,00,AAXX 01191 10579 45/88 /2205 10081 20069 39387 40137 50004 333 55300=
10579,2012,01,01,20,00,AAXX 01201 10579 45/88 /2205 10081 20069 39382 40132 58005 333 55300=
10579,2012,01,01,21,00,AAXX 01211 10579 35/88 /2206 10081 20070 39381 40131 56008 333 55300=
10579,2012,01,01,22,00,AAXX 01221 10579 45/88 /2307 10084 20068 39371 40119 58016 333 55300=
10579,2012,01,01,23,00,AAXX 01231 10579 45/88 /2205 10084 20070 39367 40115 58015 333 55300=
10582,2012,01,01,00,00,AAXX 01001 10582 07008 82005 11008 21009 39088 48413 53001 69931 76676 333 4/017 55/// 20198 30193 55300 20000 30000 69937 88/00=
10582,2012,01,01,01,00,AAXX 01011 10582 47001 81904 11007 21008 39090 48415 53004 73565 333 4/017 55300 20000 30000 88/00=
10582,2012,01,01,02,00,AAXX 01021 10582 47001 81704 11016 21017 39092 48415 53005 73576 333 4/017 55300 20000 30000 88/00=
10582,2012,01,01,03,00,AAXX 01031 10582 27000 82103 11003 21004 39094 48419 52006 73576 333 4/017 55300 20000 30000 69947 88/00=
10582,2012,01,01,04,00,AAXX 01041 10582 47000 82405 10008 20007 39094 48422 51004 73033 333 4/017 55300 20000 30000 88/00=
10582,2012,01,01,05,00,AAXX 01051 10582 41/01 92503 10010 20009 39097 48425 53005 74344 333 4/017 55300 20000 30000=
10582,2012,01,01,06,00,AAXX 01061 10582 11/00 92504 10018 20017 39098 48427 53004 69972 74776 333 10018 21028 3/103 44032 55001 55300 20000 30000 70007 96479 96467 96457=
10582,2012,01,01,07,00,AAXX 01071 10582 41/01 92406 10024 20023 39100 48430 51006 74344 333 4/017 55300 20000 30000=
10582,2012,01,01,08,00,AAXX 01081 10582 41/02 92507 10031 20030 39102 48433 53005 75354 333 4/016 55300 20017 30017 96043=
10582,2012,01,01,09,00,AAXX 01091 10582 21/07 92507 10037 20036 39104 48436 52006 74354 333 21028 3/103 4/016 55300 20108 30108 69917=
10582,2012,01,01,10,00,AAXX 01101 10582 41082 82407 10037 20036 39105 48437 51005 72822 878// 333 4/016 55300 20290 30290 82701 83805 87518 91114 96040 98320=
10582,2012,01,01,11,00,AAXX 01111 10582 41/01 92507 10044 20043 39103 48437 50001 76142 333 4/015 55300 20293 30293 91113 96047=
10582,2012,01,01,12,00,AAXX 01121 10582 01/02 92508 10050 20049 39103 48438 58001 69931 75865 333 42028 55300 20248 30248 69927 91115 96041 96263=
10582,2012,01,01,13,00,AAXX 01131 10582 41/01 92406 10051 20050 39105 48440 55000 75865 333 4/014 55300 20219 30219 91113 96047=
10582,2012,01,01,14,00,AAXX 01141 10582 41/01 92506 10054 20053 39106 48442 53003 75964 333 4/013 55300 20051 30051 96047=
10582,2012,01,01,15,00,AAXX 01151 10582 27002 82506 10055 20055 39109 48445 53006 75165 333 4/012 55300 20022 30022 60017 88/00 91113=
10582,2012,01,01,16,00,AAXX 01161 10582 47002 82407 10057 20056 39109 48445 51004 75153 333 4/011 55300 20000 30000 88/00=
10582,2012,01,01,17,00,AAXX 01171 10582 47005 72407 10058 20057 39109 48445 51003 75865 333 4/011 55300 20000 30000 87/00 87/08=
10582,2012,01,01,18,00,AAXX 01181 10582 07174 82507 10059 20058 39114 48450 53005 60022 72365 333 10059 20017 3/002 4/010 55300 20000 30000 69957 87/03 88/08 91113=
10582,2012,01,01,19,00,AAXX 01191 10582 45286 82405 10055 20055 39112 48447 50003 333 4/010 55300 20000 30000 87/05 88/16=
10582,2012,01,01,20,00,AAXX 01201 10582 45277 72207 10051 20050 39110 48445 50001 333 4/010 55300 20000 30000 87/03=
10582,2012,01,01,21,00,AAXX 01211 10582 37271 82107 10048 20047 39104 48439 58010 72030 333 4/010 55300 20000 30000 87/03 88/60=
10582,2012,01,01,22,00,AAXX 01221 10582 47156 82009 10048 20047 39101 48436 58011 71000 333 4/010 55300 20000 30000 87/02 88/07=
10582,2012,01,01,23,00,AAXX 01231 10582 47101 71908 10050 20049 39097 48433 56013 73030 333 4/010 55300 20000 30000 87/02 87/06=
10591,2012,01,01,00,00,AAXX 01001 10591 07340 81605 10010 20002 39747 40140 55002 69901 72476 333 4/001 55300 69907 85/08 86/12 88/17=
10591,2012,01,01,01,00,AAXX 01011 10591 47216 81505 10009 20005 39746 40139 50001 75365 333 4/001 55300 88/04 88/09=
10591,2012,01,01,02,00,AAXX 01021 10591 47117 81605 10009 20006 39746 40139 50000 75165 333 4/001 55300 87/03 88/07=
10591,2012,01,01,03,00,AAXX 01031 10591 27119 81604 10011 20009 39747 40140 55000 75265 333 55300 69927 87/03 88/06=
10591,2012,01,01,04,00,AAXX 01041 10591 47156 81403 10013 20011 39746 40139 50000 72365 333 55300 88/03=
10591,2012,01,01,05,00,AAXX 01051 10591 47132 81503 10015 20015 39747 40139 52001 72365 333 55300 88/02=
10591,2012,01,01,06,00,AAXX 01061 10591 07137 81503 10017 20015 39749 40141 53002 69972 72065 333 10017 20004 3/101 55020 55300 69957 70007 88/03=
10591,2012,01,01,07,00,AAXX 01071 10591 47128 81504 10017 20015 39751 40143 53005 71000 333 55300 88/03=
10591,2012,01,01,08,00,AAXX 01081 10591 47242 81604 10020 20016 39754 40146 53007 71000 333 55300 88/04 88/22 88/26=
10591,2012,01,01,09,00,AAXX 01091 10591 27226 81604 10022 20019 39756 40148 52007 72250 333 20004 3/101 55300 69907 88/03 88/12=
10591,2012,01,01,10,00,AAXX 01101 10591 47250 81503 10027 20022 39755 40146 50004 72365 333 55300 87/04 88/25=
10591,2012,01,01,11,00,AAXX 01111 10591 47256 81503 10032 20025 39753 40143 58001 71000 333 55300 86/05 87/27 88/34=
10591,2012,01,01,12,00,AAXX 01121 10591 07246 81503 10035 20030 39750 40139 58006 69921 76265 333 55300 69927 87/03 87/08 88/17=
10591,2012,01,01,13,00,AAXX 01131 10591 47216 81502 10039 20035 39750 40139 56005 75866 333 55300 87/05 88/14=
10591,2012,01,01,14,00,AAXX 01141 10591 47113 81503 10040 20037 39749 40138 56004 75866 333 55300 87/03 88/06=
10591,2012,01,01,15,00,AAXX 01151 10591 27219 81302 10044 20041 39750 40138 55000 75865 333 55300 60037 88/04=
10591,2012,01,01,16,00,AAXX 01161 10591 47258 81502 10048 20045 39751 40138 53001 72365 333 55300 86/04 88/16=
10591,2012,01,01,17,00,AAXX 01171 10591 47237 81402 10049 20046 39751 40138 51002 72365 333 55300 84/05 88/23=
10591,2012,01,01,18,00,AAXX 01181 10591 07249 81302 10057 20052 39756 40142 53006 60042 75165 333 10058 20016 3/001 55300 69997 82/05 88/20=
10591,2012,01,01,19,00,AAXX 01191 10591 47250 81302 10057 20057 39754 40140 50003 72250 333 55300 85/04 88/36 88/44=
10591,2012,01,01,20,00,AAXX 01201 10591 47550 81605 10061 20056 39753 40139 50002 71000 333 55300 81/23 88/34=
10591,2012,01,01,21,00,AAXX 01211 10591 27256 71605 10063 20059 39747 40132 58009 71050 333 55300 69907 84/05 85/36 87/62=
10591,2012,01,01,22,00,AAXX 01221 10591 47250 71505 10060 20055 39742 40127 58012 71000 333 55300 81/05 83/50 87/58=
10591,2012,01,01,23,00,AAXX 01231 10591 45459 81505 10065 20060 39735 40119 58018 333 55300 81/12 88/56=
10609,2012,01,01,00,00,AAXX 01001 10609 01358 82205 10102 20092 39820 40146 53002 69941 76065 875// 333 31/// 55/// 20123 30123 55300 20000 30000 69937 82708 87617=
10609,2012,01,01,01,00,AAXX 01011 10609 41245 82305 10099 20092 39818 40144 50000 76166 885// 333 55300 20000 30000 84706 87610=
10609,2012,01,01,02,00,AAXX 01021 10609 41356 82305 10100 20093 39820 40146 53001 76062 885// 333 55300 20000 30000 83707 87613=
10609,2012,01,01,03,00,AAXX 01031 10609 21256 82205 10100 20094 39820 40146 55000 76162 885// 333 55300 20000 30000 69977 83706 87612=
10609,2012,01,01,04,00,AAXX 01041 10609 41359 82306 10102 20097 39820 40146 51002 72166 875// 333 55300 20000 30000 82708 87614=
10609,2012,01,01,05,00,AAXX 01051 10609 41358 82206 10102 20096 39820 40146 54000 75862 877// 333 55300 20000 30000 87707=
10609,2012,01,01,06,00,AAXX 01061 10609 01368 82305 10105 20097 39819 40145 58001 60022 72162 877// 333 10107 20096 31009 55000 55300 20000 30000 69957 70019 87709=
10609,2012,01,01,07,00,AAXX 01071 10609 41358 82208 10106 20097 39822 40148 53002 72022 877// 333 55300 20000 30000 87707=
10609,2012,01,01,08,00,AAXX 01081 10609 41380 82308 10109 20101 39825 40150 53005 72022 877// 333 55300 20002 30002 87709=
10609,2012,01,01,09,00,AAXX 01091 10609 21375 82308 10111 20100 39828 40153 52009 75062 877// 333 20096 3/009 55300 20026 30025 69907 87707=
10609,2012,01,01,10,00,AAXX 01101 10609 41470 82308 10113 20101 39829 40154 51007 72152 878// 333 55300 20125 30122 86811 87618=
10609,2012,01,01,11,00,AAXX 01111 10609 42475 82208 10115 20099 39826 40151 50001 885// 333 55300 20221 30213 86714 88624 91113=
10609,2012,01,01,12,00,AAXX 01121 10609 01484 82208 10117 20100 39815 40139 58013 69911 70265 875// 333 31/// 55300 20183 30179 69917 87613 91113=
10609,2012,01,01,13,00,AAXX 01131 10609 42480 82109 10117 20101 39809 40133 58020 885// 333 55300 20158 30154 88612 91113=
10609,2012,01,01,14,00,AAXX 01141 10609 41465 82209 10116 20103 39804 40128 56022 75822 885// 333 55300 20166 30162 88610 91113=
10609,2012,01,01,15,00,AAXX 01151 10609 21458 82107 10113 20103 39807 40131 55008 72162 875// 333 55300 20087 30086 69907 87611 91113=
10609,2012,01,01,16,00,AAXX 01161 10609 41362 82109 10114 20105 39804 40128 56005 72162 885// 333 55300 20025 30025 86709 88614=
10609,2012,01,01,17,00,AAXX 01171 10609 41460 82209 10115 20103 39801 40125 58003 72122 877// 333 55300 20000 30000 87712 91113=
10609,2012,01,01,18,00,AAXX 01181 10609 01462 82209 10114 20104 39799 40123 56008 69912 72162 877// 333 10118 20105 31010 55300 20000 30000 69907 87710 91115 91211=
10609,2012,01,01,19,00,AAXX 01191 10609 41462 82210 10119 20102 39793 40116 58011 72122 877// 333 55300 20000 30000 87712 91115 91211=
10609,2012,01,01,20,00,AAXX 01201 10609 41464 82110 10116 20102 39786 40109 58015 72122 877// 333 55300 20000 30000 87712 91116 91211=
10609,2012,01,01,21,00,AAXX 01211 10609 21465 82211 10119 20099 39780 40103 57019 70262 877// 333 55300 20000 30000 69907 87713 91117 91212=
10609,2012,01,01,22,00,AAXX 01221 10609 41462 82212 10116 20099 39775 40098 56018 76122 877// 333 55300 20000 30000 87710 91118 91213=
10609,2012,01,01,23,00,AAXX 01231 10609 41470 82213 10123 20095 39766 40088 58020 72122 875// 333 55300 20000 30000 87618 91118 91213=
10613,2012,01,01,00,00,AAXX 01001 10613 41230 82404 10081 20078 39560 40136 52003 75152 886// 333 88705=
10613,2012,01,01,01,00,AAXX 01011 10613 41230 82304 10081 20079 39557 40133 58001 72052 885// 333 83705 88612=
10613,2012,01,01,02,00,AAXX 01021 10613 41250 82305 10083 20080 39560 40135 54000 71022 885// 333 83705 88612=
10613,2012,01,01,03,00,AAXX 01031 10613 41150 82305 10085 20085 39560 40135 54000 71052 885// 333 83703 88607=
10613,2012,01,01,04,00,AAXX 01041 10613 41130 82405 10086 20086 39560 40135 53003 71052 885// 333 83702 88605=
10613,2012,01,01,05,00,AAXX 01051 10613 41120 82305 10086 20086 39559 40134 58001 71052 885// 333 85702 88605=
10613,2012,01,01,06,00,AAXX 01061 10613 11024 82305 10088 20085 39561 40135 53001 69952 75152 886// 333 10089 20064 32006 70016 83701 88702=
10613,2012,01,01,07,00,AAXX 01071 10613 41028 82305 10089 20086 39563 40137 53003 75165 886// 333 82701 88702=
10613,2012,01,01,08,00,AAXX 01081 10613 41020 82206 10090 20087 39566 40140 52007 75155 886// 333 83701 88702=
10613,2012,01,01,09,00,AAXX 01091 10613 41035 82306 10092 20088 39568 40142 52007 75165 886// 333 83701 88703=
10613,2012,01,01,10,00,AAXX 01101 10613 41130 82307 10094 20090 39572 40146 52009 75865 886// 333 83702 88704=
10613,2012,01,01,11,00,AAXX 01111 10613 41157 82206 10094 20090 39567 40140 52001 75155 886// 333 82702 88704=
10613,2012,01,01,12,00,AAXX 01121 10613 41130 82206 10094 20089 39561 40134 58007 75165 886// 333 83702 88704=
10613,2012,01,01,13,00,AAXX 01131 10613 41130 82206 10096 20096 39553 40125 57018 75155 886// 333 82702 88704=
10613,2012,01,01,14,00,AAXX 01141 10613 41145 82206 10096 20096 39552 40124 57015 75155 886// 333 82702 88703=
10613,2012,01,01,15,00,AAXX 01151 10613 41150 82206 10098 20098 39553 40125 57008 75155 886// 333 82702 88704=
10613,2012,01,01,16,00,AAXX 01161 10613 41130 82206 10097 20097 39549 40121 57005 75155 886// 333 82702 88703=
10613,2012,01,01,17,00,AAXX 01171 10613 41125 82107 10097 20097 39545 40117 57007 75155 886// 333 81702 88703 91012=
10613,2012,01,01,18,00,AAXX 01181 10613 11128 82207 10099 20099 39539 40110 57013 60012 75155 886// 333 10099 20088 32009 85703 88705=
10613,2012,01,01,19,00,AAXX 01191 10613 41135 82208 10100 20093 39534 40104 57015 75154 886// 333 85703 88705 91014 91114=
10613,2012,01,01,20,00,AAXX 01201 10613 41235 82208 10099 20092 39528 40098 57017 75155 886// 333 88704 91115=
10613,2012,01,01,21,00,AAXX 01211 10613 41250 82209 10099 20092 39520 40090 57020 75155 886// 333 88704 91014 91115=
10613,2012,01,01,22,00,AAXX 01221 10613 41230 82208 10099 20092 39514 40083 57018 75155 886// 333 88704 91014 91114=
10613,2012,01,01,23,00,AAXX 01231 10613 41233 82110 10099 20092 39505 40074 57022 75155 886// 333 88704 91017 91117=
10615,2012,01,01,00,00,AAXX 01001 10615 07364 72508 10089 20082 39573 40142 52003 69961 75165 333 55/// 20035 30034 55300 20000 30000 69947 87/07 87/19 87/30 91114=
10615,2012,01,01,01,00,AAXX 01011 10615 47264 72506 10088 20088 39573 40142 51002 75165 333 55300 20000 30000 87/06=
10615,2012,01,01,02,00,AAXX 01021 10615 47381 72506 10092 20083 39574 40143 52002 72365 333 55300 20000 30000 87/08 87/26 87/32=
10615,2012,01,01,03,00,AAXX 01031 10615 27360 82404 10089 20084 39575 40144 53002 75165 333 55300 20000 30000 69967 88/06=
10615,2012,01,01,04,00,AAXX 01041 10615 47176 72406 10091 20087 39573 40142 50000 72365 333 55300 20000 30000 81/03 87/06 87/29=
10615,2012,01,01,05,00,AAXX 01051 10615 47324 82405 10090 20086 39575 40144 53001 75365 333 55300 20000 30000 88/06=
10615,2012,01,01,06,00,AAXX 01061 10615 07288 82407 10094 20089 39574 40142 56001 60022 72365 333 10094 20083 3/008 55000 55300 20000 30000 69947 70026 88/06=
10615,2012,01,01,07,00,AAXX 01071 10615 47364 82306 10093 20088 39577 40146 53004 72250 333 55300 20000 30000 87/07 88/23=
10615,2012,01,01,08,00,AAXX 01081 10615 47358 82406 10094 20090 39581 40150 53006 75150 333 55300 20000 30000 88/06=
10615,2012,01,01,09,00,AAXX 01091 10615 27358 72406 10095 20095 39581 40149 51007 75165 333 20083 3/008 55300 20006 30006 69937 87/07=
10615,2012,01,01,10,00,AAXX 01101 10615 47257 72406 10098 20098 39585 40153 52008 75165 333 55300 20079 30079 81/03 87/08 87/17=
10615,2012,01,01,11,00,AAXX 01111 10615 47361 82307 10099 20092 39581 40148 50000 72365 333 55300 20224 30224 87/09 87/17 88/58=
10615,2012,01,01,12,00,AAXX 01121 10615 07388 82307 10101 20092 39574 40141 58007 69961 70065 333 55300 20319 30318 69937 88/09 88/58 91113=
10615,2012,01,01,13,00,AAXX 01131 10615 47337 72306 10099 20094 39566 40133 58019 75265 333 55300 20162 30162 87/06=
10615,2012,01,01,14,00,AAXX 01141 10615 47358 82307 10101 20094 39565 40131 56016 72250 333 55300 20114 30114 88/06=
10615,2012,01,01,15,00,AAXX 01151 10615 27339 72207 10101 20093 39565 40131 56009 75265 333 55300 20055 30054 69947 87/07=
10615,2012,01,01,16,00,AAXX 01161 10615 47334 82107 10102 20094 39563 40129 58003 75865 333 55300 20008 30008 88/06=
10615,2012,01,01,17,00,AAXX 01171 10615 47350 82208 10104 20095 39562 40127 58003 75365 333 55300 20000 30000 88/07 91113=
10615,2012,01,01,18,00,AAXX 01181 10615 07356 82207 10104 20096 39558 40123 58007 60022 75265 333 10105 20093 3/009 55300 20000 30000 69997 88/06 91113=
10615,2012,01,01,19,00,AAXX 01191 10615 47358 72208 10102 20093 39554 40119 58009 72365 333 55300 20000 30000 87/07 91115=
10615,2012,01,01,20,00,AAXX 01201 10615 47362 82107 10103 20094 39547 40112 58015 75165 333 55300 20000 30000 88/06 91113=
10615,2012,01,01,21,00,AAXX 01211 10615 27362 82209 10102 20092 39541 40105 58017 72365 333 55300 20000 30000 69957 88/07 91115=
10615,2012,01,01,22,00,AAXX 01221 10615 47382 82109 10103 20093 39535 40099 56019 72365 333 55300 20000 30000 88/07 91118=
10615,2012,01,01,23,00,AAXX 01231 10615 47388 82209 10104 20090 39530 40093 56017 72365 333 55300 20000 30000 88/09 91117 91211=
10616,2012,01,01,00,00,AAXX 01001 10616 01050 82704 10088 20083 39546 40140 51006 69941 72162 875// 333 32/// 55300 69927 81701 85702 87604=
10616,2012,01,01,01,00,AAXX 01011 10616 41150 82705 10088 20082 39543 40136 50000 75862 875// 333 55300 83703 85606 87612=
10616,2012,01,01,02,00,AAXX 01021 10616 41158 82505 10089 20083 39545 40138 55000 75866 875// 333 55300 83702 85604 87610=
10616,2012,01,01,03,00,AAXX 01031 10616 21160 82605 10089 20082 39544 40137 56002 75862 875// 333 55300 69937 81703 85605 87614=
10616,2012,01,01,04,00,AAXX 01041 10616 41150 82605 10089 20084 39545 40138 51002 75866 875// 333 55300 82703 87604=
10616,2012,01,01,05,00,AAXX 01051 10616 41150 82605 10091 20085 39547 40140 53002 75822 875// 333 55300 83703 87605=
10616,2012,01,01,06,00,AAXX 01061 10616 01140 82604 10091 20086 39551 40144 53007 60012 75862 875// 333 10092 20078 32008 55000 55300 69937 70024 82702 87604=
10616,2012,01,01,07,00,AAXX 01071 10616 41130 82405 10094 20087 39549 40141 50004 75952 878// 333 55300 81802 83804 87606=
10616,2012,01,01,08,00,AAXX 01081 10616 41132 82505 10094 20089 39553 40146 52006 75966 8752/ 333 55300 82702 85704 87606=
10616,2012,01,01,09,00,AAXX 01091 10616 21130 82505 10095 20089 39553 40145 53002 75965 8752/ 333 20078 3/008 55300 69977 82702 86703 87605 96459=
10616,2012,01,01,10,00,AAXX 01101 10616 41157 82505 10097 20091 39558 40150 53009 75866 8782/ 333 55300 81702 85804 87607 96159=
10616,2012,01,01,11,00,AAXX 01111 10616 41175 72605 10100 20089 39553 40144 50000 72122 878// 333 55300 81802 83804 87608=
10616,2012,01,01,12,00,AAXX 01121 10616 01170 72305 10103 20089 39547 40137 58006 69981 70265 878// 333 32/// 55300 69917 81802 83808 86812 96459=
10616,2012,01,01,13,00,AAXX 01131 10616 41158 82305 10103 20092 39542 40132 57016 75822 8782/ 333 55300 81702 83804 87608=
10616,2012,01,01,14,00,AAXX 01141 10616 41160 82305 10100 20092 39541 40132 56012 72162 878// 333 55300 81703 84805 87608=
10616,2012,01,01,15,00,AAXX 01151 10616 21157 82304 10099 20092 39541 40132 56006 75862 8789/ 333 55300 69927 82702 85804 87608 96359=
10616,2012,01,01,16,00,AAXX 01161 10616 41130 82205 10099 20092 39539 40130 58003 75966 8752/ 333 55300 82702 86705 87609=
10616,2012,01,01,17,00,AAXX 01171 10616 41258 82306 10101 20092 39535 40125 58006 75866 878// 333 55300 82805 87607 87613 96259=
10616,2012,01,01,18,00,AAXX 01181 10616 01256 82306 10102 20093 39530 40119 58011 60012 75862 878// 333 10104 20092 32009 55300 69907 82805 86808 87613 96459=
10616,2012,01,01,19,00,AAXX 01191 10616 41256 82306 10103 20095 39526 40115 57013 75866 887// 333 55300 82705 87707=
10616,2012,01,01,20,00,AAXX 01201 10616 41259 82208 10101 20092 39520 40109 58015 75866 887// 333 55300 82705 87707 91114=
10616,2012,01,01,21,00,AAXX 01211 10616 21259 82307 10102 20091 39512 40100 58018 75866 875// 333 55300 69927 81706 87608 91114=
10616,2012,01,01,22,00,AAXX 01221 10616 41359 82308 10103 20091 39507 40095 56019 72166 875// 333 55300 81707 87609 91115=
10616,2012,01,01,23,00,AAXX 01231 10616 41258 82308 10102 20091 39501 40089 56019 75866 875// 333 55300 81706 87608 91116=
10618,2012,01,01,00,00,AAXX 01001 10618 41457 82305 10096 20089 39695 40143 52007 72065 875// 333 85612 87619=
10618,2012,01,01,01,00,AAXX 01011 10618 41456 82205 10096 20087 39692 40140 50000 75122 885// 333 82710 85615 88625=
10618,2012,01,01,02,00,AAXX 01021 10618 41359 72205 10097 20089 39695 40143 53002 72055 875// 333 84708 85612 87638=
10618,2012,01,01,03,00,AAXX 01031 10618 41358 82105 10098 20089 39695 40143 55000 75152 885// 333 86708 88614=
10618,2012,01,01,04,00,AAXX 01041 10618 41230 82205 10096 20090 39695 40143 51003 75155 886// 333 83705 88707=
10618,2012,01,01,05,00,AAXX 01051 10618 41358 82305 10098 20091 39695 40143 54000 75155 885// 333 86707 88613=
10618,2012,01,01,06,00,AAXX 01061 10618 11350 82306 10098 20092 39697 40145 53002 69932 75152 886// 333 10099 20083 31008 70008 88707=
10618,2012,01,01,07,00,AAXX 01071 10618 41340 82305 10099 20099 39700 40148 53005 75155 886// 333 88707=
10618,2012,01,01,08,00,AAXX 01081 10618 41340 82206 10100 20094 39702 40150 52007 75155 886// 333 88707=
10618,2012,01,01,09,00,AAXX 01091 10618 41240 82206 10101 20095 39704 40152 52007 75155 885// 333 85705 88610=
10618,2012,01,01,10,00,AAXX 01101 10618 41220 82305 10102 20097 39708 40156 52008 75355 885// 333 85705 88610=
10618,2012,01,01,11,00,AAXX 01111 10618 41358 72306 10104 20096 39705 40152 50003 75055 878// 333 85807 87611=
10618,2012,01,01,12,00,AAXX 01121 10618 41350 72306 10105 20096 39699 40146 58005 75155 878// 333 84807 87611=
10618,2012,01,01,13,00,AAXX 01131 10618 41330 82205 10105 20098 39692 40139 57016 75155 888// 333 84807 88611=
10618,2012,01,01,14,00,AAXX 01141 10618 41220 82205 10106 20099 39689 40135 57016 75355 885// 333 86706 88610=
10618,2012,01,01,15,00,AAXX 01151 10618 41230 82205 10106 20098 39689 40135 56010 75355 885// 333 86706 88610=
10618,2012,01,01,16,00,AAXX 01161 10618 41230 82205 10105 20099 39688 40134 57004 75865 885// 333 86706 88610=
10618,2012,01,01,17,00,AAXX 01171 10618 41220 82205 10107 20100 39685 40131 58004 75966 886// 333 88706=
10618,2012,01,01,18,00,AAXX 01181 10618 11320 82205 10107 20100 39682 40128 57007 60032 75865 885// 333 10108 20097 31009 85707 88610=
10618,2012,01,01,19,00,AAXX 01191 10618 41358 82206 10108 20100 39677 40122 57011 75162 885// 333 83707 86610 88616 91114=
10618,2012,01,01,20,00,AAXX 01201 10618 41350 82206 10107 20098 39671 40116 58014 75855 875// 333 83708 87611 91011=
10618,2012,01,01,21,00,AAXX 01211 10618 41350 82208 10108 20097 39663 40108 58019 75165 875// 333 83708 87611 91015 91115=
10618,2012,01,01,22,00,AAXX 01221 10618 41460 82207 10109 20097 39660 40105 56017 75155 885// 333 88611 91013 91115=
10618,2012,01,01,23,00,AAXX 01231 10618 41462 82209 10111 20094 39654 40098 57017 72022 885// 333 88610 91017 91117=
10628,2012,01,01,00,00,AAXX 01001 10628 17500 80801 10053 20049 30001 40138 52001 69981 73065 333 55300 86/22 87/62 88/80=
10628,2012,01,01,01,00,AAXX 01011 10628 47301 82801 10058 20058 30002 40138 52002 73053 333 55300 84/09 88/22 88/32=
10628,2012,01,01,02,00,AAXX 01021 10628 47409 83201 10081 20078 30001 40136 50000 73065 333 55300 81/13 87/37 88/46=
10628,2012,01,01,03,00,AAXX 01031 10628 27401 82901 10071 20066 30003 40139 53002 73065 333 55300 69927 81/15 87/32 88/41=
10628,2012,01,01,04,00,AAXX 01041 10628 47401 83301 10074 20071 30003 40139 53001 73053 333 55300 81/16 88/40 88/64=
10628,2012,01,01,05,00,AAXX 01051 10628 47405 80701 10078 20075 30003 40138 51002 73053 333 55300 82/10 88/21 88/42=
10628,2012,01,01,06,00,AAXX 01061 10628 07404 83601 10084 20081 30005 40140 53002 60012 73065 333 10090 20045 3/004 55000 55300 69907 70058 84/13 88/20 88/60=
10628,2012,01,01,07,00,AAXX 01071 10628 47460 83401 10099 20093 30004 40138 50001 72253 333 55300 88/12=
10628,2012,01,01,08,00,AAXX 01081 10628 45473 81802 10108 20095 30010 40144 53007 333 55300 88/11=
10628,2012,01,01,09,00,AAXX 01091 10628 27486 81501 10108 20097 30010 40144 53005 70053 333 20045 3/004 55300 69907 88/11=
10628,2012,01,01,10,00,AAXX 01101 10628 45484 81401 10113 20100 30014 40148 51010 333 55300 86/13 88/21=
10628,2012,01,01,11,00,AAXX 01111 10628 45586 82102 10121 20105 30010 40143 50000 333 55300 87/20 88/67 88/69=
10628,2012,01,01,12,00,AAXX 01121 10628 17488 82102 10123 20110 30002 40135 58008 69901 70053 333 55300 81/11 87/27 88/61=
10628,2012,01,01,13,00,AAXX 01131 10628 45488 82403 10137 20104 39997 40129 58017 333 55300 85/15 87/20 88/24=
10628,2012,01,01,14,00,AAXX 01141 10628 45488 72305 10136 20102 39994 40126 56016 333 55301 86/14 87/19=
10628,2012,01,01,15,00,AAXX 01151 10628 35488 82204 10128 20105 39994 40127 56008 333 55300 86/12 88/18=
10628,2012,01,01,16,00,AAXX 01161 10628 45488 82203 10123 20105 39995 40128 55002 333 55300 88/15 88/58 88/63=
10628,2012,01,01,17,00,AAXX 01171 10628 47380 82405 10123 20105 39994 40127 50000 72250 333 55300 83/08 87/24 88/61=
10628,2012,01,01,18,00,AAXX 01181 10628 07348 72202 10117 20107 39993 40126 58001 69902 75765 333 10140 20078 3/007 55300 69907 87/06=
10628,2012,01,01,19,00,AAXX 01191 10628 47376 82303 10122 20110 39988 40121 58007 75165 333 55300 88/07=
10628,2012,01,01,20,00,AAXX 01201 10628 47386 72203 10118 20109 39982 40115 58012 72365 333 55300 85/08 87/14 87/24=
10628,2012,01,01,21,00,AAXX 01211 10628 27368 72204 10124 20106 39975 40108 58018 75165 333 55300 69917 87/07 87/15=
10628,2012,01,01,22,00,AAXX 01221 10628 47369 72304 10123 20106 39971 40104 56017 75165 333 55300 87/07=
10628,2012,01,01,23,00,AAXX 01231 10628 47383 72204 10124 20105 39965 40098 56017 75165 333 55300 85/07 87/11=
10635,2012,01,01,00,00,AAXX 01001 10635 07/00 ///05 10059 20059 39164 48439 51005 69991 73065 333 55300 69947=
10635,2012,01,01,01,00,AAXX 01011 10635 47/01 ///06 10060 20060 39164 48439 51003 73053 333 55300=
10635,2012,01,01,02,00,AAXX 01021 10635 47/01 ///05 10060 20060 39164 48439 51001 75165 333 55300=
10635,2012,01,01,03,00,AAXX 01031 10635 27/02 ///05 10059 20059 39166 48441 53002 73065 333 55300 69947=
10635,2012,01,01,04,00,AAXX 01041 10635 47/01 ///05 10061 20061 39168 48443 53004 73033 333 55300=
10635,2012,01,01,05,00,AAXX 01051 10635 47/01 ///05 10064 20064 39167 48443 50003 75153 333 55300=
10635,2012,01,01,06,00,AAXX 01061 10635 07/00 ///04 10062 20062 39170 48445 53004 60012 73065 333 10064 20036 3/003 55000 55300 69907 70073=
10635,2012,01,01,07,00,AAXX 01071 10635 47/00 ///04 10064 20064 39171 48446 53003 73065 333 55300=
10635,2012,01,01,08,00,AAXX 01081 10635 47/00 ///04 10066 20066 39177 48452 53010 76263 333 55300=
10635,2012,01,01,09,00,AAXX 01091 10635 27/00 ///04 10066 20066 39177 48452 51007 73065 333 20036 3/003 55300 60017=
10635,2012,01,01,10,00,AAXX 01101 10635 47/00 ///05 10068 20068 39181 48456 51010 75165 333 55300=
10635,2012,01,01,11,00,AAXX 01111 10635 47/00 ///04 10071 20071 39177 48453 50000 75165 333 55300=
10635,2012,01,01,12,00,AAXX 01121 10635 07/00 ///04 10073 20073 39176 48453 58001 60011 73065 333 55300 69917=
10635,2012,01,01,13,00,AAXX 01131 10635 47/01 ///04 10074 20074 39171 48448 58010 73033 333 55300=
10635,2012,01,01,14,00,AAXX 01141 10635 47/01 ///05 10076 20076 39167 48445 58010 73033 333 55300=
10635,2012,01,01,15,00,AAXX 01151 10635 27/01 ///05 10075 20075 39166 48444 56010 73065 333 55300 69907=
10635,2012,01,01,16,00,AAXX 01161 10635 47/01 ///05 10076 20076 39168 48446 55003 75153 333 55300=
10635,2012,01,01,17,00,AAXX 01171 10635 47/01 ///07 10076 20076 39164 48443 58003 73053 333 55300 91114=
10635,2012,01,01,18,00,AAXX 01181 10635 07/01 ///06 10076 20076 39162 48441 58004 60012 75165 333 10077 20062 3/006 55300 69907 91114=
10635,2012,01,01,19,00,AAXX 01191 10635 47/01 ///07 10077 20077 39157 48437 58011 73065 333 55300 91114=
10635,2012,01,01,20,00,AAXX 01201 10635 47/01 ///08 10077 20077 39155 48435 57009 73053 333 55300 91115=
10635,2012,01,01,21,00,AAXX 01211 10635 27/01 ///07 10078 20078 39148 48429 58014 75265 333 55300 69937 91115=
10635,2012,01,01,22,00,AAXX 01221 10635 47/02 ///07 10077 20077 39144 48425 58013 75765 333 55300 91115=
10635,2012,01,01,23,00,AAXX 01231 10635 47/01 ///06 10076 20076 39138 48420 56017 75165 333 55300 91114=
10637,2012,01,01,00,00,AAXX 01001 10637 01110 82103 10085 20085 30001 40138 55000 69911 71065 885// 333 31/// 55300 69917 83702 87617 96458 96451=
10637,2012,01,01,01,00,AAXX 01011 10637 41132 71903 10090 20085 30003 40140 53003 71022 875// 333 55300 82702 84628 85642=
10637,2012,01,01,02,00,AAXX 01021 10637 41150 71804 10095 20089 30002 40139 50001 72122 875// 333 55300 81703 83621 87645 96010=
10637,2012,01,01,03,00,AAXX 01031 10637 21156 82005 10099 20092 30006 40143 53005 71062 885// 333 55300 69907 82703 85619 87645=
10637,2012,01,01,04,00,AAXX 01041 10637 41156 82004 10099 20093 30005 40142 52002 72152 885// 333 55300 82703 85622 87644 96010=
10637,2012,01,01,05,00,AAXX 01051 10637 41257 82005 10100 20092 30005 40141 51003 75822 885// 333 55300 82704 87623 96010=
10637,2012,01,01,06,00,AAXX 01061 10637 01157 82005 10101 20095 30006 40142 55000 69962 72165 885// 333 10101 20057 31005 55000 55300 69957 70033 82702 83704 86618 96010=
10637,2012,01,01,07,00,AAXX 01071 10637 41258 82007 10105 20098 30006 40142 52001 72122 885// 333 55300 84704 85615 87623=
10637,2012,01,01,08,00,AAXX 01081 10637 41261 82107 10107 20098 30012 40148 53007 72122 885// 333 55300 82704 87623=
10637,2012,01,01,09,00,AAXX 01091 10637 21265 72005 10108 20099 30014 40150 53008 70162 875// 333 20057 3/005 55300 69907 82704 83615 87622=
10637,2012,01,01,10,00,AAXX 01101 10637 41275 82005 10112 20102 30017 40153 51011 76062 885// 333 55300 82704 83707 87617=
10637,2012,01,01,11,00,AAXX 01111 10637 41380 72106 10120 20105 30011 40147 58001 72122 878// 333 55300 81807 84617 87622=
10637,2012,01,01,12,00,AAXX 01121 10637 01382 71906 10119 20105 30007 40143 58007 69901 70262 878// 333 31/// 55300 69907 81807 84616 87634 96460=
10637,2012,01,01,13,00,AAXX 01131 10637 42382 71905 10122 20106 30002 40137 56015 878// 333 55300 81809 87629=
10637,2012,01,01,14,00,AAXX 01141 10637 42382 71804 10123 20106 39998 40133 57013 878// 333 55300 81809 85622 87625=
10637,2012,01,01,15,00,AAXX 01151 10637 32482 71905 10122 20104 30001 40136 55006 878// 333 55300 81810 85617 87621=
10637,2012,01,01,16,00,AAXX 01161 10637 42482 72005 10121 20103 30001 40136 56001 878// 333 55300 81810 85619 87622=
10637,2012,01,01,17,00,AAXX 01171 10637 42482 71905 10121 20103 39998 40133 50000 875// 333 55300 83616 85618 87621=
10637,2012,01,01,18,00,AAXX 01181 10637 01482 71906 10122 20102 39995 40130 58006 69902 76022 875// 333 10126 20101 31009 55300 69907 85615 87620=
10637,2012,01,01,19,00,AAXX 01191 10637 41482 72107 10123 20104 39990 40125 58011 72162 878// 333 55300 81811 87614=
10637,2012,01,01,20,00,AAXX 01201 10637 42486 71906 10127 20103 39988 40123 56010 878// 333 55300 81813 86617 87622=
10637,2012,01,01,22,00,AAXX 01221 10637 41483 72006 10126 20100 39975 40110 58015 76062 875// 333 55300 81616 87633=
10637,2012,01,01,23,00,AAXX 01231 10637 41485 72007 10127 20097 39970 40105 56018 72122 875// 333 55300 81617 87624=
10641,2012,01,01,00,00,AAXX 01001 10641 07313 81702 10091 20085 39993 40139 53003 69921 72065 333 55300 69907 83/06 88/19=
10641,2012,01,01,01,00,AAXX 01011 10641 47309 81602 10092 20085 39991 40137 50001 73030 333 55300 85/07 87/30 88/50=
10641,2012,01,01,02,00,AAXX 01021 10641 47532 82003 10097 20089 39992 40138 51001 72365 333 55300 87/25 88/34=
10641,2012,01,01,03,00,AAXX 01031 10641 27631 82002 10099 20090 39995 40141 53002 71065 333 55300 69907 88/49=
10641,2012,01,01,04,00,AAXX 01041 10641 47331 82003 10101 20093 39995 40140 51004 72365 333 55300 82/07 87/41 88/48=
10641,2012,01,01,05,00,AAXX 01051 10641 47556 82004 10104 20094 39994 40139 50002 75150 333 55300 82/24 87/45 88/61=
10641,2012,01,01,06,00,AAXX 01061 10641 07329 82104 10104 20095 39995 40140 55000 69932 75265 333 10106 20056 3/005 55000 55300 69917 70056 82/07 84/19 88/35=
10641,2012,01,01,07,00,AAXX 01071 10641 47365 82004 10107 20096 39996 40141 53001 75150 333 55300 84/09 87/27 88/38=
10641,2012,01,01,08,00,AAXX 01081 10641 47376 82004 10109 20097 30001 40146 53007 72250 333 55300 84/09 88/19=
10641,2012,01,01,09,00,AAXX 01091 10641 27380 82004 10111 20098 30004 40149 53009 70050 333 20056 3/005 55300 69917 84/08 88/49 88/50=
10641,2012,01,01,10,00,AAXX 01101 10641 45383 82105 10116 20102 30003 40148 50007 333 55300 83/09 88/50 88/56=
10641,2012,01,01,11,00,AAXX 01111 10641 45585 82106 10121 20102 30002 40146 50001 333 55301 83/20 87/29 88/57=
10641,2012,01,01,12,00,AAXX 01121 10641 17488 82106 10122 20104 39997 40141 58007 69911 70050 333 55300 84/10 86/50 88/60=
10641,2012,01,01,13,00,AAXX 01131 10641 45588 72005 10127 20104 39993 40137 58010 333 55301 81/25 87/33=
10641,2012,01,01,14,00,AAXX 01141 10641 45588 72006 10125 20099 39988 40132 57014 333 55300 87/30=
10641,2012,01,01,15,00,AAXX 01151 10641 35588 82006 10126 20100 39990 40134 55007 333 55300 86/25 88/34 88/58=
10641,2012,01,01,16,00,AAXX 01161 10641 45588 82005 10129 20100 39993 40137 55000 333 55300 87/21 88/25=
10641,2012,01,01,17,00,AAXX 01171 10641 47588 81805 10127 20101 39990 40134 50002 72365 333 55300 86/20 88/24=
10641,2012,01,01,18,00,AAXX 01181 10641 07488 81804 10130 20099 39984 40128 58006 69912 70065 333 10131 20104 3/010 55300 69907 88/19=
10641,2012,01,01,19,00,AAXX 01191 10641 47488 81904 10124 20103 39982 40126 56011 72365 333 55300 85/17 88/50 88/56 91113=
10641,2012,01,01,20,00,AAXX 01201 10641 47588 81905 10125 20101 39979 40123 56011 72250 333 55300 87/23 88/32 88/41=
10641,2012,01,01,21,00,AAXX 01211 10641 27588 81805 10126 20100 39970 40114 58014 70065 333 55300 69907 87/27 88/33 91113=
10641,2012,01,01,22,00,AAXX 01221 10641 45582 71904 10126 20097 39967 40111 57015 333 55300 87/25 87/30=
10641,2012,01,01,23,00,AAXX 01231 10641 45588 71906 10130 20097 39961 40104 56018 333 55300 87/25 87/30=
10646,2012,01,01,00,00,AAXX 01001 10646 07/19 /2404 10086 20086 39730 40136 52003 60031 75865 333 55300 60037=
10646,2012,01,01,01,00,AAXX 01011 10646 47/24 /2305 10090 20086 39730 40136 51003 75865 333 55300=
10646,2012,01,01,02,00,AAXX 01021 10646 47261 82305 10093 20087 39732 40137 53002 72365 333 55300 87/05 87/12 88/23=
10646,2012,01,01,03,00,AAXX 01031 10646 27260 72404 10096 20089 39733 40138 53003 72365 333 55300 60027 87/06 87/18 87/25=
10646,2012,01,01,04,00,AAXX 01041 10646 47346 82404 10095 20087 39733 40138 51003 75165 333 55300 87/06 88/14 88/22=
10646,2012,01,01,05,00,AAXX 01051 10646 47259 82405 10096 20089 39735 40140 53003 72365 333 55300 87/05 88/13=
10646,2012,01,01,06,00,AAXX 01061 10646 07358 82205 10097 20089 39735 40140 52002 60052 70065 333 10098 20031 3/003 55000 55300 69927 70097 88/07 88/24=
10646,2012,01,01,07,00,AAXX 01071 10646 47361 82305 10099 20092 39736 40141 51003 75165 333 55300 87/06 88/12=
10646,2012,01,01,08,00,AAXX 01081 10646 47245 72205 10100 20093 39742 40147 53007 75265 333 55300 86/06 87/11=
10646,2012,01,01,09,00,AAXX 01091 10646 27340 82306 10104 20096 39742 40146 51007 75865 333 20031 3/003 55300 60017 88/07=
10646,2012,01,01,10,00,AAXX 01101 10646 47350 82206 10103 20095 39745 40149 51009 75765 333 55300 88/06=
10646,2012,01,01,11,00,AAXX 01111 10646 47386 72306 10106 20094 39744 40148 50002 72365 333 55300 87/08=
10646,2012,01,01,12,00,AAXX 01121 10646 07363 82305 10107 20096 39741 40145 58001 60021 75765 333 55300 69977 88/08=
10646,2012,01,01,13,00,AAXX 01131 10646 47488 82204 10112 20096 39735 40138 58010 72365 333 55300 87/10 87/16 88/23=
10646,2012,01,01,14,00,AAXX 01141 10646 45488 72305 10111 20093 39735 40138 56009 333 55300 87/12 87/18 87/23=
10646,2012,01,01,15,00,AAXX 01151 10646 27488 72203 10108 20092 39737 40140 55004 70065 333 55300 69917 87/12=
10646,2012,01,01,16,00,AAXX 01161 10646 47484 82004 10107 20093 39736 40140 50001 72250 333 55300 88/10=
10646,2012,01,01,17,00,AAXX 01171 10646 45388 82206 10108 20095 39735 40138 50000 333 55300 88/09=
10646,2012,01,01,18,00,AAXX 01181 10646 07488 72206 10111 20095 39731 40134 58006 60022 70065 333 10113 20095 3/009 55300 69907 87/10=
10646,2012,01,01,19,00,AAXX 01191 10646 47366 82207 10110 20097 39728 40131 58008 76160 333 55300 88/08=
10646,2012,01,01,20,00,AAXX 01201 10646 47381 82308 10112 20097 39725 40127 56010 72365 333 55300 88/08=
10646,2012,01,01,21,00,AAXX 01211 10646 27388 82308 10115 20097 39718 40120 58013 70065 333 55300 69937 84/08 88/20 88/27 91114=
10646,2012,01,01,22,00,AAXX 01221 10646 45488 82206 10112 20093 39712 40114 58016 333 55300 87/14 88/62 88/64 91113=
10646,2012,01,01,23,00,AAXX 01231 10646 45488 82307 10117 20092 39709 40110 56016 333 55300 87/11 88/16=
10648,2012,01,01,00,00,AAXX 01001 10648 07214 82505 10084 20082 39600 40139 53004 60041 75165 333 55/// 20104 30104 55300 20000 30000 60027 87/03 88/07=
10648,2012,01,01,01,00,AAXX 01011 10648 47256 72505 10087 20087 39601 40140 51005 72250 333 55300 20000 30000 87/04=
10648,2012,01,01,02,00,AAXX 01021 10648 47230 82506 10089 20086 39604 40142 53005 75165 333 55300 20000 30000 87/03 88/08=
10648,2012,01,01,03,00,AAXX 01031 10648 27250 82405 10089 20084 39603 40141 50003 72365 333 55300 20000 30000 69937 82/04 86/18 88/44=
10648,2012,01,01,04,00,AAXX 01041 10648 47259 82406 10090 20085 39603 40141 51002 75165 333 55300 20000 30000 87/06 88/19 88/39=
10648,2012,01,01,05,00,AAXX 01051 10648 47367 82306 10090 20084 39606 40144 53002 72365 333 55300 20000 30000 83/09 86/28 88/36=
10648,2012,01,01,06,00,AAXX 01061 10648 07333 82306 10091 20086 39607 40145 53004 60052 75365 333 10092 20059 3/006 55000 55300 20000 30000 69917 70081 87/06 88/11=
10648,2012,01,01,07,00,AAXX 01071 10648 47250 82306 10092 20089 39609 40147 51006 75865 333 55300 20000 30000 87/04 88/08=
10648,2012,01,01,08,00,AAXX 01081 10648 47259 72106 10093 20089 39612 40150 53006 75165 333 55300 20000 30000 87/05=
10648,2012,01,01,09,00,AAXX 01091 10648 27250 82307 10095 20090 39614 40152 52007 72265 333 20059 3/006 55300 20042 30042 69987 87/05 88/10=
10648,2012,01,01,10,00,AAXX 01101 10648 47270 72307 10095 20095 39617 40155 52008 72365 333 55300 20075 30075 87/05 87/10=
10648,2012,01,01,11,00,AAXX 01111 10648 45276 82307 10098 20092 39616 40153 50004 333 55300 20109 30109 88/06=
10648,2012,01,01,12,00,AAXX 01121 10648 07383 82306 10100 20093 39612 40149 58002 60011 72365 333 55300 20219 30219 69957 86/06 88/13=
10648,2012,01,01,13,00,AAXX 01131 10648 47388 82305 10099 20091 39607 40144 58010 72365 333 55300 20136 30136 84/08 87/13 88/23=
10648,2012,01,01,14,00,AAXX 01141 10648 47382 82307 10100 20092 39604 40140 56012 72365 333 55300 20116 30116 86/09 87/13 88/20=
10648,2012,01,01,15,00,AAXX 01151 10648 27386 82206 10100 20092 39605 40141 55007 70065 333 55300 20060 30060 69907 87/08 87/13 88/20=
10648,2012,01,01,16,00,AAXX 01161 10648 47259 82107 10099 20093 39607 40144 55000 75150 333 55300 20005 30005 87/06 88/11=
10648,2012,01,01,17,00,AAXX 01171 10648 47485 72207 10100 20091 39605 40141 50001 72365 333 55300 20000 30000 87/11 91113=
10648,2012,01,01,18,00,AAXX 01181 10648 07388 82107 10102 20093 39602 40138 58003 60012 70065 333 10103 20089 3/008 55300 20000 30000 69917 87/08 88/11 91113=
10648,2012,01,01,19,00,AAXX 01191 10648 45388 82108 10104 20093 39598 40133 58009 333 55300 20000 30000 87/09 88/13 91113=
10648,2012,01,01,20,00,AAXX 01201 10648 45471 72207 10103 20092 39595 40130 57010 333 55300 20000 30000 87/12 91114=
10648,2012,01,01,21,00,AAXX 01211 10648 35488 82207 10104 20090 39588 40123 58014 333 55300 20000 30000 85/13 87/18 88/23 91114=
10648,2012,01,01,22,00,AAXX 01221 10648 45588 82208 10108 20088 39585 40119 57013 333 55300 20000 30000 86/20 87/24 88/30 91113=
10648,2012,01,01,23,00,AAXX 01231 10648 47488 72208 10105 20087 39581 40115 56014 75165 333 55300 20000 30000 87/18 91114=
10655,2012,01,01,00,00,AAXX 01001 10655 01358 82002 10076 20076 39815 40143 53003 69931 75865 875// 333 31/// 55/// 20102 30100 55300 20000 30000 69937 83707 85612 87630=
10655,2012,01,01,01,00,AAXX 01011 10655 41358 82403 10081 20078 39814 40141 50001 75862 875// 333 55300 20000 30000 83707 85612 87633=
10655,2012,01,01,02,00,AAXX 01021 10655 41358 82303 10082 20080 39818 40145 53005 75162 875// 333 55300 20000 30000 83708 84620 87635=
10655,2012,01,01,03,00,AAXX 01031 10655 21358 82402 10087 20085 39816 40142 50001 75162 875// 333 55300 20000 30000 69917 83708 83620 87640=
10655,2012,01,01,04,00,AAXX 01041 10655 41362 72102 10086 20086 39817 40144 51003 72052 875// 333 55300 20000 30000 83708 83620 87650=
10655,2012,01,01,05,00,AAXX 01051 10655 41463 72303 10091 20088 39820 40146 53002 72022 875// 333 55300 20000 30000 82710 83620 87635=
10655,2012,01,01,06,00,AAXX 01061 10655 01470 72203 10094 20089 39820 40146 51004 69942 70265 875// 333 10094 20041 31003 55000 55300 20000 30000 69907 70022 82710 84620 87650=
10655,2012,01,01,07,00,AAXX 01071 10655 41470 82304 10097 20090 39823 40148 52006 72022 886// 333 55300 20000 30000 88710=
10655,2012,01,01,08,00,AAXX 01081 10655 41475 82404 10101 20092 39827 40152 53007 72122 875// 333 55300 20021 30021 84712 86650=
10655,2012,01,01,09,00,AAXX 01091 10655 21381 82303 10104 20095 39830 40155 52010 76065 875// 333 20041 3/003 55300 20087 30085 69907 84709 86630=
10655,2012,01,01,10,00,AAXX 01101 10655 41482 82505 10111 20097 39831 40155 51008 72122 875// 333 55300 20242 30235 84615 86626=
10655,2012,01,01,11,00,AAXX 01111 10655 42483 82506 10115 20098 39830 40154 50003 875// 333 55300 20259 30253 84613 86626=
10655,2012,01,01,12,00,AAXX 01121 10655 01483 82607 10119 20100 39825 40148 58005 69901 70265 875// 333 31/// 55300 20354 30349 69907 83616 87623=
10655,2012,01,01,13,00,AAXX 01131 10655 42485 82405 10120 20101 39821 40144 58010 878// 333 55300 20387 30379 82816 87623=
10655,2012,01,01,14,00,AAXX 01141 10655 42485 82305 10118 20099 39822 40145 55008 878// 333 55300 20297 30291 84816 86623=
10655,2012,01,01,15,00,AAXX 01151 10655 21481 82305 10114 20100 39824 40147 55001 72122 878// 333 55300 20090 30089 69907 84815 86621=
10655,2012,01,01,16,00,AAXX 01161 10655 42482 82304 10113 20097 39824 40148 51003 878// 333 55300 20016 30016 83816 87633=
10655,2012,01,01,17,00,AAXX 01171 10655 41485 72406 10113 20096 39823 40147 50001 72122 878// 333 55300 20000 30000 83816 85657=
10655,2012,01,01,18,00,AAXX 01181 10655 01485 72307 10111 20097 39820 40144 58004 69902 70262 878// 333 10122 20092 31008 55300 20000 30000 69907 84814 85626=
10655,2012,01,01,19,00,AAXX 01191 10655 41482 72306 10109 20099 39820 40144 56004 72122 878// 333 55300 20000 30000 83810 86626=
10655,2012,01,01,20,00,AAXX 01201 10655 41483 72306 10110 20100 39814 40138 58009 72122 878// 333 55300 20000 30000 82810 83621 85640=
10655,2012,01,01,21,00,AAXX 01211 10655 21582 82104 10107 20093 39811 40135 58009 70362 8557/ 333 55300 20000 30000 69907 85627 87359=
10655,2012,01,01,22,00,AAXX 01221 10655 42586 82004 10105 20090 39803 40127 58017 875// 333 55300 20000 30000 87630=
10655,2012,01,01,23,00,AAXX 01231 10655 42586 82307 10115 20088 39798 40121 58016 875// 333 55300 20000 30000 85623 85636=
10658,2012,01,01,00,00,AAXX 01001 10658 07001 71701 10033 20033 39798 40143 51003 69921 75165 333 55300 69927 87/00=
10658,2012,01,01,01,00,AAXX 01011 10658 47001 81902 10034 20034 39797 40142 50000 75165 333 55300 87/00 88/07=
10658,2012,01,01,02,00,AAXX 01021 10658 47002 71801 10039 20039 39799 40143 53002 75253 333 55300 82/00 87/04=
10658,2012,01,01,03,00,AAXX 01031 10658 27202 81502 10040 20040 39798 40142 54000 75165 333 55300 60017 88/03=
10658,2012,01,01,04,00,AAXX 01041 10658 47001 81802 10040 20040 39798 40142 51001 75153 333 55300 85/00 88/08 88/13=
10658,2012,01,01,05,00,AAXX 01051 10658 47203 81902 10046 20046 39800 40143 53001 73053 333 55300 88/05 88/46=
10658,2012,01,01,06,00,AAXX 01061 10658 07310 81903 10054 20054 39798 40140 50000 60012 72065 333 10067 20021 3/002 55000 55300 69907 70032 87/06 87/14 88/43=
10658,2012,01,01,07,00,AAXX 01071 10658 47213 81803 10065 20065 39801 40142 53003 75153 333 55300 85/05 87/13 88/23=
10658,2012,01,01,08,00,AAXX 01081 10658 47340 82003 10072 20072 39805 40145 53005 72253 333 55300 85/07 87/12 88/19=
10658,2012,01,01,09,00,AAXX 01091 10658 27441 72004 10090 20090 39807 40144 51009 75865 333 20021 3/002 55300 69947 83/12 86/18 87/36=
10658,2012,01,01,10,00,AAXX 01101 10658 47456 82006 10099 20093 39808 40144 51007 76265 333 55300 85/12 87/31 88/58=
10658,2012,01,01,11,00,AAXX 01111 10658 47361 72105 10106 20100 39805 40140 50000 75165 333 55300 81/06 85/11 87/39=
10658,2012,01,01,12,00,AAXX 01121 10658 07488 82306 10111 20099 39804 40139 58003 60011 72365 333 55300 69987 87/13 88/50 88/57=
10658,2012,01,01,13,00,AAXX 01131 10658 47488 82205 10112 20099 39801 40136 57007 72365 333 55300 84/13 87/18 88/38=
10658,2012,01,01,14,00,AAXX 01141 10658 45488 81804 10111 20099 39798 40133 58007 333 55300 86/12 87/17 88/23=
10658,2012,01,01,15,00,AAXX 01151 10658 27484 71904 10113 20096 39802 40137 55002 72265 333 55300 69907 87/18 87/25=
10658,2012,01,01,16,00,AAXX 01161 10658 45488 81905 10111 20093 39801 40136 55000 333 55300 87/19 88/24=
10658,2012,01,01,17,00,AAXX 01171 10658 47459 82006 10106 20097 39801 40136 51003 75165 333 55300 86/13 87/19 88/34=
10658,2012,01,01,18,00,AAXX 01181 10658 07387 82007 10106 20096 39796 40131 58006 60012 72365 333 10115 20052 3/005 55300 69907 83/09 87/15 88/21=
10658,2012,01,01,19,00,AAXX 01191 10658 45488 82007 10109 20096 39795 40130 58006 333 55300 88/15=
10658,2012,01,01,20,00,AAXX 01201 10658 47450 71806 10106 20099 39792 40127 56009 75865 333 55300 87/11 87/16=
10658,2012,01,01,21,00,AAXX 01211 10658 27378 81906 10107 20100 39786 40121 58010 75165 333 55300 69947 82/09 87/17 88/21=
10658,2012,01,01,22,00,AAXX 01221 10658 47488 81906 10109 20098 39779 40113 58016 72250 333 55300 86/13 87/19 88/31=
10658,2012,01,01,23,00,AAXX 01231 10658 45488 82009 10111 20092 39772 40106 58020 333 55300 84/15 86/21 88/27=
10671,2012,01,01,00,00,AAXX 01001 10671 07216 80402 10019 20017 39727 40150 53002 69981 75165 333 55/// 20101 30100 55300 20000 30000 69957 88/04=
10671,2012,01,01,01,00,AAXX 01011 10671 47214 80502 10019 20018 39727 40150 52002 75165 333 55300 20000 30000 88/04=
10671,2012,01,01,02,00,AAXX 01021 10671 47210 80502 10021 20019 39727 40150 51002 75865 333 55300 20000 30000 88/03=
10671,2012,01,01,03,00,AAXX 01031 10671 27211 80303 10020 20018 39727 40150 54000 75365 333 55300 20000 30000 69977 88/04=
10671,2012,01,01,04,00,AAXX 01041 10671 47223 80202 10023 20021 39727 40150 54000 72365 333 55300 20000 30000 88/04=
10671,2012,01,01,05,00,AAXX 01051 10671 47116 80402 10023 20020 39728 40151 53001 75250 333 55300 20000 30000 88/03=
10671,2012,01,01,06,00,AAXX 01061 10671 07/03 /0402 10025 20025 39731 40153 53004 60022 73065 333 10029 20015 3/002 55000 55300 20000 30000 69927 70034=
10671,2012,01,01,07,00,AAXX 01071 10671 47/04 /0102 10038 20038 39730 40150 50003 73033 333 55300 20000 30000=
10671,2012,01,01,08,00,AAXX 01081 10671 47/05 /0201 10035 20035 39734 40155 53006 75165 333 55300 20000 30000=
10671,2012,01,01,09,00,AAXX 01091 10671 27221 73401 10052 20052 39735 40153 53004 76265 333 20015 3/002 55300 20012 30012 69917 87/03=
10671,2012,01,01,10,00,AAXX 01101 10671 47217 82501 10066 20066 39736 40152 51006 76165 333 55300 20055 30055 88/04=
10671,2012,01,01,11,00,AAXX 01111 10671 47260 72305 10091 20091 39733 40145 58001 76165 333 55300 20086 30086 87/05=
10671,2012,01,01,12,00,AAXX 01121 10671 07281 82405 10096 20096 39731 40142 58004 69991 72365 333 55300 20084 30084 69987 88/06=
10671,2012,01,01,13,00,AAXX 01131 10671 45383 82405 10101 20093 39730 40140 56006 333 55300 20080 30080 87/08 88/11=
10671,2012,01,01,14,00,AAXX 01141 10671 45485 72304 10102 20094 39728 40138 57005 333 55300 20077 30077 87/11=
10671,2012,01,01,15,00,AAXX 01151 10671 35482 82303 10100 20093 39728 40138 56003 333 55300 20018 30018 87/12 87/17 88/22=
10671,2012,01,01,16,00,AAXX 01161 10671 47483 82305 10102 20095 39733 40143 53003 72250 333 55300 20000 30000 85/10 88/15=
10671,2012,01,01,17,00,AAXX 01171 10671 45480 82204 10101 20092 39733 40143 52005 333 55300 20000 30000 87/11 88/16=
10671,2012,01,01,18,00,AAXX 01181 10671 07388 82104 10100 20093 39732 40142 50004 60012 72365 333 10103 20025 3/003 55300 20000 30000 69917 87/09 88/14=
10671,2012,01,01,19,00,AAXX 01191 10671 45485 82105 10103 20092 39728 40138 58005 333 55300 20000 30000 88/10=
10671,2012,01,01,20,00,AAXX 01201 10671 45382 82106 10102 20093 39725 40135 58008 333 55300 20000 30000 88/09=
10671,2012,01,01,21,00,AAXX 01211 10671 27481 82005 10100 20091 39719 40129 58013 72250 333 55300 20000 30000 69907 88/10=
10671,2012,01,01,22,00,AAXX 01221 10671 45482 82205 10106 20092 39712 40121 58016 333 55300 20000 30000 88/12=
10671,2012,01,01,23,00,AAXX 01231 10671 45483 82006 10098 20088 39705 40115 58020 333 55300 20000 30000 87/19 88/28=
10675,2012,01,01,00,00,AAXX 01001 10675 07109 81502 10041 20036 39854 40149 53001 69931 75150 333 55/// 20122 30122 55300 20000 30000 69917 86/01 88/08=
10675,2012,01,01,01,00,AAXX 01011 10675 47004 71701 10044 20039 39853 40148 50000 75165 333 55300 20000 30000 84/00 87/09=
10675,2012,01,01,02,00,AAXX 01021 10675 47/03 /1701 10047 20042 39855 40149 53002 75865 333 55300 20000 30000=
10675,2012,01,01,03,00,AAXX 01031 10675 27/02 /1601 10052 20048 39854 40148 54000 73065 333 55300 20000 30000 69937=
10675,2012,01,01,04,00,AAXX 01041 10675 47403 71502 10055 20055 39856 40149 52003 73053 333 55300 20000 30000 87/10 87/14 87/24=
10675,2012,01,01,05,00,AAXX 01051 10675 47307 81603 10062 20058 39858 40151 53003 75165 333 55300 20000 30000 88/08=
10675,2012,01,01,06,00,AAXX 01061 10675 07417 81602 10070 20066 39861 40153 53007 69972 72265 333 10070 20026 3/003 55000 55300 20000 30000 69917 70026 87/11 87/21 88/36=
10675,2012,01,01,07,00,AAXX 01071 10675 47457 81703 10080 20076 39861 40152 51005 72365 333 55300 20000 30000 88/11 88/44=
10675,2012,01,01,08,00,AAXX 01081 10675 47341 81503 10088 20082 39867 40157 53009 75165 333 55300 20000 30000 85/09 87/13 88/33=
10675,2012,01,01,09,00,AAXX 01091 10675 27482 81903 10098 20089 39869 40158 53008 72265 333 20026 3/003 55300 20035 30035 69917 88/11=
10675,2012,01,01,10,00,AAXX 01101 10675 47488 81902 10104 20093 39869 40157 51008 72365 333 55300 20084 30084 88/11=
10675,2012,01,01,11,00,AAXX 01111 10675 45488 82204 10110 20094 39866 40154 58001 333 55300 20186 30186 88/13=
10675,2012,01,01,12,00,AAXX 01121 10675 07488 72104 10112 20094 39865 40152 58004 69931 70065 333 55300 20192 30192 69927 87/13=
10675,2012,01,01,13,00,AAXX 01131 10675 45488 82203 10115 20093 39863 40150 56006 333 55300 20121 30121 88/14=
10675,2012,01,01,14,00,AAXX 01141 10675 45488 72004 10117 20094 39859 40146 58007 333 55300 20104 30104 87/14 87/22=
10675,2012,01,01,15,00,AAXX 01151 10675 35488 82204 10118 20092 39862 40149 55003 333 55300 20062 30062 82/14 88/32 88/48=
10675,2012,01,01,16,00,AAXX 01161 10675 47388 82004 10110 20093 39865 40153 53002 72250 333 55300 20003 30003 82/09 87/13 88/42=
10675,2012,01,01,17,00,AAXX 01171 10675 47488 71903 10106 20091 39865 40153 51006 72250 333 55300 20000 30000 84/17 87/35 87/57=
10675,2012,01,01,18,00,AAXX 01181 10675 07388 71703 10104 20091 39865 40153 51003 69942 72365 333 10118 20068 3/006 55300 20000 30000 69917 82/09 87/20 87/38=
10675,2012,01,01,19,00,AAXX 01191 10675 45481 81603 10100 20087 39862 40151 58003 333 55300 20000 30000 85/13 88/19=
10675,2012,01,01,20,00,AAXX 01201 10675 45481 81504 10101 20087 39859 40147 58006 333 55300 20000 30000 88/11 88/27=
10675,2012,01,01,21,00,AAXX 01211 10675 35581 81604 10095 20081 39854 40143 58011 333 55300 20000 30000 85/29 87/50 88/59=
10675,2012,01,01,22,00,AAXX 01221 10675 45583 81403 10096 20082 39847 40136 58015 333 55300 20000 30000 88/26 88/64=
10675,2012,01,01,23,00,AAXX 01231 10675 45584 81605 10093 20076 39841 40130 58018 333 55300 20000 30000 87/28 87/57 88/65=
10685,2012,01,01,00,00,AAXX 01001 10685 07109 81501 10009 20006 39461 40147 53004 69981 75176 333 4/006 55/// 20237 30237 55300 20000 30000 69927 86/02 87/10 88/15=
10685,2012,01,01,01,00,AAXX 01011 10685 47150 82201 10018 20015 39460 40143 50004 75153 333 4/005 55300 20000 30000 88/02=
10685,2012,01,01,02,00,AAXX 01021 10685 47169 82202 10025 20025 39461 40143 51002 72250 333 4/005 55300 20000 30000 81/02 87/22 88/31=
10685,2012,01,01,03,00,AAXX 01031 10685 27257 82201 10026 20026 39462 40143 53001 75253 333 4/004 55300 20000 30000 69907 87/04 88/13 88/34=
10685,2012,01,01,04,00,AAXX 01041 10685 47257 72203 10031 20029 39462 40142 51002 72365 333 4/004 55300 20000 30000 85/06 86/11 87/25=
10685,2012,01,01,05,00,AAXX 01051 10685 41140 82301 10031 20030 39465 40145 53004 72162 885// 333 4/003 55300 20000 30000 85703 87613 96010=
10685,2012,01,01,06,00,AAXX 01061 10685 01112 80701 10028 20026 39469 40150 53007 60012 75065 887// 333 10034 20003 3/100 44007 55000 55300 20000 30000 69957 70020 88702 96010 96460=
10685,2012,01,01,07,00,AAXX 01071 10685 41003 81401 10031 20030 39469 40150 51007 74454 886// 333 4/003 55300 20000 30000 88701=
10685,2012,01,01,08,00,AAXX 01081 10685 41011 81902 10044 20044 39471 40148 51006 72822 886// 333 4/002 55300 20006 30006 88701 96010=
10685,2012,01,01,09,00,AAXX 01091 10685 21145 82303 10056 20055 39473 40147 53004 75154 887// 333 20003 3/100 4/002 55300 20086 30086 69907 88703 96010=
10685,2012,01,01,10,00,AAXX 01101 10685 41142 82304 10063 20062 39474 40146 51005 75152 887// 333 4/001 55300 20084 30084 88702=
10685,2012,01,01,11,00,AAXX 01111 10685 41160 82305 10073 20071 39470 40139 58001 75055 887// 333 4/001 55300 20146 30145 88703=
10685,2012,01,01,12,00,AAXX 01121 10685 01145 82307 10081 20078 39467 40134 58006 69961 76154 887// 333 31/// 41998 55300 20188 30188 69967 85703 88709 96451 96446=
10685,2012,01,01,13,00,AAXX 01131 10685 41240 82405 10083 20079 39469 40136 55005 76166 887// 333 55300 20098 30098 88705=
10685,2012,01,01,14,00,AAXX 01141 10685 41260 82403 10087 20081 39472 40138 53002 76066 885// 333 55300 20106 30106 84705 87612=
10685,2012,01,01,15,00,AAXX 01151 10685 21225 82304 10086 20081 39471 40137 50004 75866 887// 333 55300 20035 30035 69927 88705=
10685,2012,01,01,16,00,AAXX 01161 10685 41225 82103 10085 20079 39473 40140 51004 75165 877// 333 55300 20000 30000 87704=
10685,2012,01,01,17,00,AAXX 01171 10685 41230 82304 10085 20080 39475 40142 53003 75865 877// 333 55300 20000 30000 87705=
10685,2012,01,01,18,00,AAXX 01181 10685 01260 82205 10087 20081 39477 40143 52006 60012 76065 885// 333 10088 20028 31001 55300 20000 30000 69957 85705 87612=
10685,2012,01,01,19,00,AAXX 01191 10685 41245 82004 10088 20081 39470 40136 58003 75866 877// 333 55300 20000 30000 87706=
10685,2012,01,01,20,00,AAXX 01201 10685 41245 82104 10088 20082 39468 40133 58007 75866 877// 333 55300 20000 30000 87705=
10685,2012,01,01,22,00,AAXX 01221 10685 47221 72005 10086 20081 39462 40127 55008 75865 333 55300 20000 30000 87/04=
10685,2012,01,01,23,00,AAXX 01231 10685 47382 82105 10091 20080 39452 40116 58016 72365 333 55300 20000 30000 88/07=
10686,2012,01,01,00,00,AAXX 01001 10686 07/21 /2205 10008 20008 39399 40150 52003 69911 75265 333 4/004 55300 69907=
10686,2012,01,01,01,00,AAXX 01011 10686 47256 82305 10021 20021 39400 40148 52003 72365 333 4/004 55300 87/05 88/38 88/65=
10686,2012,01,01,02,00,AAXX 01021 10686 47/04 /2303 10015 20015 39403 40153 53005 75250 333 4/003 55300=
10686,2012,01,01,03,00,AAXX 01031 10686 27/41 /2205 10018 20018 39404 40153 52005 75165 333 4/003 55300 69907=
10686,2012,01,01,04,00,AAXX 01041 10686 47/32 /2205 10016 20016 39402 40151 50002 75255 333 4/002 55300=
10686,2012,01,01,05,00,AAXX 01051 10686 47/50 /2305 10022 20022 39407 40155 53004 75255 333 4/002 55300=
10686,2012,01,01,06,00,AAXX 01061 10686 07/23 /2204 10034 20034 39409 40153 53005 69932 75365 333 10035 21006 3/101 4/001 55000 55300 69927 70010=
10686,2012,01,01,07,00,AAXX 01071 10686 47/15 /2104 10039 20039 39409 40152 51007 75165 333 4/001 55300=
10686,2012,01,01,08,00,AAXX 01081 10686 47150 72103 10045 20045 39414 40156 53007 72250 333 4/001 55300 83/02 86/06 87/11=
10686,2012,01,01,09,00,AAXX 01091 10686 27/26 /1702 10051 20051 39413 40153 50004 75265 333 21006 3/101 4/001 55300 69937=
10686,2012,01,01,10,00,AAXX 01101 10686 47058 72404 10066 20066 39416 40152 51007 72250 333 55300 87/01 87/04=
10686,2012,01,01,11,00,AAXX 01111 10686 47266 72305 10071 20071 39413 40147 58001 75165 333 55300 87/04 87/09=
10686,2012,01,01,12,00,AAXX 01121 10686 07178 72405 10074 20073 39411 40144 58002 69981 75165 333 55300 69957 87/02=
10686,2012,01,01,13,00,AAXX 01131 10686 47/33 /2406 10075 20075 39412 40145 55004 75865 333 55300=
10686,2012,01,01,14,00,AAXX 01141 10686 47131 72205 10077 20076 39415 40147 53002 75865 333 55300 86/02 87/06 87/10=
10686,2012,01,01,15,00,AAXX 01151 10686 27280 82306 10081 20080 39414 40145 50003 75165 333 55300 60017 88/03=
10686,2012,01,01,16,00,AAXX 01161 10686 47250 82305 10078 20076 39414 40146 51002 75865 333 55300 85/05 87/11 88/16=
10686,2012,01,01,17,00,AAXX 01171 10686 47/57 /2406 10079 20076 39418 40150 53003 75865 333 55300=
10686,2012,01,01,18,00,AAXX 01181 10686 07271 82306 10081 20078 39419 40151 53005 60032 75165 333 10083 20033 3/002 55300 60017 88/04=
10686,2012,01,01,19,00,AAXX 01191 10686 47250 82204 10080 20077 39415 40147 50001 75265 333 55300 88/04=
10686,2012,01,01,20,00,AAXX 01201 10686 47/64 /2208 10078 20077 39411 40143 58007 72250 333 55300=
10686,2012,01,01,21,00,AAXX 01211 10686 27/27 /2207 10076 20076 39410 40142 56009 75365 333 55300 69937=
10686,2012,01,01,22,00,AAXX 01221 10686 47266 72105 10079 20078 39407 40138 56008 72365 333 55300 87/04=
10686,2012,01,01,23,00,AAXX 01231 10686 47260 72104 10076 20075 39399 40130 58012 72365 333 55300 87/04 87/07=
10688,2012,01,01,00,00,AAXX 01001 10688 07216 71602 10012 20010 39627 40160 51003 60011 75876 333 4/001 55/// 20139 30139 55300 20000 30000 69977 85/04 87/23 87/31=
10688,2012,01,01,01,00,AAXX 01011 10688 47/17 /1602 10015 20015 39629 40162 53003 75265 333 4/001 55300 20000 30000=
10688,2012,01,01,02,00,AAXX 01021 10688 47236 71502 10017 20015 39632 40165 53006 75165 333 55300 20000 30000 87/04=
10688,2012,01,01,03,00,AAXX 01031 10688 27216 71702 10020 20018 39630 40162 50003 75265 333 55300 20000 30000 69987 85/04 86/24 87/35=
10688,2012,01,01,04,00,AAXX 01041 10688 47230 71702 10024 20022 39630 40161 51001 76265 333 55300 20000 30000 86/04 87/22 87/29=
10688,2012,01,01,05,00,AAXX 01051 10688 47217 71602 10031 20028 39634 40164 53002 75365 333 55300 20000 30000 87/04=
10688,2012,01,01,06,00,AAXX 01061 10688 07224 71702 10039 20036 39635 40163 53005 60032 75165 333 10040 20004 3/000 55000 55300 20000 30000 60017 70046 87/04 87/34=
10688,2012,01,01,07,00,AAXX 01071 10688 47260 71803 10054 20051 39637 40162 51007 72365 333 55300 20000 30000 86/06 87/42 87/50=
10688,2012,01,01,08,00,AAXX 01081 10688 47257 71603 10053 20050 39641 40167 53007 72365 333 55300 20000 30000 86/06 87/11 87/42=
10688,2012,01,01,09,00,AAXX 01091 10688 27256 81604 10059 20055 39643 40168 52008 72365 333 20004 3/000 55300 20027 30027 69937 82/05 87/13 88/49=
10688,2012,01,01,10,00,AAXX 01101 10688 47240 71703 10059 20055 39645 40170 51008 75165 333 55300 20055 30054 87/04=
10688,2012,01,01,11,00,AAXX 01111 10688 47234 81804 10071 20068 39642 40164 50001 72250 333 55300 20127 30127 85/06 87/28 88/47=
10688,2012,01,01,12,00,AAXX 01121 10688 07225 82004 10074 20071 39639 40160 58004 69971 75165 333 55300 20090 30090 69947 85/05 87/41 88/49=
10688,2012,01,01,13,00,AAXX 01131 10688 47217 82103 10082 20079 39639 40159 56006 75355 333 55300 20126 30125 83/06 87/28 88/50=
10688,2012,01,01,14,00,AAXX 01141 10688 47248 82104 10089 20087 39641 40159 55001 75150 333 55300 20110 30110 83/05 87/12 88/39=
10688,2012,01,01,15,00,AAXX 01151 10688 27250 72004 10088 20085 39640 40158 50001 75150 333 55300 20049 30049 69947 86/05 87/23 87/38=
10688,2012,01,01,16,00,AAXX 01161 10688 47250 72104 10087 20085 39641 40160 51002 75165 333 55300 20003 30003 84/06 87/23 87/35=
10688,2012,01,01,17,00,AAXX 01171 10688 47362 72003 10088 20085 39646 40165 53005 72365 333 55300 20000 30000 86/07 87/11 87/24=
10688,2012,01,01,18,00,AAXX 01181 10688 07359 82003 10086 20086 39646 40165 51006 60022 75165 333 10089 20038 3/004 55300 20000 30000 69967 81/07 87/26 88/50=
10688,2012,01,01,19,00,AAXX 01191 10688 47463 81904 10086 20086 39642 40161 50001 72250 333 55300 20000 30000 84/11 87/29 88/43=
10688,2012,01,01,20,00,AAXX 01201 10688 45574 51804 10085 20085 39640 40159 58006 333 55300 20000 30000 83/22 85/33=
10688,2012,01,01,21,00,AAXX 01211 10688 27479 81803 10086 20081 39637 40156 56009 70050 333 55300 20000 30000 69907 81/13 88/28 88/42=
10688,2012,01,01,22,00,AAXX 01221 10688 45562 81703 10082 20076 39634 40153 58008 333 55300 20000 30000 88/21 88/37=
10688,2012,01,01,23,00,AAXX 01231 10688 45360 71702 10079 20074 39627 40147 58013 333 55300 20000 30000 87/07 87/48=
10704,2012,01,01,00,00,AAXX 01001 10704 07232 82307 10096 20096 39722 40154 53004 69931 75765 333 55/// 20067 30066 55300 20000 30000 69937 85/04 87/08 88/30 91113=
10704,2012,01,01,01,00,AAXX 01011 10704 47119 82407 10095 20095 39721 40153 50004 75865 333 55300 20000 30000 87/03 88/08=
10704,2012,01,01,02,00,AAXX 01021 10704 47265 72307 10096 20096 39722 40154 52001 72365 333 55300 20000 30000 87/05 87/10=
10704,2012,01,01,03,00,AAXX 01031 10704 27002 72307 10096 20096 39722 40154 55000 75865 333 55300 20000 30000 60017 87/00 87/03=
10704,2012,01,01,04,00,AAXX 01041 10704 47262 72307 10097 20097 39723 40155 52002 72365 333 55300 20000 30000 87/04 87/07 91114=
10704,2012,01,01,05,00,AAXX 01051 10704 47269 82308 10098 20098 39723 40155 52001 72365 333 55300 20000 30000 88/05=
10704,2012,01,01,06,00,AAXX 01061 10704 07278 82307 10098 20098 39723 40155 51001 60022 72265 333 10099 20088 3/009 55000 55300 20000 30000 69957 70039 88/06 91114=
10704,2012,01,01,07,00,AAXX 01071 10704 47243 72306 10097 20097 39726 40158 53003 75150 333 55300 20000 30000 87/03=
10704,2012,01,01,08,00,AAXX 01081 10704 47150 82307 10098 20098 39729 40161 53006 72365 333 55300 20000 30000 88/02=
10704,2012,01,01,09,00,AAXX 01091 10704 27003 72208 10100 20100 39730 40161 51007 75165 333 20088 3/009 55300 20010 30010 69967 87/00 87/03=
10704,2012,01,01,10,00,AAXX 01101 10704 47260 72308 10100 20100 39734 40166 53008 75165 333 55300 20041 30041 87/03=
10704,2012,01,01,11,00,AAXX 01111 10704 47281 72306 10102 20102 39731 40162 50002 72365 333 55300 20130 30129 87/03=
10704,2012,01,01,12,00,AAXX 01121 10704 07145 72208 10103 20103 39721 40152 58009 60011 75165 333 55300 20141 30141 69977 87/02=
10704,2012,01,01,13,00,AAXX 01131 10704 47259 72207 10105 20105 39714 40144 58020 75150 333 55300 20107 30107 87/05=
10704,2012,01,01,14,00,AAXX 01141 10704 47287 82207 10106 20106 39713 40143 56018 72250 333 55300 20089 30089 88/06=
10704,2012,01,01,15,00,AAXX 01151 10704 27265 82207 10106 20106 39712 40142 56009 75150 333 55300 20039 30039 69917 88/04=
10704,2012,01,01,16,00,AAXX 01161 10704 47281 82208 10105 20105 39710 40140 58004 72365 333 55300 20002 30002 88/04 91113=
10704,2012,01,01,17,00,AAXX 01171 10704 47359 82109 10106 20106 39709 40139 57004 75165 333 55300 20000 30000 87/08 88/12 91113=
10704,2012,01,01,18,00,AAXX 01181 10704 07288 82109 10107 20107 39706 40135 58006 60022 72365 333 10108 20096 3/010 55300 20000 30000 69987 87/05 88/10 91114=
10704,2012,01,01,19,00,AAXX 01191 10704 47382 82109 10107 20107 39702 40131 58008 75760 333 55300 20000 30000 87/08 88/12 91114=
10704,2012,01,01,20,00,AAXX 01201 10704 47488 82210 10109 20102 39694 40122 58015 72365 333 55300 20000 30000 85/11 88/15 91115 91211=
10704,2012,01,01,21,00,AAXX 01211 10704 27488 82210 10110 20101 39691 40119 56015 70065 333 55300 20000 30000 69907 88/12 91116 91211=
10704,2012,01,01,22,00,AAXX 01221 10704 45488 82110 10111 20099 39685 40113 56017 333 55300 20000 30000 88/14 91115=
10704,2012,01,01,23,00,AAXX 01231 10704 47488 82211 10112 20099 39679 40106 58015 72250 333 55300 20000 30000 87/16 88/22 91116 91211=
10706,2012,01,01,00,00,AAXX 01001 10706 07002 72607 10091 20091 39689 40149 53001 60011 75165 333 55300 69957 87/00 87/04=
10706,2012,01,01,01,00,AAXX 01011 10706 47001 72507 10091 20091 39688 40148 50002 75165 333 55300 87/00=
10706,2012,01,01,02,00,AAXX 01021 10706 47050 82507 10092 20092 39689 40149 55000 72365 333 55300 87/01 88/05=
10706,2012,01,01,03,00,AAXX 01031 10706 27001 72507 10092 20092 39690 40150 53001 75865 333 55300 69977 87/00 87/03=
10706,2012,01,01,04,00,AAXX 01041 10706 47002 82507 10093 20093 39691 40151 52003 75765 333 55300 88/00=
10706,2012,01,01,05,00,AAXX 01051 10706 47002 72507 10093 20093 39692 40152 52003 75865 333 55300 87/00=
10706,2012,01,01,06,00,AAXX 01061 10706 07022 82407 10095 20095 39691 40151 50001 60032 75265 333 10095 20074 3/007 55000 55300 60017 70042 88/01=
10706,2012,01,01,07,00,AAXX 01071 10706 47262 82407 10095 20095 39695 40155 53004 75165 333 55300 88/03=
10706,2012,01,01,08,00,AAXX 01081 10706 47143 72408 10096 20096 39698 40158 53006 75265 333 55300 87/02=
10706,2012,01,01,09,00,AAXX 01091 10706 27112 82407 10096 20096 39699 40159 51008 75865 333 20074 3/007 55300 60017 87/02 88/08=
10706,2012,01,01,10,00,AAXX 01101 10706 47137 82409 10098 20098 39703 40163 53008 75865 333 55300 87/02 88/06=
10706,2012,01,01,11,00,AAXX 01111 10706 47169 72507 10099 20099 39701 40160 50003 72365 333 55300 87/02 87/06=
10706,2012,01,01,12,00,AAXX 01121 10706 07258 82406 10100 20100 39693 40152 58006 60021 75165 333 55300 60017 87/04 88/08=
10706,2012,01,01,13,00,AAXX 01131 10706 47242 82307 10101 20101 39684 40142 58019 75365 333 55300 87/03 88/07=
10706,2012,01,01,14,00,AAXX 01141 10706 47245 72307 10101 20101 39683 40141 56018 75165 333 55300 87/04=
10706,2012,01,01,15,00,AAXX 01151 10706 27233 72408 10102 20102 39683 40141 56010 75365 333 55300 60017 87/03=
10706,2012,01,01,16,00,AAXX 01161 10706 47250 72408 10103 20103 39681 40139 58003 75365 333 55300 87/03=
10706,2012,01,01,17,00,AAXX 01171 10706 47249 72308 10104 20104 39679 40136 58004 75865 333 55300 87/05=
10706,2012,01,01,18,00,AAXX 01181 10706 07222 72309 10104 20104 39676 40133 58007 60052 75865 333 10105 20095 3/009 55300 60017 87/04 91114=
10706,2012,01,01,19,00,AAXX 01191 10706 47284 82310 10105 20105 39672 40129 58009 72365 333 55300 87/05 87/10 88/31 91113=
10706,2012,01,01,20,00,AAXX 01201 10706 45384 82309 10106 20106 39666 40123 58013 333 55300 86/06 88/11 91113=
10706,2012,01,01,21,00,AAXX 01211 10706 27386 82308 10106 20101 39662 40118 57014 70065 333 55300 69957 87/08 88/13 91113=
10706,2012,01,01,22,00,AAXX 01221 10706 45488 82308 10107 20097 39657 40113 56015 333 55300 87/12 88/17 91113=
10706,2012,01,01,23,00,AAXX 01231 10706 45488 82209 10108 20096 39649 40104 58017 333 55300 87/14 88/20 91114=
10708,2012,01,01,00,00,AAXX 01001 10708 01145 72607 10099 20095 39774 40156 51006 60011 72052 877// 333 31/// 55/// 20079 30077 55300 20000 30000 69967 82703 87706=
10708,2012,01,01,01,00,AAXX 01011 10708 41158 82306 10099 20093 39774 40156 51003 75122 877// 333 55300 20000 30000 81703 87705=
10708,2012,01,01,02,00,AAXX 01021 10708 41156 82307 10100 20094 39775 40157 53001 75052 887// 333 55300 20000 30000 82703 87705=
10708,2012,01,01,03,00,AAXX 01031 10708 21158 82207 10100 20094 39777 40159 53003 75052 877// 333 55300 20000 30000 69917 82703 87705=
10708,2012,01,01,04,00,AAXX 01041 10708 41160 82307 10101 20096 39776 40158 50002 72055 876// 333 55300 20000 30000 81702 87704=
10708,2012,01,01,05,00,AAXX 01051 10708 41060 82307 10102 20097 39778 40159 52003 72022 876// 333 55300 20000 30000 81701 87704=
10708,2012,01,01,06,00,AAXX 01061 10708 01162 82207 10102 20096 39779 40161 53002 60022 75052 886// 333 10104 20093 31009 55000 55300 20000 30000 69927 70038 82702 87704=
10708,2012,01,01,07,00,AAXX 01071 10708 41162 82307 10102 20097 39782 40164 53006 72055 886// 333 55300 20000 30000 82702 87704=
10708,2012,01,01,08,00,AAXX 01081 10708 41130 82207 10102 20097 39784 40166 53006 75322 877// 333 55300 20006 30006 82702 87703=
10708,2012,01,01,09,00,AAXX 01091 10708 21025 82007 10102 20098 39786 40168 51007 75152 877// 333 20093 3/009 55300 20041 30039 69977 82701 87702=
10708,2012,01,01,10,00,AAXX 01101 10708 41135 82207 10103 20099 39789 40171 53007 75155 877// 333 55300 20095 30091 82702 87703=
10708,2012,01,01,11,00,AAXX 01111 10708 41122 82206 10104 20100 39787 40169 50003 75355 877// 333 55300 20154 30149 82702 87703=
10708,2012,01,01,12,00,AAXX 01121 10708 01040 82106 10107 20101 39778 40159 58008 60021 75152 877// 333 31/// 55300 20256 30249 60017 81701 87704=
10708,2012,01,01,13,00,AAXX 01131 10708 41062 82107 10108 20100 39772 40152 58017 75822 877// 333 55300 20144 30140 81701 87704=
10708,2012,01,01,14,00,AAXX 01141 10708 41140 82105 10109 20103 39768 40148 56019 75165 877// 333 55300 20099 30096 82702 87704=
10708,2012,01,01,15,00,AAXX 01151 10708 21030 82107 10108 20103 39769 40149 55009 75365 877// 333 55300 20066 30064 69947 82701 87703=
10708,2012,01,01,16,00,AAXX 01161 10708 41162 82107 10109 20103 39768 40148 56004 72055 877// 333 55300 20016 30015 82702 87704=
10708,2012,01,01,17,00,AAXX 01171 10708 42265 82007 10110 20102 39766 40146 58002 885// 333 55300 20000 30000 86706 87614=
10708,2012,01,01,18,00,AAXX 01181 10708 01262 82007 10108 20101 39765 40145 57004 60022 72165 885// 333 10112 20101 32010 55300 20000 30000 69927 81705 85707 88615 96453=
10708,2012,01,01,19,00,AAXX 01191 10708 41260 82107 10110 20102 39760 40140 58008 72122 885// 333 55300 20000 30000 81704 85706 88611=
10708,2012,01,01,20,00,AAXX 01201 10708 42262 82108 10111 20101 39755 40134 58011 885// 333 55300 20000 30000 85706 88611=
10708,2012,01,01,21,00,AAXX 01211 10708 21365 81908 10110 20098 39749 40128 58016 70262 885// 333 55300 20000 30000 69917 85708 88612 91113=
10708,2012,01,01,22,00,AAXX 01221 10708 42365 82007 10113 20096 39745 40124 56015 885// 333 55300 20000 30000 85709 88613=
10708,2012,01,01,23,00,AAXX 01231 10708 42468 82109 10114 20094 39737 40115 58018 885// 333 55300 20000 30000 85711 88615 91113=
10724,2012,01,01,00,00,AAXX 01001 10724 07001 82610 10082 20079 39483 40141 53006 60031 74065 333 55/// 20076 30076 55300 20000 30000 69947 88/00 91119 91213=
10724,2012,01,01,01,00,AAXX 01011 10724 47001 82510 10083 20080 39484 40142 51008 73065 333 55300 20000 30000 87/00 88/04 91117 91212=
10724,2012,01,01,02,00,AAXX 01021 10724 47102 82509 10082 20079 39489 40147 53007 73053 333 55300 20000 30000 87/02 88/07 91115=
10724,2012,01,01,03,00,AAXX 01031 10724 27002 82511 10082 20079 39487 40145 50004 73065 333 55300 20000 30000 69917 87/00 87/04 88/09 91117 91212=
10724,2012,01,01,04,00,AAXX 01041 10724 47002 72509 10083 20080 39489 40147 51005 73065 333 55300 20000 30000 86/00 87/04 91116 91213=
10724,2012,01,01,05,00,AAXX 01051 10724 47102 72513 10085 20085 39488 40146 56001 73053 333 55300 20000 30000 87/02 91116 91213=
10724,2012,01,01,06,00,AAXX 01061 10724 07002 72510 10085 20085 39490 40148 52003 60032 73065 333 10086 20069 3/007 55000 55300 20000 30000 69927 70065 87/00 91117 91213=
10724,2012,01,01,07,00,AAXX 01071 10724 47004 72511 10086 20086 39492 40150 53003 73033 333 55300 20000 30000 87/01 87/05 91117 91213=
10724,2012,01,01,08,00,AAXX 01081 10724 47105 82514 10087 20087 39495 40152 53007 73053 333 55300 20000 30000 87/03 88/07 91118 91214=
10724,2012,01,01,09,00,AAXX 01091 10724 27202 82511 10087 20087 39499 40157 53009 75165 333 20069 3/007 55300 20023 30023 69907 88/03 88/07 91118 91214=
10724,2012,01,01,10,00,AAXX 01101 10724 47207 72411 10090 20087 39500 40157 51008 75153 333 55300 20099 30099 87/03 87/07 91117 91212=
10724,2012,01,01,11,00,AAXX 01111 10724 47260 82512 10090 20087 39498 40155 50003 72253 333 55300 20130 30129 87/04 88/08 91117 91212=
10724,2012,01,01,12,00,AAXX 01121 10724 07104 82511 10090 20087 39494 40151 58005 69911 75165 333 55300 20173 30173 69917 87/03 88/08 91118 91214=
10724,2012,01,01,13,00,AAXX 01131 10724 47260 72511 10092 20089 39488 40144 58012 72253 333 55300 20256 30256 87/05 87/10 91117 91212=
10724,2012,01,01,14,00,AAXX 01141 10724 47260 82412 10092 20089 39485 40140 56013 72250 333 55300 20211 30210 87/06 88/13 91118 91212=
10724,2012,01,01,15,00,AAXX 01151 10724 27260 82411 10092 20089 39482 40137 56012 70053 333 55300 20120 30120 69917 87/06 88/12 91118 91213=
10724,2012,01,01,16,00,AAXX 01161 10724 47219 72513 10090 20087 39483 40139 55005 72253 333 55300 20021 30021 87/04 87/08 87/66 91119 91214=
10724,2012,01,01,17,00,AAXX 01171 10724 47103 72410 10092 20089 39485 40140 55000 73030 333 55300 20000 30000 87/03 87/07 91118 91214=
10724,2012,01,01,18,00,AAXX 01181 10724 07260 82311 10092 20089 39483 40138 50001 69922 72053 333 10093 20085 3/008 55300 20000 30000 69907 87/04 88/09 91119 91214=
10724,2012,01,01,19,00,AAXX 01191 10724 45260 72212 10094 20091 39480 40135 58003 333 55300 20000 30000 87/06 91118 91212=
10724,2012,01,01,20,00,AAXX 01201 10724 45360 82312 10095 20095 39477 40131 58008 333 55300 20000 30000 87/07 88/11 91118 91213=
10724,2012,01,01,21,00,AAXX 01211 10724 35360 82412 10098 20095 39469 40122 58014 333 55300 20000 30000 87/08 88/12 91119 91213=
10724,2012,01,01,22,00,AAXX 01221 10724 45460 82411 10097 20090 39463 40116 58017 333 55300 20000 30000 88/13 88/19 91119 91213=
10724,2012,01,01,23,00,AAXX 01231 10724 47460 82413 10097 20086 39458 40111 56019 72365 333 55300 20000 30000 87/11 88/16 91120 91214=
10729,2012,01,01,00,00,AAXX 01001 10729 07001 41703 10085 20085 30038 40160 53004 60031 73065 333 55/// 20072 30072 55300 20000 30000 69977 81/00 83/18=
10729,2012,01,01,01,00,AAXX 01011 10729 47401 81602 10086 20085 30039 40161 51006 73065 333 55300 20000 30000 87/16 88/22=
10729,2012,01,01,02,00,AAXX 01021 10729 47506 81504 10090 20089 30039 40161 51004 73053 333 55300 20000 30000 82/24 83/35 88/50=
10729,2012,01,01,03,00,AAXX 01031 10729 27519 81604 10094 20093 30042 40163 53004 72365 333 55300 20000 30000 69947 84/23 87/29 88/36=
10729,2012,01,01,04,00,AAXX 01041 10729 47245 71604 10098 20096 30041 40162 50002 72365 333 55300 20000 30000 81/05 84/44 87/50=
10729,2012,01,01,05,00,AAXX 01051 10729 47218 81605 10101 20099 30043 40164 51004 75865 333 55300 20000 30000 85/06 87/23 88/29=
10729,2012,01,01,06,00,AAXX 01061 10729 07256 81705 10101 20099 30045 40166 53003 60042 72365 333 10101 20066 3/006 55000 55300 20000 30000 69937 70077 87/05 87/09 88/21=
10729,2012,01,01,07,00,AAXX 01071 10729 47558 71805 10103 20101 30046 40167 51005 75165 333 55300 20000 30000 87/22=
10729,2012,01,01,08,00,AAXX 01081 10729 47569 81604 10104 20101 30051 40172 53008 72250 333 55300 20000 30000 88/23=
10729,2012,01,01,09,00,AAXX 01091 10729 27383 81706 10107 20107 30052 40173 52007 70065 333 20066 3/006 55300 20044 30044 69907 83/08 88/24=
10729,2012,01,01,10,00,AAXX 01101 10729 45388 81806 10112 20105 30054 40175 51008 333 55300 20164 30164 81/09 88/25 88/58=
10729,2012,01,01,11,00,AAXX 01111 10729 47388 81805 10116 20108 30051 40171 50000 72365 333 55300 20161 30161 81/09 87/24 88/29=
10729,2012,01,01,12,00,AAXX 01121 10729 07488 81805 10120 20109 30047 40167 58005 69901 70065 333 55300 20254 30254 69907 81/10 87/25 88/30=
10729,2012,01,01,13,00,AAXX 01131 10729 45488 71806 10121 20110 30039 40159 58015 333 55300 20246 30245 81/15 87/26 87/32=
10729,2012,01,01,14,00,AAXX 01141 10729 45587 81705 10122 20109 30037 40157 56014 333 55300 20127 30127 88/26=
10729,2012,01,01,15,00,AAXX 01151 10729 35588 81706 10123 20108 30037 40157 56010 333 55300 20045 30045 87/24 88/30=
10729,2012,01,01,16,00,AAXX 01161 10729 45588 81805 10119 20105 30037 40157 56002 333 55300 20009 30009 87/27 87/50 88/58=
10729,2012,01,01,17,00,AAXX 01171 10729 45480 81806 10120 20106 30037 40157 54000 333 55300 20000 30000 81/13 88/30 88/67=
10729,2012,01,01,18,00,AAXX 01181 10729 15488 71806 10118 20106 30032 40152 58005 69902 333 10123 20100 3/009 55300 20000 30000 83/12 87/28 87/58=
10729,2012,01,01,19,00,AAXX 01191 10729 45486 81806 10119 20106 30031 40151 58006 333 55300 20000 30000 81/13 88/26=
10729,2012,01,01,20,00,AAXX 01201 10729 45588 81806 10123 20104 30028 40148 56009 333 55300 20000 30000 87/28 88/33=
10729,2012,01,01,21,00,AAXX 01211 10729 35687 81807 10125 20100 30020 40140 58012 333 55300 20000 30000 88/35 88/43=
10729,2012,01,01,22,00,AAXX 01221 10729 45588 81807 10125 20100 30015 40135 58016 333 55300 20000 30000 87/29 88/34=
10729,2012,01,01,23,00,AAXX 01231 10729 45588 81706 10125 20100 30010 40130 56018 333 55300 20000 30000 88/31=
10731,2012,01,01,00,00,AAXX 01001 10731 07345 72306 10104 20091 30015 40157 51007 60011 72365 333 55/// 20057 30057 55300 20000 30000 69937 87/09=
10731,2012,01,01,01,00,AAXX 01011 10731 45372 82406 10109 20093 30013 40155 50003 333 55300 20000 30000 88/09=
10731,2012,01,01,02,00,AAXX 01021 10731 47270 82306 10106 20095 30019 40161 53005 72365 333 55300 20000 30000 81/05 85/23 88/30=
10731,2012,01,01,03,00,AAXX 01031 10731 27358 82307 10109 20097 30016 40158 50001 75165 333 55300 20000 30000 69927 87/06 88/23 88/39=
10731,2012,01,01,04,00,AAXX 01041 10731 47377 82306 10110 20097 30018 40160 51005 75165 333 55300 20000 30000 83/07 88/23 88/66=
10731,2012,01,01,05,00,AAXX 01051 10731 41265 82205 10107 20099 30018 40160 56001 75155 887// 333 55300 20000 30000 88706=
10731,2012,01,01,06,00,AAXX 01061 10731 01381 82306 10114 20096 30021 40163 53005 60012 72065 886// 333 10115 20090 31008 55000 55300 20000 30000 69927 70047 85707 84615=
10731,2012,01,01,07,00,AAXX 01071 10731 41282 82307 10114 20099 30021 40163 52003 72052 885// 333 55300 20000 30000 83706 87612=
10731,2012,01,01,08,00,AAXX 01081 10731 41384 82307 10120 20098 30024 40166 52006 72052 885// 333 55300 20000 30000 83708 85615=
10731,2012,01,01,09,00,AAXX 01091 10731 21382 82406 10122 20101 30029 40170 53008 72052 885// 333 20090 3/008 55300 20048 30048 69917 84707 87615=
10731,2012,01,01,10,00,AAXX 01101 10731 41380 82307 10117 20103 30029 40171 51008 72052 885// 333 55300 20139 30139 82707 88623=
10731,2012,01,01,11,00,AAXX 01111 10731 42486 82308 10121 20103 30027 40168 50003 888// 333 55300 20145 30144 82810 87623 91113=
10731,2012,01,01,12,00,AAXX 01121 10731 01384 82308 10124 20106 30025 40166 58004 69911 72165 888// 333 31/// 55300 20195 30195 69907 81708 87623 91113=
10731,2012,01,01,13,00,AAXX 01131 10731 41475 82208 10126 20106 30015 40156 58014 76062 888// 333 55300 20368 30365 83812 88627=
10731,2012,01,01,14,00,AAXX 01141 10731 41481 82207 10126 20106 30012 40153 58015 76066 888// 333 55300 20224 30224 82810 83633 91113=
10731,2012,01,01,15,00,AAXX 01151 10731 21480 72307 10129 20102 30011 40152 56014 72162 878// 333 55300 20148 30148 69907 82810 87635 91113=
10731,2012,01,01,16,00,AAXX 01161 10731 41675 82308 10126 20102 30014 40155 55001 76062 84501 333 55300 20029 30029 84640 86080=
10731,2012,01,01,17,00,AAXX 01171 10731 41573 72306 10124 20106 30011 40152 58001 72162 85502 333 55300 20000 30000 81625 85656 87080=
10731,2012,01,01,18,00,AAXX 01181 10731 01678 72306 10131 20102 30010 40151 58001 69912 72162 875// 333 10131 20110 31010 55300 20000 30000 69907 87640 91113=
10731,2012,01,01,19,00,AAXX 01191 10731 41581 82206 10130 20096 30008 40149 56006 76062 885// 333 55300 20000 30000 88633=
10731,2012,01,01,20,00,AAXX 01201 10731 41581 72207 10132 20095 30004 40145 58007 72122 875// 333 55300 20000 30000 87633=
10731,2012,01,01,21,00,AAXX 01211 10731 27588 82207 10129 20096 39996 40137 58014 70065 333 55300 20000 30000 69907 88/32 88/57 88/69=
10731,2012,01,01,22,00,AAXX 01221 10731 45588 72208 10132 20096 39991 40131 58017 333 55300 20000 30000 82/32 87/41 87/69=
10731,2012,01,01,23,00,AAXX 01231 10731 45688 82106 10129 20093 39984 40125 56020 333 55300 20000 30000 87/36 88/50 88/56=
10733,2012,01,01,00,00,AAXX 01001 10733 07123 72306 10094 20090 39864 40152 53004 60061 72365 333 55/// 20074 30074 55300 20000 30000 60037 87/02 87/16=
10733,2012,01,01,01,00,AAXX 01011 10733 47217 72306 10096 20091 39866 40154 51006 76265 333 55300 20000 30000 85/03 87/12 87/17=
10733,2012,01,01,02,00,AAXX 01021 10733 47127 72306 10098 20092 39869 40157 53006 75165 333 55300 20000 30000 85/03 87/22 87/27=
10733,2012,01,01,03,00,AAXX 01031 10733 27127 82307 10099 20094 39868 40155 50004 75365 333 55300 20000 30000 60017 85/02 87/26 88/39=
10733,2012,01,01,04,00,AAXX 01041 10733 47159 72307 10100 20095 39870 40157 51004 72365 333 55300 20000 30000 87/02=
10733,2012,01,01,05,00,AAXX 01051 10733 47260 72307 10102 20096 39871 40158 53002 75765 333 55300 20000 30000 85/04 87/22 87/34=
10733,2012,01,01,06,00,AAXX 01061 10733 07117 72307 10101 20096 39872 40159 51004 60092 75865 333 10102 20075 3/007 55000 55300 20000 30000 60027 70170 87/03=
10733,2012,01,01,07,00,AAXX 01071 10733 47149 72407 10102 20097 39874 40161 53004 75265 333 55300 20000 30000 86/02 87/10 87/16 91113=
10733,2012,01,01,08,00,AAXX 01081 10733 47488 82306 10106 20097 39879 40166 53008 72365 333 55300 20000 30000 87/11 88/15=
10733,2012,01,01,09,00,AAXX 01091 10733 27442 62308 10106 20098 39880 40167 51008 75265 333 20075 3/007 55300 20067 30067 60017 83/14 86/41 86/50 91113=
10733,2012,01,01,10,00,AAXX 01101 10733 47464 72407 10110 20100 39882 40169 51008 72250 333 55300 20250 30250 83/13 87/29 87/56 91113=
10733,2012,01,01,11,00,AAXX 01111 10733 47350 72205 10109 20100 39882 40169 51003 75265 333 55300 20160 30160 86/08 87/13=
10733,2012,01,01,12,00,AAXX 01121 10733 07488 72306 10114 20101 39880 40166 50000 60011 72265 333 55300 20097 30097 69917 87/10 87/18 91113=
10733,2012,01,01,13,00,AAXX 01131 10733 47388 72206 10113 20102 39870 40156 58012 72365 333 55300 20134 30134 86/09 87/21 87/26=
10733,2012,01,01,14,00,AAXX 01141 10733 45488 82305 10119 20100 39870 40155 56012 333 55300 20168 30168 83/15 87/23 88/28=
10733,2012,01,01,15,00,AAXX 01151 10733 27487 82204 10118 20099 39869 40154 56011 75165 333 55300 20054 30054 69917 86/12 87/17 88/25=
10733,2012,01,01,16,00,AAXX 01161 10733 47588 72205 10122 20096 39869 40154 57001 72250 333 55300 20001 30001 87/21=
10733,2012,01,01,17,00,AAXX 01171 10733 45488 82305 10122 20098 39868 40153 57002 333 55300 20000 30000 88/13=
10733,2012,01,01,18,00,AAXX 01181 10733 07488 82205 10120 20099 39866 40151 58003 60012 70065 333 10124 20101 3/010 55300 20000 30000 69907 82/12 88/33 88/50=
10733,2012,01,01,19,00,AAXX 01191 10733 45688 82306 10123 20092 39860 40145 58009 333 55300 20000 30000 83/44 84/58 88/70=
10733,2012,01,01,20,00,AAXX 01201 10733 45588 81903 10116 20092 39859 40144 56009 333 55300 20000 30000 88/26=
10733,2012,01,01,21,00,AAXX 01211 10733 35588 82204 10119 20086 39851 40136 58015 333 55300 20000 30000 85/28 87/59 88/68=
10733,2012,01,01,22,00,AAXX 01221 10733 45588 82306 10131 20089 39848 40132 58012 333 55300 20000 30000 83/20 88/27 88/57=
10733,2012,01,01,23,00,AAXX 01231 10733 45488 72206 10131 20088 39840 40123 57019 333 55300 20000 30000 83/18 87/50 87/57=
10736,2012,01,01,00,00,AAXX 01001 10736 07456 82605 10106 20094 39868 40159 53009 60061 75765 333 55300 60027 87/12 87/18 88/39=
10736,2012,01,01,01,00,AAXX 01011 10736 47470 82603 10106 20094 39868 40159 51007 75165 333 55300 88/12=
10736,2012,01,01,02,00,AAXX 01021 10736 47425 82603 10104 20096 39872 40163 52008 75865 333 55300 87/11 88/16=
10736,2012,01,01,03,00,AAXX 01031 10736 27582 82603 10106 20095 39869 40160 50001 72365 333 55300 69977 84/29 88/37=
10736,2012,01,01,04,00,AAXX 01041 10736 47422 82602 10102 20095 39873 40165 52005 75865 333 55300 86/13 87/19 88/27=
10736,2012,01,01,05,00,AAXX 01051 10736 47407 71101 10093 20089 39873 40166 53001 75365 333 55300 82/16 85/22 87/32=
10736,2012,01,01,06,00,AAXX 01061 10736 07421 80101 10092 20089 39874 40167 51005 60072 75165 333 10108 20089 3/008 55000 55300 60017 70163 83/13 88/28 88/50=
10736,2012,01,01,07,00,AAXX 01071 10736 47512 70901 10088 20086 39875 40168 53002 72253 333 55300 83/22 87/50 87/63=
10736,2012,01,01,08,00,AAXX 01081 10736 47588 82501 10096 20085 39879 40172 53006 72363 333 55300 86/29 88/60 88/62=
10736,2012,01,01,09,00,AAXX 01091 10736 27469 71901 10092 20088 39883 40176 53009 75165 333 20086 3/008 55300 69907 86/19 87/26=
10736,2012,01,01,10,00,AAXX 01101 10736 47558 71201 10102 20099 39883 40175 51008 72250 333 55300 85/25 87/30 87/37=
10736,2012,01,01,11,00,AAXX 01111 10736 45581 81401 10110 20105 39881 40172 50002 333 55300 88/28=
10736,2012,01,01,12,00,AAXX 01121 10736 07588 82602 10127 20100 39878 40167 58005 69901 72365 333 55300 69907 87/23 88/31=
10736,2012,01,01,13,00,AAXX 01131 10736 47588 72604 10128 20096 39871 40160 58012 72250 333 55300 83/30 86/50 87/68=
10736,2012,01,01,14,00,AAXX 01141 10736 45588 72604 10128 20093 39869 40158 56012 333 55301 81/23 87/46 87/72=
10736,2012,01,01,15,00,AAXX 01151 10736 27588 72402 10127 20091 39869 40158 56009 70050 333 55300 69907 81/31 87/41=
10736,2012,01,01,16,00,AAXX 01161 10736 45688 72501 10115 20087 39869 40159 56002 333 55300 87/34=
10736,2012,01,01,17,00,AAXX 01171 10736 47588 72602 10123 20091 39870 40160 53001 72250 333 55300 82/29 86/37 87/82=
10736,2012,01,01,18,00,AAXX 01181 10736 07687 51201 10084 20076 39867 40161 58002 69902 70050 333 10132 20083 3/007 55300 69907 81/49 84/81 85/82=
10736,2012,01,01,19,00,AAXX 01191 10736 45987 51001 10079 20075 39862 40156 58007 333 55300 81/68 83/74 85/81=
10736,2012,01,01,20,00,AAXX 01201 10736 45688 71901 10103 20079 39859 40150 57011 333 55300 81/35 87/69=
10736,2012,01,01,21,00,AAXX 01211 10736 35988 70701 10074 20068 39852 40146 58015 333 55300 87/75=
10736,2012,01,01,22,00,AAXX 01221 10736 45688 71803 10114 20085 39850 40140 56012 333 55300 84/39 87/57=
10736,2012,01,01,23,00,AAXX 01231 10736 47688 71503 10113 20084 39844 40134 56015 72365 333 55300 85/46 87/56 87/70=
10738,2012,01,01,00,00,AAXX 01001 10738 01332 82303 10084 20074 39697 40165 51007 60051 75865 875// 333 32/// 55300 60047 81709 87622 96010 96463 96461 96451=
10738,2012,01,01,01,00,AAXX 01011 10738 41350 82003 10088 20076 39698 40165 51006 75866 875// 333 55300 81709 87619 96010=
10738,2012,01,01,02,00,AAXX 01021 10738 41459 82001 10087 20075 39701 40168 53005 72162 875// 333 55300 81710 87628 96261 96258=
10738,2012,01,01,03,00,AAXX 01031 10738 21362 82102 10091 20078 39702 40169 52005 72162 875// 333 55300 69937 81707 86627 96261 96458=
10738,2012,01,01,04,00,AAXX 01041 10738 41462 82102 10092 20078 39704 40171 51006 75822 875// 333 55300 81710 84625 87630 96260=
10738,2012,01,01,05,00,AAXX 01051 10738 41370 72103 10089 20074 39704 40171 51003 72122 8653/ 333 55300 81707 83632 85650 96258=
10738,2012,01,01,06,00,AAXX 01061 10738 01582 61601 10086 20071 39705 40173 51003 60062 72062 86500 333 10093 20070 32005 55000 55300 69907 70110 81622 86650 96461 96458=
10738,2012,01,01,07,00,AAXX 01071 10738 42582 72003 10088 20072 39709 40177 53005 875// 333 55300 87630=
10738,2012,01,01,08,00,AAXX 01081 10738 41586 72002 10094 20073 39712 40179 53008 76022 875// 333 55300 87620=
10738,2012,01,01,09,00,AAXX 01091 10738 21586 72003 10099 20075 39716 40182 52011 72162 875// 333 20070 3/005 55300 69907 87624=
10738,2012,01,01,10,00,AAXX 01101 10738 41588 71903 10105 20078 39717 40182 51008 72122 875// 333 55300 87628=
10738,2012,01,01,11,00,AAXX 01111 10738 42588 72003 10111 20080 39714 40178 50002 875// 333 55300 87620=
10738,2012,01,01,12,00,AAXX 01121 10738 01588 71903 10118 20080 39710 40173 58006 69911 70262 875// 333 31/// 55300 69917 87625=
10738,2012,01,01,13,00,AAXX 01131 10738 42588 72003 10121 20081 39705 40167 58012 8651/ 333 55300 85622 87463=
10738,2012,01,01,14,00,AAXX 01141 10738 42588 72004 10121 20083 39703 40165 56011 875// 333 55301 82621 87630=
10738,2012,01,01,15,00,AAXX 01151 10738 32588 71802 10118 20083 39702 40164 56008 85532 333 55300 81621 83626 86075=
10738,2012,01,01,16,00,AAXX 01161 10738 42588 71903 10109 20077 39701 40165 56004 83532 333 55300 82626 87075=
10738,2012,01,01,17,00,AAXX 01171 10738 42588 71803 10106 20075 39703 40167 55000 86532 333 55300 81625 83638 85656=
10738,2012,01,01,18,00,AAXX 01181 10738 12588 71802 10107 20074 39701 40165 58001 69912 84532 333 10122 20084 31006 55300 83627 87075=
10738,2012,01,01,19,00,AAXX 01191 10738 42586 71803 10106 20070 39696 40160 58005 82502 333 55300 82627 87075=
10738,2012,01,01,20,00,AAXX 01201 10738 42786 71803 10104 20068 39694 40158 57009 81535 333 55300 81656 85363 87075=
10738,2012,01,01,22,00,AAXX 01221 10738 42887 71904 10107 20071 39683 40146 58013 8157/ 333 55300 81657 86465=
10738,2012,01,01,23,00,AAXX 01231 10738 42787 72001 10107 20072 39680 40143 57014 8157/ 333 55300 81656 87464=
10739,2012,01,01,00,00,AAXX 01001 10739 07205 82102 10088 20086 39780 40160 53007 60051 75165 333 55/// 20103 30103 42874 55300 20000 30000 41286 60047 82/05 87/11 88/15=
10739,2012,01,01,01,00,AAXX 01011 10739 47419 82003 10090 20086 39781 40161 51006 75165 333 55300 20000 30000 41287 82/11 87/18 88/23=
10739,2012,01,01,02,00,AAXX 01021 10739 47429 72103 10095 20090 39784 40163 52007 75265 333 55300 20000 30000 41293 86/14 87/19=
10739,2012,01,01,03,00,AAXX 01031 10739 27450 72203 10094 20089 39785 40165 52005 75265 333 55300 20000 30000 41295 69957 84/15 87/20 87/24=
10739,2012,01,01,04,00,AAXX 01041 10739 47368 82004 10097 20089 39786 40165 51005 75150 333 55300 20000 30000 41280 83/09 87/36 88/56=
10739,2012,01,01,05,00,AAXX 01051 10739 47584 72102 10097 20088 39786 40165 51002 72250 333 55300 20000 30000 41244 81/30 84/46 87/50=
10739,2012,01,01,06,00,AAXX 01061 10739 07688 72103 10106 20086 39787 40165 52002 60062 72265 333 10106 20073 3/007 55000 55300 20000 30000 41257 69907 70128 87/34 87/43=
10739,2012,01,01,07,00,AAXX 01071 10739 45688 71803 10098 20085 39790 40169 53004 333 55300 20000 30000 41254 85/42 87/50=
10739,2012,01,01,08,00,AAXX 01081 10739 47588 81906 10101 20084 39793 40172 53007 72360 333 55300 20024 30024 41270 84/27 88/39 88/65=
10739,2012,01,01,09,00,AAXX 01091 10739 27588 81904 10101 20084 39797 40176 53010 72360 333 20073 3/007 55300 20087 30087 41255 69907 87/28 87/36 88/62=
10739,2012,01,01,10,00,AAXX 01101 10739 45588 71904 10107 20087 39797 40175 51007 333 55300 20237 30232 41238 85/32 87/58 87/61=
10739,2012,01,01,11,00,AAXX 01111 10739 45588 81903 10113 20090 39796 40174 50003 333 55300 20313 30300 41274 87/30 88/38=
10739,2012,01,01,12,00,AAXX 01121 10739 17688 72003 10117 20089 39792 40169 58005 69901 70060 333 55300 20298 30295 41287 87/34 87/49=
10739,2012,01,01,13,00,AAXX 01131 10739 45688 71904 10121 20089 39787 40163 58010 333 55300 20359 30350 41259 83/35 86/49 87/50=
10739,2012,01,01,14,00,AAXX 01141 10739 45688 81904 10124 20092 39785 40161 56011 333 55300 20345 30336 41227 85/35 87/42 88/50=
10739,2012,01,01,15,00,AAXX 01151 10739 35588 82203 10128 20088 39785 40160 56007 333 55300 20169 30162 41275 81/27 87/44 88/50=
10739,2012,01,01,16,00,AAXX 01161 10739 45688 51802 10119 20086 39785 40161 56002 333 55300 20032 30031 41204 81/40 83/56 85/66=
10739,2012,01,01,17,00,AAXX 01171 10739 45788 81903 10116 20086 39785 40162 54000 333 55300 20000 30000 41236 86/50 88/56 88/59=
10739,2012,01,01,18,00,AAXX 01181 10739 15788 51603 10107 20083 39783 40161 58002 69902 333 10129 20096 3/009 55300 20000 30000 41101 81/50 83/58 85/66=
10739,2012,01,01,19,00,AAXX 01191 10739 45988 81804 10111 20079 39778 40155 58007 333 55300 20000 30000 41107 82/58 88/76=
10739,2012,01,01,20,00,AAXX 01201 10739 45888 81704 10112 20078 39775 40152 58010 333 55300 20000 30000 41136 81/56 83/67 88/73=
10739,2012,01,01,21,00,AAXX 01211 10739 35988 81905 10116 20078 39770 40146 57013 333 55300 20000 30000 41146 88/72=
10739,2012,01,01,22,00,AAXX 01221 10739 45988 82105 10116 20080 39766 40142 58012 333 55300 20000 30000 41176 88/69=
10739,2012,01,01,23,00,AAXX 01231 10739 45888 72005 10122 20082 39760 40135 58015 333 55300 20000 30000 41167 83/56 87/70 87/72=
10742,2012,01,01,00,00,AAXX 01001 10742 07215 72606 10093 20090 39825 40154 53004 60061 75265 333 55/// 20099 30099 55300 20000 30000 60037 87/04=
10742,2012,01,01,01,00,AAXX 01011 10742 47215 72604 10095 20095 39825 40154 51003 75165 333 55300 20000 30000 87/06=
10742,2012,01,01,02,00,AAXX 01021 10742 47239 72605 10097 20097 39828 40157 53005 76265 333 55300 20000 30000 87/06 87/09=
10742,2012,01,01,03,00,AAXX 01031 10742 27259 82605 10099 20096 39827 40155 50002 72365 333 55300 20000 30000 60027 87/05 87/09 88/15=
10742,2012,01,01,04,00,AAXX 01041 10742 45466 82505 10099 20095 39830 40158 52005 333 55300 20000 30000 86/10 87/21 88/32=
10742,2012,01,01,05,00,AAXX 01051 10742 47375 72406 10100 20095 39832 40160 53004 75165 333 55300 20000 30000 86/07 87/31 87/39=
10742,2012,01,01,06,00,AAXX 01061 10742 07459 72404 10099 20094 39833 40161 51006 60082 75165 333 10101 20061 3/006 55000 55300 20000 30000 69927 70126 87/10=
10742,2012,01,01,07,00,AAXX 01071 10742 47344 82405 10099 20094 39835 40164 52005 75250 333 55300 20000 30000 87/07 88/13=
10742,2012,01,01,08,00,AAXX 01081 10742 47482 82504 10101 20094 39840 40168 53008 72250 333 55300 20003 30003 88/12=
10742,2012,01,01,09,00,AAXX 01091 10742 27486 82404 10103 20092 39844 40172 53011 70050 333 20061 3/006 55300 20069 30069 69927 85/14 87/23 88/35=
10742,2012,01,01,10,00,AAXX 01101 10742 47488 82504 10108 20094 39844 40172 51009 72365 333 55300 20214 30214 87/14 88/21=
10742,2012,01,01,11,00,AAXX 01111 10742 45488 82404 10113 20095 39841 40168 50001 333 55300 20221 30220 88/12=
10742,2012,01,01,12,00,AAXX 01121 10742 07488 82404 10116 20096 39838 40165 58006 69921 72265 333 55300 20224 30224 69907 88/14=
10742,2012,01,01,13,00,AAXX 01131 10742 47486 82404 10113 20099 39835 40162 57009 72365 333 55300 20188 30188 87/13 88/18=
10742,2012,01,01,14,00,AAXX 01141 10742 47588 82403 10120 20099 39832 40158 57009 72250 333 55300 20303 30298 81/23 87/31 88/48=
10742,2012,01,01,15,00,AAXX 01151 10742 27487 72404 10121 20094 39832 40158 56006 70065 333 55300 20164 30162 69917 81/19 87/28 87/45=
10742,2012,01,01,16,00,AAXX 01161 10742 45588 82203 10119 20093 39832 40158 56003 333 55300 20019 30019 87/27 88/35=
10742,2012,01,01,17,00,AAXX 01171 10742 45588 82203 10123 20089 39833 40159 53001 333 55300 20000 30000 87/26 88/31=
10742,2012,01,01,18,00,AAXX 01181 10742 07588 82103 10121 20089 39831 40157 58001 69932 72265 333 10125 20098 3/009 55300 20000 30000 69907 83/21 86/28 88/33=
10742,2012,01,01,19,00,AAXX 01191 10742 45588 81903 10119 20088 39828 40154 58004 333 55300 20000 30000 81/26 87/39 88/56=
10742,2012,01,01,20,00,AAXX 01201 10742 45688 72004 10119 20083 39824 40150 58009 333 55300 20000 30000 83/34 83/50 87/75=
10742,2012,01,01,21,00,AAXX 01211 10742 35588 82005 10121 20082 39818 40144 58013 333 55300 20000 30000 88/30=
10742,2012,01,01,22,00,AAXX 01221 10742 45688 72004 10119 20081 39813 40139 58015 333 55300 20000 30000 87/38 87/57 87/68=
10742,2012,01,01,23,00,AAXX 01231 10742 45688 72005 10121 20083 39807 40132 57017 333 55300 20000 30000 86/39 87/47 87/56=
10743,2012,01,01,00,00,AAXX 01001 10743 NIL=
10743,2012,01,01,01,00,AAXX 01011 10743 NIL=
10743,2012,01,01,02,00,AAXX 01021 10743 NIL=
10743,2012,01,01,03,00,AAXX 01031 10743 NIL=
10743,2012,01,01,04,00,AAXX 01041 10743 NIL=
10743,2012,01,01,05,00,AAXX 01051 10743 NIL=
10743,2012,01,01,06,00,AAXX 01061 10743 NIL=
10743,2012,01,01,07,00,AAXX 01071 10743 NIL=
10743,2012,01,01,08,00,AAXX 01081 10743 NIL=
10743,2012,01,01,09,00,AAXX 01091 10743 NIL=
10743,2012,01,01,10,00,AAXX 01101 10743 NIL=
10743,2012,01,01,11,00,AAXX 01111 10743 NIL=
10743,2012,01,01,12,00,AAXX 01121 10743 NIL=
10743,2012,01,01,13,00,AAXX 01131 10743 NIL=
10743,2012,01,01,14,00,AAXX 01141 10743 NIL=
10743,2012,01,01,15,00,AAXX 01151 10743 NIL=
10743,2012,01,01,16,00,AAXX 01161 10743 NIL=
10743,2012,01,01,17,00,AAXX 01171 10743 NIL=
10743,2012,01,01,18,00,AAXX 01181 10743 NIL=
10743,2012,01,01,19,00,AAXX 01191 10743 NIL=
10743,2012,01,01,20,00,AAXX 01201 10743 NIL=
10743,2012,01,01,21,00,AAXX 01211 10743 NIL=
10743,2012,01,01,22,00,AAXX 01221 10743 NIL=
10743,2012,01,01,23,00,AAXX 01231 10743 NIL=
10747,2012,01,01,00,00,AAXX 01001 10747 07/11 /2302 10073 20069 39577 40160 53004 60111 75865 333 55/// 20111 30111 55300 20000 30000 60077=
10747,2012,01,01,01,00,AAXX 01011 10747 47/14 /2502 10080 20076 39578 40159 51005 76265 333 55300 20000 30000=
10747,2012,01,01,02,00,AAXX 01021 10747 47/13 /2603 10084 20080 39582 40163 53006 76265 333 55300 20000 30000=
10747,2012,01,01,03,00,AAXX 01031 10747 27/48 /2403 10080 20075 39581 40163 50004 75165 333 55300 20000 30000 60067=
10747,2012,01,01,04,00,AAXX 01041 10747 47/38 /2303 10083 20077 39585 40166 52007 75765 333 55300 20000 30000=
10747,2012,01,01,05,00,AAXX 01051 10747 47/17 /2503 10084 20078 39585 40166 53003 75865 333 55300 20000 30000=
10747,2012,01,01,06,00,AAXX 01061 10747 07/17 /2202 10084 20077 39586 40167 51005 60182 75865 333 10085 20048 3/004 55000 55300 20000 30000 60027 70238=
10747,2012,01,01,07,00,AAXX 01071 10747 47/59 /2202 10084 20077 39590 40171 53005 75165 333 55300 20000 30000=
10747,2012,01,01,08,00,AAXX 01081 10747 47/85 /2302 10087 20078 39594 40175 53009 72250 333 55300 20001 30001=
10747,2012,01,01,09,00,AAXX 01091 10747 27/88 /2203 10090 20079 39597 40177 51011 72365 333 20048 3/004 55300 20048 30048 69927=
10747,2012,01,01,10,00,AAXX 01101 10747 47/88 /2403 10094 20080 39598 40178 51008 76165 333 55300 20100 30099=
10747,2012,01,01,11,00,AAXX 01111 10747 47/88 /2303 10100 20083 39596 40174 50002 75165 333 55300 20314 30313=
10747,2012,01,01,12,00,AAXX 01121 10747 07/63 /2204 10100 20085 39594 40172 58003 69921 75865 333 55300 20280 30280 69907=
10747,2012,01,01,13,00,AAXX 01131 10747 47/87 /2203 10102 20085 39590 40167 58008 75165 333 55300 20327 30327=
10747,2012,01,01,14,00,AAXX 01141 10747 47/88 /2102 10105 20084 39585 40161 58011 72365 333 55300 20315 30314=
10747,2012,01,01,15,00,AAXX 01151 10747 27/88 /2203 10102 20082 39587 40164 55007 72365 333 55300 20079 30079 69927=
10747,2012,01,01,16,00,AAXX 01161 10747 47/88 /2203 10104 20080 39588 40165 55002 72250 333 55300 20013 30013=
10747,2012,01,01,17,00,AAXX 01171 10747 47/41 /2002 10100 20079 39590 40168 52005 75865 333 55300 20000 30000=
10747,2012,01,01,18,00,AAXX 01181 10747 07/88 /2203 10101 20078 39586 40163 58001 69952 72365 333 10106 20083 3/008 55300 20000 30000 69917=
10747,2012,01,01,19,00,AAXX 01191 10747 45/88 /2203 10104 20076 39585 40162 58003 333 55300 20000 30000=
10747,2012,01,01,20,00,AAXX 01201 10747 45/88 /2102 10100 20073 39582 40159 56008 333 55300 20000 30000=
10747,2012,01,01,21,00,AAXX 01211 10747 27/88 /1901 10096 20071 39577 40155 58009 72365 333 55300 20000 30000 69907=
10747,2012,01,01,22,00,AAXX 01221 10747 45/88 /1902 10092 20069 39570 40149 58015 333 55300 20000 30000=
10747,2012,01,01,23,00,AAXX 01231 10747 45/88 /2104 10101 20072 39564 40140 58018 333 55300 20000 30000=
10756,2012,01,01,00,00,AAXX 01001 10756 07141 82404 10068 20065 39586 40154 53004 60051 75765 333 55/// 20142 30142 55300 20000 30000 60037 88/02=
10756,2012,01,01,01,00,AAXX 01011 10756 47133 72304 10069 20066 39586 40154 51004 75865 333 55300 20000 30000 87/02=
10756,2012,01,01,02,00,AAXX 01021 10756 47129 82404 10072 20069 39589 40157 53005 75865 333 55300 20000 30000 87/02 88/09=
10756,2012,01,01,03,00,AAXX 01031 10756 27123 72404 10078 20075 39588 40154 50002 75265 333 55300 20000 30000 60027 87/02=
10756,2012,01,01,04,00,AAXX 01041 10756 47231 82506 10083 20079 39592 40157 53006 75265 333 55300 20000 30000 86/04 87/07 88/16=
10756,2012,01,01,05,00,AAXX 01051 10756 47227 72505 10083 20077 39593 40158 53004 75865 333 55300 20000 30000 87/06 87/13=
10756,2012,01,01,06,00,AAXX 01061 10756 07378 82605 10086 20079 39595 40160 51007 60072 75165 333 10087 20040 3/004 55000 55300 20000 30000 69977 70104 86/07 88/11 88/36=
10756,2012,01,01,07,00,AAXX 01071 10756 47243 82304 10084 20079 39597 40162 53005 75265 333 55300 20000 30000 87/05 87/09 88/17=
10756,2012,01,01,08,00,AAXX 01081 10756 47257 72405 10086 20080 39602 40167 53009 75150 333 55300 20005 30005 87/06=
10756,2012,01,01,09,00,AAXX 01091 10756 27284 72405 10088 20081 39606 40171 53011 72265 333 20040 3/004 55300 20083 30083 69917 85/06 87/11=
10756,2012,01,01,10,00,AAXX 01101 10756 47350 82305 10091 20082 39607 40172 51010 75250 333 55300 20171 30170 86/08 88/12=
10756,2012,01,01,11,00,AAXX 01111 10756 47382 82304 10094 20085 39606 40170 50004 75150 333 55300 20205 30205 87/06 88/13=
10756,2012,01,01,12,00,AAXX 01121 10756 07388 72305 10098 20088 39602 40165 58004 69911 75165 333 55300 20200 30200 69907 87/09 87/14=
10756,2012,01,01,13,00,AAXX 01131 10756 47388 82306 10100 20090 39600 40162 58007 72365 333 55300 20221 30220 87/08 87/12 88/18=
10756,2012,01,01,14,00,AAXX 01141 10756 47345 72305 10098 20090 39597 40159 56009 75365 333 55300 20241 30241 87/07=
10756,2012,01,01,15,00,AAXX 01151 10756 27488 82205 10099 20087 39599 40161 55003 72365 333 55300 20174 30170 69927 81/10 87/35 88/72=
10756,2012,01,01,16,00,AAXX 01161 10756 47488 82204 10093 20083 39600 40164 55000 72250 333 55300 20015 30015 85/10 88/43 88/79=
10756,2012,01,01,17,00,AAXX 01171 10756 47588 81903 10090 20080 39602 40166 52005 72250 333 55300 20000 30000 83/22 87/28 88/38=
10756,2012,01,01,18,00,AAXX 01181 10756 07488 72102 10086 20076 39599 40164 50000 69932 72265 333 10101 20083 3/007 55300 20000 30000 69907 85/10 86/31 87/76=
10756,2012,01,01,19,00,AAXX 01191 10756 45588 81804 10083 20073 39597 40163 58003 333 55300 20000 30000 86/29 88/75 88/79=
10756,2012,01,01,20,00,AAXX 01201 10756 45588 81603 10079 20068 39592 40158 58010 333 55300 20000 30000 83/26 88/73 88/80=
10756,2012,01,01,21,00,AAXX 01211 10756 35988 82002 10079 20068 39588 40154 58011 333 55300 20000 30000 83/65 88/73=
10756,2012,01,01,22,00,AAXX 01221 10756 45588 81602 10076 20063 39583 40149 57014 333 55300 20000 30000 85/24 88/56 88/69=
10756,2012,01,01,23,00,AAXX 01231 10756 45788 82103 10083 20067 39579 40144 57013 333 55300 20000 30000 84/56 87/57 88/65=
10761,2012,01,01,00,00,AAXX 01001 10761 06360 82103 10065 20058 39649 40157 53003 60021 333 55/// 20157 55300 20000 69967 88/09=
10761,2012,01,01,01,00,AAXX 01011 10761 46461 82203 10067 20060 39651 40159 53004 333 55300 20000 87/10 87/15 88/56=
10761,2012,01,01,02,00,AAXX 01021 10761 46361 82103 10069 20061 39654 40161 53007 333 55300 20000 86/07 88/12=
10761,2012,01,01,03,00,AAXX 01031 10761 26361 82104 10070 20062 39655 40162 51006 333 55300 20000 69967 82/06 88/12=
10761,2012,01,01,04,00,AAXX 01041 10761 46361 82203 10074 20067 39656 40162 51005 333 55300 20000 86/06 88/13=
10761,2012,01,01,05,00,AAXX 01051 10761 41258 82204 10076 20070 39659 40165 53005 72162 885// 333 55300 20000 82706 87613 96259 96258=
10761,2012,01,01,06,00,AAXX 01061 10761 01258 82103 10079 20072 39662 40168 53007 60032 75962 885// 333 10079 20029 31003 55000 55300 20000 69937 70060 82706 87616=
10761,2012,01,01,07,00,AAXX 01071 10761 41364 72103 10082 20072 39664 40169 51008 72122 875// 333 55300 20000 81709 87610 96259 96258=
10761,2012,01,01,08,00,AAXX 01081 10761 41263 72004 10078 20069 39670 40176 53011 72122 875// 333 55300 20033 81705 86709 87625 96258=
10761,2012,01,01,09,00,AAXX 01091 10761 21263 82104 10079 20069 39673 40179 53011 75862 885// 333 20029 3/003 55300 20110 69917 81705 83711 87618=
10761,2012,01,01,10,00,AAXX 01101 10761 41258 82104 10086 20075 39673 40178 51009 72122 885// 333 55300 20274 81705 83710 87615=
10761,2012,01,01,11,00,AAXX 01111 10761 41258 82104 10088 20078 39673 40178 51003 72122 885// 333 55300 20273 81705 85710 87616 96258=
10761,2012,01,01,12,00,AAXX 01121 10761 01260 82204 10094 20082 39670 40173 58003 69911 72162 885// 333 31/// 55300 20431 69907 81705 83711 87618=
10761,2012,01,01,13,00,AAXX 01131 10761 41261 82205 10096 20084 39668 40171 58005 75822 885// 333 55300 20251 81705 86710 87617=
10761,2012,01,01,14,00,AAXX 01141 10761 41475 82204 10100 20083 39665 40167 57008 72122 888// 333 55300 20196 84811 87622=
10761,2012,01,01,15,00,AAXX 01151 10761 21480 72205 10102 20083 39663 40164 57007 70162 84802 333 55300 20200 69907 82813 83643 87073=
10761,2012,01,01,16,00,AAXX 01161 10761 41480 72305 10100 20082 39666 40168 55002 72122 878// 333 55300 20037 82813 87646 96260=
10761,2012,01,01,17,00,AAXX 01171 10761 46661 72204 10100 20078 39667 40169 53002 333 55300 20000 83/34 87/48=
10761,2012,01,01,18,00,AAXX 01181 10761 06661 82104 10103 20079 39667 40169 51004 69912 333 10103 20077 3/007 55300 20000 69907 87/39 88/47 88/59=
10761,2012,01,01,19,00,AAXX 01191 10761 46660 22204 10101 20076 39662 40164 58004 333 55300 20000 82/47=
10761,2012,01,01,20,00,AAXX 01201 10761 46761 72005 10099 20074 39659 40161 58008 333 55300 20000 83/50 87/58=
10761,2012,01,01,21,00,AAXX 01211 10761 36961 01905 10092 20072 39657 40160 56010 333 55300 20000=
10761,2012,01,01,22,00,AAXX 01221 10761 46960 62005 10087 20070 39651 40155 58011 333 55300 20000 86/74=
10761,2012,01,01,23,00,AAXX 01231 10761 46861 62105 10085 20068 39644 40148 58015 333 55300 20000 85/57 85/73 86/77=
10763,2012,01,01,00,00,AAXX 01001 10763 01/09 91103 10044 20040 39764 40150 53001 60011 75165 333 31/// 55/// 20138 30135 55300 20000 30000 69937 96047=
10763,2012,01,01,01,00,AAXX 01011 10763 41/01 91202 10051 20047 39765 40150 52003 75965 333 55300 20000 30000 96047=
10763,2012,01,01,02,00,AAXX 01021 10763 41213 82101 10066 20066 39768 40151 53005 75864 877// 333 55300 20000 30000 87704 96010 96242=
10763,2012,01,01,03,00,AAXX 01031 10763 21123 82302 10077 20077 39768 40150 51004 75865 885// 333 55300 20000 30000 60017 85702 88608 96447=
10763,2012,01,01,04,00,AAXX 01041 10763 41134 82202 10079 20076 39769 40150 51004 75966 8572/ 333 55300 20000 30000 85703 88510=
10763,2012,01,01,05,00,AAXX 01051 10763 41260 81902 10077 20077 39772 40154 53004 72162 877// 333 55300 20000 30000 87704=
10763,2012,01,01,06,00,AAXX 01061 10763 01465 81902 10081 20077 39774 40155 53006 60032 72165 885// 333 10084 20025 31002 55000 55300 20000 30000 69987 70046 84615 87625=
10763,2012,01,01,07,00,AAXX 01071 10763 42367 82103 10087 20082 39775 40155 51006 888// 333 55300 20000 30000 83807 84616 87645=
10763,2012,01,01,08,00,AAXX 01081 10763 42468 72202 10089 20083 39782 40162 53010 875// 333 55300 20028 30027 84615 87620=
10763,2012,01,01,09,00,AAXX 01091 10763 21368 81903 10093 20086 39783 40163 52009 72122 878// 333 20025 3/002 55300 20092 30091 69907 84808 87614=
10763,2012,01,01,10,00,AAXX 01101 10763 42370 82003 10101 20090 39785 40164 51010 888// 333 55300 20161 30160 85808 87614=
10763,2012,01,01,11,00,AAXX 01111 10763 41470 82203 10104 20091 39785 40163 51003 72122 878// 333 55300 20123 30123 83810 87613=
10763,2012,01,01,12,00,AAXX 01121 10763 01470 82304 10106 20091 39781 40159 58002 69901 72162 878// 333 31/// 55300 20120 30119 69907 82810 87614=
10763,2012,01,01,13,00,AAXX 01131 10763 42470 82204 10107 20091 39780 40158 58005 878// 333 55300 20117 30117 82810 87613=
10763,2012,01,01,14,00,AAXX 01141 10763 42468 82103 10109 20095 39779 40156 56006 878// 333 55300 20089 30089 83810 87612=
10763,2012,01,01,15,00,AAXX 01151 10763 21468 81903 10102 20092 39780 40158 55001 72122 878// 333 55300 20097 30097 69907 83812 85614 85621=
10763,2012,01,01,16,00,AAXX 01161 10763 41468 81803 10101 20090 39782 40161 53002 76062 878// 333 55300 20007 30007 82812 85614 86617=
10763,2012,01,01,17,00,AAXX 01171 10763 41468 71704 10099 20087 39781 40160 50002 72162 875// 333 55300 20000 30000 83614 85619 86628=
10763,2012,01,01,18,00,AAXX 01181 10763 01468 71603 10099 20086 39782 40161 51002 69902 70162 875// 333 10109 20081 31007 55300 20000 30000 69907 82614 87630=
10763,2012,01,01,19,00,AAXX 01191 10763 42768 61604 10093 20079 39777 40157 58005 83501 333 55300 20000 30000 83650 86075=
10763,2012,01,01,20,00,AAXX 01201 10763 42575 71803 10093 20076 39777 40157 58004 83531 333 55300 20000 30000 82628 83359 86075=
10763,2012,01,01,22,00,AAXX 01221 10763 42775 71303 10081 20069 39765 40146 58012 8357/ 333 55300 20000 30000 83656 86365=
10763,2012,01,01,23,00,AAXX 01231 10763 42575 81604 10087 20074 39759 40139 56018 875// 333 55300 20000 30000 82630 87657=
10765,2012,01,01,00,00,AAXX 01001 10765 NIL=
10765,2012,01,01,01,00,AAXX 01011 10765 NIL=
10765,2012,01,01,02,00,AAXX 01021 10765 NIL=
10765,2012,01,01,03,00,AAXX 01031 10765 NIL=
10765,2012,01,01,04,00,AAXX 01041 10765 NIL=
10765,2012,01,01,05,00,AAXX 01051 10765 NIL=
10765,2012,01,01,06,00,AAXX 01061 10765 NIL=
10765,2012,01,01,07,00,AAXX 01071 10765 NIL=
10765,2012,01,01,08,00,AAXX 01081 10765 NIL=
10765,2012,01,01,09,00,AAXX 01091 10765 NIL=
10765,2012,01,01,10,00,AAXX 01101 10765 NIL=
10765,2012,01,01,11,00,AAXX 01111 10765 NIL=
10765,2012,01,01,12,00,AAXX 01121 10765 NIL=
10765,2012,01,01,13,00,AAXX 01131 10765 NIL=
10765,2012,01,01,14,00,AAXX 01141 10765 NIL=
10765,2012,01,01,15,00,AAXX 01151 10765 NIL=
10765,2012,01,01,16,00,AAXX 01161 10765 NIL=
10765,2012,01,01,17,00,AAXX 01171 10765 NIL=
10765,2012,01,01,18,00,AAXX 01181 10765 NIL=
10765,2012,01,01,19,00,AAXX 01191 10765 NIL=
10765,2012,01,01,20,00,AAXX 01201 10765 NIL=
10765,2012,01,01,21,00,AAXX 01211 10765 NIL=
10765,2012,01,01,22,00,AAXX 01221 10765 NIL=
10765,2012,01,01,23,00,AAXX 01231 10765 NIL=
10771,2012,01,01,00,00,AAXX 01001 10771 41113 81002 10007 20006 39652 40166 52003 75176 886// 333 81702 88704=
10771,2012,01,01,01,00,AAXX 01011 10771 41013 80902 10009 20008 39653 40167 53003 75155 886// 333 82701 88704=
10771,2012,01,01,02,00,AAXX 01021 10771 NIL=
10771,2012,01,01,03,00,AAXX 01031 10771 NIL=
10771,2012,01,01,04,00,AAXX 01041 10771 NIL=
10771,2012,01,01,05,00,AAXX 01051 10771 41115 80902 10018 20017 39659 40172 52002 751// 886// 333 88702=
10771,2012,01,01,06,00,AAXX 01061 10771 11120 80902 10020 20019 39661 40173 53005 60012 7205/ 886// 333 10021 20002 32000 70030 83702 88706=
10771,2012,01,01,07,00,AAXX 01071 10771 41115 80903 10025 20025 39662 40173 51005 71022 886// 333 83702 88706=
10771,2012,01,01,08,00,AAXX 01081 10771 41218 80903 10029 20028 39667 40178 52008 71022 886// 333 83704 88707=
10771,2012,01,01,09,00,AAXX 01091 10771 41315 80803 10036 20035 39669 40178 52008 75152 886// 333 88707=
10771,2012,01,01,10,00,AAXX 01101 10771 41125 81002 10045 20045 39671 40179 52009 72052 886// 333 83703 88707=
10771,2012,01,01,11,00,AAXX 01111 10771 41261 82403 10077 20076 39669 40171 50002 76062 885// 333 85706 88610=
10771,2012,01,01,12,00,AAXX 01121 10771 41260 82405 10090 20084 39665 40164 58004 76065 888// 333 85806 88610=
10771,2012,01,01,13,00,AAXX 01131 10771 41259 82504 10091 20085 39665 40164 56006 75865 888// 333 85806 87610=
10771,2012,01,01,14,00,AAXX 01141 10771 41260 82503 10093 20087 39666 40164 55003 76165 888// 333 84806 87612=
10771,2012,01,01,15,00,AAXX 01151 10771 41265 82303 10095 20086 39669 40167 53004 72165 888// 333 83806 87612=
10771,2012,01,01,16,00,AAXX 01161 10771 41365 72202 10090 20085 39666 40165 50001 75152 878// 333 82807 87612=
10771,2012,01,01,17,00,AAXX 01171 10771 41365 82603 10091 20084 39671 40170 53005 75152 888// 333 82807 84614 87624=
10771,2012,01,01,18,00,AAXX 01181 10771 11468 81802 10089 20082 39672 40171 53003 60022 75165 885// 333 10095 20021 31002 84614 87624=
10771,2012,01,01,19,00,AAXX 01191 10771 41468 81301 10087 20080 39668 40168 50002 72022 885// 333 84612 87626=
10771,2012,01,01,20,00,AAXX 01201 10771 42570 81602 10078 20075 39667 40168 58004 885// 333 84626 87638=
10771,2012,01,01,21,00,AAXX 01211 10771 41270 71603 10075 20075 39660 40161 57012 70152 85530 333 81706 85636 86359=
10771,2012,01,01,22,00,AAXX 01221 10771 42258 71302 10069 20067 39657 40159 57011 875// 333 83706 84636 85650=
10771,2012,01,01,23,00,AAXX 01231 10771 42260 71102 10065 20065 39652 40155 57015 84501 333 81706 84650 85077=
10776,2012,01,01,00,00,AAXX 01001 10776 07008 71603 10006 20005 39715 40170 53004 69991 73065 333 55/// 20131 30131 55300 20000 30000 69967 87/00=
10776,2012,01,01,01,00,AAXX 01011 10776 47004 71603 10008 20007 39716 40171 53004 75253 333 55300 20000 30000 87/00=
10776,2012,01,01,02,00,AAXX 01021 10776 47005 81603 10011 20010 39719 40174 52007 75150 333 55300 20000 30000 88/00=
10776,2012,01,01,03,00,AAXX 01031 10776 27009 71603 10015 20015 39717 40171 50002 76265 333 55300 20000 30000 69967 87/00=
10776,2012,01,01,04,00,AAXX 01041 10776 47013 81503 10015 20015 39719 40173 51003 75365 333 55300 20000 30000 88/01=
10776,2012,01,01,05,00,AAXX 01051 10776 41115 81603 10017 20016 39721 40175 53002 75155 887// 333 55300 20000 30000 88702=
10776,2012,01,01,06,00,AAXX 01061 10776 01120 81504 10017 20016 39723 40177 52006 60022 75165 887// 333 10017 20002 32000 4/998 55000 55300 20000 30000 69987 70062 88702 96445=
10776,2012,01,01,07,00,AAXX 01071 10776 41120 81603 10020 20019 39728 40181 53009 72022 886// 333 55300 20000 30000 88702=
10776,2012,01,01,08,00,AAXX 01081 10776 41115 81503 10025 20025 39733 40186 53012 72052 886// 333 55300 20002 30002 88702=
10776,2012,01,01,09,00,AAXX 01091 10776 21120 81503 10037 20037 39734 40185 51011 75865 877// 333 20002 3/000 55300 20046 30046 69927 87702=
10776,2012,01,01,10,00,AAXX 01101 10776 41120 81503 10041 20041 39735 40185 51007 72165 886// 333 55300 20148 30148 88702=
10776,2012,01,01,11,00,AAXX 01111 10776 41120 81602 10048 20048 39732 40181 58001 72022 886// 333 55300 20161 30161 88702=
10776,2012,01,01,12,00,AAXX 01121 10776 01462 81804 10073 20073 39729 40173 58005 69931 76165 877// 333 31/// 55300 20257 30257 69917 87710=
10776,2012,01,01,13,00,AAXX 01131 10776 41481 72104 10092 20089 39729 40170 56006 72122 8657/ 333 55300 20309 30309 83710 86630 87363=
10776,2012,01,01,14,00,AAXX 01141 10776 42482 82003 10091 20083 39731 40172 55001 871// 333 55300 20091 30091 87812=
10776,2012,01,01,15,00,AAXX 01151 10776 21483 71803 10092 20082 39729 40170 50000 70162 878// 333 55300 20064 30064 69907 85813 87630=
10776,2012,01,01,16,00,AAXX 01161 10776 42482 71503 10078 20072 39728 40171 58001 83801 333 55300 20010 30010 81813 83640 86076=
10776,2012,01,01,17,00,AAXX 01171 10776 41656 81602 10062 20059 39734 40180 53003 71022 875// 333 55300 20000 30000 87646=
10776,2012,01,01,18,00,AAXX 01181 10776 11535 71503 10062 20060 39733 40179 52004 69932 71062 875// 333 10095 20017 31002 55300 20000 30000 82630 87646=
10776,2012,01,01,19,00,AAXX 01191 10776 41005 71602 10058 20057 39731 40178 50003 74622 876// 333 55300 20000 30000 87701=
10776,2012,01,01,20,00,AAXX 01201 10776 41/02 91503 10055 20055 39729 40176 58005 74744 333 55300 20000 30000=
10776,2012,01,01,21,00,AAXX 01211 10776 37012 71503 10057 20056 39725 40172 58008 72030 333 55300 20000 30000 87/00 87/50 87/56=
10776,2012,01,01,22,00,AAXX 01221 10776 47008 71603 10055 20055 39720 40167 58011 73030 333 55300 20000 30000 86/00 87/76=
10776,2012,01,01,23,00,AAXX 01231 10776 47003 81603 10050 20050 39715 40162 58014 73030 333 55300 20000 30000 88/00=
10777,2012,01,01,00,00,AAXX 01001 10777 07002 82202 10035 20035 39516 40163 53006 60011 76265 333 4/003 55300 69947 88/00=
10777,2012,01,01,01,00,AAXX 01011 10777 47001 82102 10038 20036 39518 40164 53006 76265 333 4/002 55300 88/00=
10777,2012,01,01,02,00,AAXX 01021 10777 47002 72204 10044 20042 39521 40166 52008 76265 333 4/001 55300 87/00=
10777,2012,01,01,03,00,AAXX 01031 10777 27002 82202 10047 20045 39521 40165 51005 75265 333 4/001 55300 60017 88/00=
10777,2012,01,01,04,00,AAXX 01041 10777 47003 82204 10053 20051 39523 40166 51005 75165 333 55300 88/00=
10777,2012,01,01,05,00,AAXX 01051 10777 47005 82403 10056 20056 39525 40167 53004 75265 333 4/001 55300 88/00=
10777,2012,01,01,06,00,AAXX 01061 10777 07131 82504 10062 20060 39529 40170 53008 60032 75165 333 10064 20004 3/000 55000 55300 69967 70068 88/02=
10777,2012,01,01,07,00,AAXX 01071 10777 47005 72203 10064 20062 39532 40172 53009 75165 333 55300 87/01=
10777,2012,01,01,08,00,AAXX 01081 10777 47025 82403 10065 20065 39537 40178 53012 75165 333 55300 88/01=
10777,2012,01,01,09,00,AAXX 01091 10777 27143 72304 10070 20068 39540 40179 52011 72365 333 20004 3/000 55300 69927 87/02=
10777,2012,01,01,10,00,AAXX 01101 10777 47156 72304 10075 20075 39542 40180 51010 72250 333 55300 87/03=
10777,2012,01,01,11,00,AAXX 01111 10777 47250 72304 10079 20077 39540 40177 50003 71000 333 55300 87/04=
10777,2012,01,01,12,00,AAXX 01121 10777 07257 82405 10082 20080 39538 40174 58002 69921 75165 333 55300 69907 88/04=
10777,2012,01,01,13,00,AAXX 01131 10777 47267 82304 10084 20081 39537 40173 56005 72250 333 55300 88/06=
10777,2012,01,01,14,00,AAXX 01141 10777 47269 82304 10087 20087 39536 40171 56004 75150 333 55300 86/06 87/10 88/20=
10777,2012,01,01,15,00,AAXX 01151 10777 27378 72203 10087 20082 39534 40169 58004 72250 333 55300 69907 85/07 87/11 87/26=
10777,2012,01,01,16,00,AAXX 01161 10777 45479 52103 10086 20081 39535 40170 55002 333 55300 81/11 83/41 85/73=
10777,2012,01,01,17,00,AAXX 01171 10777 47687 72203 10086 20080 39539 40174 53003 72250 333 55300 87/47=
10777,2012,01,01,18,00,AAXX 01181 10777 07685 82103 10087 20079 39540 40175 52006 69922 70050 333 10089 20061 3/005 55300 69907 82/38 88/47=
10777,2012,01,01,19,00,AAXX 01191 10777 45980 31902 10079 20072 39534 40171 58001 333 55300 81/58 83/79=
10777,2012,01,01,20,00,AAXX 01201 10777 45781 72003 10079 20071 39533 40170 58006 333 55300 83/50 85/56 87/58=
10777,2012,01,01,21,00,AAXX 01211 10777 35481 22003 10075 20068 39528 40166 56012 333 55300 81/12=
10777,2012,01,01,22,00,AAXX 01221 10777 45474 72103 10070 20064 39524 40162 58010 333 55300 87/12=
10777,2012,01,01,23,00,AAXX 01231 10777 45375 72202 10068 20061 39519 40158 57014 333 55300 87/09=
10782,2012,01,01,00,00,AAXX 01001 10782 07/17 /1602 10011 20011 39560 40168 53005 69991 74076 333 4/003 55/// 20263 30235 55300 20000 30000 69937=
10782,2012,01,01,01,00,AAXX 01011 10782 47230 71701 10010 20010 39561 40170 53003 74044 333 4/002 55300 20000 30000 87/05=
10782,2012,01,01,02,00,AAXX 01021 10782 47214 81601 10009 20009 39563 40172 51007 74044 333 4/002 55300 20000 30000 87/05 88/10=
10782,2012,01,01,03,00,AAXX 01031 10782 27222 81501 10011 20011 39562 40170 50002 74044 333 4/001 55300 20000 30000 69987 85/03 88/06=
10782,2012,01,01,04,00,AAXX 01041 10782 47223 71301 10015 20015 39562 40170 51001 74044 333 4/002 55300 20000 30000 87/03=
10782,2012,01,01,05,00,AAXX 01051 10782 47114 80901 10020 20020 39565 40172 53002 74065 333 4/001 55300 20000 30000 88/03=
10782,2012,01,01,06,00,AAXX 01061 10782 07123 70701 10017 20017 39566 40173 53004 60032 74065 333 10020 20000 3/000 4/001 55008 55300 20000 30000 60017 70031 87/03=
10782,2012,01,01,07,00,AAXX 01071 10782 47/31 /2601 10006 20006 39571 40181 53009 72140 333 4/001 55300 20000 30000=
10782,2012,01,01,08,00,AAXX 01081 10782 47/08 /2701 10013 20013 39572 40181 52007 73030 333 4/001 55300 20005 30005=
10782,2012,01,01,09,00,AAXX 01091 10782 27/02 /2901 10025 20025 39577 40183 52011 73065 333 20000 3/000 4/001 55300 20054 30054 69937=
10782,2012,01,01,10,00,AAXX 01101 10782 47113 72601 10040 20040 39577 40180 51006 74043 333 4/001 55300 20093 30093 87/01=
10782,2012,01,01,11,00,AAXX 01111 10782 47123 71802 10055 20055 39574 40173 50002 74065 333 55300 20122 30122 87/01=
10782,2012,01,01,12,00,AAXX 01121 10782 07135 72304 10066 20066 39572 40168 58005 60011 74065 333 55300 20100 30100 69987 87/02=
10782,2012,01,01,13,00,AAXX 01131 10782 47139 82204 10071 20071 39571 40166 56006 74044 333 55300 20089 30089 88/02=
10782,2012,01,01,14,00,AAXX 01141 10782 47224 72104 10077 20076 39576 40170 53002 75165 333 55300 20060 30060 87/03=
10782,2012,01,01,15,00,AAXX 01151 10782 27256 82104 10079 20078 39575 40168 52003 74065 333 55300 20010 30010 69957 88/03=
10782,2012,01,01,16,00,AAXX 01161 10782 47269 82205 10084 20082 39574 40166 50003 72254 333 55300 20000 30000 88/04=
10782,2012,01,01,17,00,AAXX 01171 10782 45274 82306 10085 20085 39578 40170 53002 333 55300 20000 30000 87/05 88/10=
10782,2012,01,01,18,00,AAXX 01181 10782 07375 82205 10086 20081 39579 40171 53004 60022 72265 333 10087 20006 3/000 55300 20000 30000 69917 88/06 88/26 88/39=
10782,2012,01,01,19,00,AAXX 01191 10782 47364 82205 10085 20079 39578 40170 50004 72250 333 55300 20000 30000 87/07 87/17 88/33=
10782,2012,01,01,20,00,AAXX 01201 10782 45274 82202 10083 20077 39574 40166 58004 333 55300 20000 30000 82/06 87/22 88/37=
10782,2012,01,01,21,00,AAXX 01211 10782 27483 82204 10087 20076 39571 40162 58008 70050 333 55300 20000 30000 69907 83/12 88/26 88/34=
10782,2012,01,01,22,00,AAXX 01221 10782 45380 82102 10082 20074 39566 40158 58012 333 55300 20000 30000 83/09 87/14 88/30=
10782,2012,01,01,23,00,AAXX 01231 10782 45475 81803 10080 20072 39561 40153 58013 333 55300 20000 30000 88/10 88/21=
10788,2012,01,01,00,00,AAXX 01001 10788 07909 01003 10008 20008 39732 40175 53003 60041 75376 333 55/// 20156 30154 55300 20000 30000 60027=
10788,2012,01,01,01,00,AAXX 01011 10788 47114 41103 10011 20011 39733 40175 52004 75365 333 55300 20000 30000 81/02 83/05=
10788,2012,01,01,02,00,AAXX 01021 10788 47221 11003 10013 20013 39737 40179 53007 75165 333 55300 20000 30000 81/03=
10788,2012,01,01,03,00,AAXX 01031 10788 27211 80903 10015 20015 39736 40178 50004 75765 333 55300 20000 30000 60017 81/06=
10788,2012,01,01,04,00,AAXX 01041 10788 47/14 81003 10016 20016 39737 40179 51004 76366 333 55300 20000 30000 8////=
10788,2012,01,01,05,00,AAXX 01051 10788 47216 80903 10018 20018 39739 40180 53002 75265 333 55300 20000 30000 82/05=
10788,2012,01,01,06,00,AAXX 01061 10788 07213 61004 10019 20019 39741 40182 53005 60072 75865 333 10019 20002 3/100 55001 55300 20000 30000 60027 70097 86/04=
10788,2012,01,01,07,00,AAXX 01071 10788 47250 70903 10021 20021 39747 40188 53010 72365 333 55300 20000 30000 87/05=
10788,2012,01,01,08,00,AAXX 01081 10788 47221 81103 10024 20024 39750 40191 53011 75365 333 55300 20001 30001 81/04=
10788,2012,01,01,09,00,AAXX 01091 10788 27230 40803 10027 20027 39753 40194 51012 75165 333 20002 3/100 55300 20035 30035 60017 84/04=
10788,2012,01,01,10,00,AAXX 01101 10788 47135 10903 10031 20031 39753 40193 51006 72365 333 55300 20089 30089 81/02=
10788,2012,01,01,11,00,AAXX 01111 10788 47433 70803 10037 20037 39751 40190 50001 75165 333 55300 20098 30098 87/10=
10788,2012,01,01,12,00,AAXX 01121 10788 07450 70803 10045 20045 39748 40185 58005 60011 72265 333 55300 20241 30241 69917 87/15=
10788,2012,01,01,13,00,AAXX 01131 10788 47450 80902 10051 20051 39747 40183 56006 72365 333 55300 20178 30178 87/17 88/24=
10788,2012,01,01,14,00,AAXX 01141 10788 47448 70702 10057 20057 39748 40183 55003 72250 333 55300 20156 30156 86/19 87/27 87/33=
10788,2012,01,01,15,00,AAXX 01151 10788 27445 80803 10056 20056 39748 40183 55000 72265 333 55300 20030 30030 69907 83/16 83/29 88/38=
10788,2012,01,01,16,00,AAXX 01161 10788 47642 60701 10052 20052 39747 40183 50000 71000 333 55300 20007 30007 86/34 86/50=
10788,2012,01,01,17,00,AAXX 01171 10788 47625 50702 10043 20043 39750 40188 53002 72030 333 55300 20000 30000 85/46=
10788,2012,01,01,18,00,AAXX 01181 10788 07638 70901 10049 20049 39750 40187 53002 60012 72365 333 10058 20019 3/001 55300 20000 30000 69907 81/35 84/46 87/50=
10788,2012,01,01,19,00,AAXX 01191 10788 47721 80802 10047 20047 39751 40188 51004 71000 333 55300 20000 30000 88/50=
10788,2012,01,01,20,00,AAXX 01201 10788 47928 01102 10042 20042 39747 40185 58003 72030 333 55300 20000 30000=
10788,2012,01,01,22,00,AAXX 01221 10788 47002 60903 10035 20035 39738 40177 58013 73030 333 55300 20000 30000 81/01 86/57=
10788,2012,01,01,23,00,AAXX 01231 10788 47903 01002 10034 20034 39734 40173 58013 73030 333 55300 20000 30000=
10791,2012,01,01,00,00,AAXX 01001 10791 06/// /2811 11001 21001 38498 48444 53010 60011 333 55300 69917 91120 91214=
10791,2012,01,01,01,00,AAXX 01011 10791 46/// /2812 10000 20000 38497 48443 50007 333 55300 91117 91213=
10791,2012,01,01,02,00,AAXX 01021 10791 46/// /2814 10000 20000 38500 48446 52005 333 55300 91120 91215=
10791,2012,01,01,03,00,AAXX 01031 10791 26/// /2813 10000 20000 38504 48450 53006 333 55300 69937 91120 91215=
10791,2012,01,01,04,00,AAXX 01041 10791 46/// /2714 10004 20004 38502 48448 50005 333 55300 91117 91214=
10791,2012,01,01,05,00,AAXX 01051 10791 41/90 92613 10007 20007 38506 48451 52006 76164 333 55300 91118 91215 96045=
10791,2012,01,01,06,00,AAXX 01061 10791 01/90 92714 10011 20011 38510 48455 53006 60032 76164 333 10012 21053 49125 55000 55300 60017 70030 91120 91215 96045=
10791,2012,01,01,07,00,AAXX 01071 10791 41/90 92614 10012 20012 38512 48457 51010 76164 333 55300 91120 91215 96045=
10791,2012,01,01,08,00,AAXX 01081 10791 41/90 92612 10011 20011 38520 48465 53014 76164 333 55300 91119 91214 96045=
10791,2012,01,01,09,00,AAXX 01091 10791 21/90 92414 10010 20010 38521 48466 51011 76364 333 21053 55300 60037 91120 91215 96045=
10791,2012,01,01,10,00,AAXX 01101 10791 41/90 92611 10015 20015 38525 48469 51013 76064 333 55300 91118 91214 96045 96263=
10791,2012,01,01,11,00,AAXX 01111 10791 41/90 92414 10016 20016 38521 48466 50001 76164 333 55300 91117 91214 96045=
10791,2012,01,01,12,00,AAXX 01121 10791 01/90 92414 10017 20017 38519 48464 58002 60061 76164 333 49121 55300 60037 91120 91215 96045=
10791,2012,01,01,13,00,AAXX 01131 10791 41/90 92412 10022 20022 38519 48464 56006 76064 333 55300 91118 91214 96045=
10791,2012,01,01,14,00,AAXX 01141 10791 41/90 92412 10023 20023 38527 48471 53006 76064 333 55300 91117 91214 96045=
10791,2012,01,01,15,00,AAXX 01151 10791 21/90 92412 10025 20025 38528 48472 53009 76164 333 55300 60047 91118 91214 96045=
10791,2012,01,01,16,00,AAXX 01161 10791 41/90 92412 10028 20028 38530 48474 51011 76064 333 55300 91116 91212 96045=
10791,2012,01,01,17,00,AAXX 01171 10791 41/90 92413 10028 20028 38528 48472 50001 76064 333 55300 91117 91213 96045=
10791,2012,01,01,18,00,AAXX 01181 10791 01/90 92414 10029 20029 38532 48476 53004 60132 76164 333 10030 20007 49117 55300 60037 91119 91214 96045=
10791,2012,01,01,19,00,AAXX 01191 10791 41/90 92413 10029 20029 38534 48478 53004 76064 333 55300 91119 91214 96045=
10791,2012,01,01,20,00,AAXX 01201 10791 41/90 92412 10030 20030 38531 48475 50003 74564 333 55300 91118 91213=
10791,2012,01,01,21,00,AAXX 01211 10791 26/// /2211 10029 20029 38531 48475 58001 333 55300 69957 91119 91214=
10791,2012,01,01,22,00,AAXX 01221 10791 46/// /2110 10026 20026 38526 48471 58008 333 55300 91114 91211=
10791,2012,01,01,23,00,AAXX 01231 10791 46/// /2212 10025 20025 38517 48462 58014 333 55300 91115 91212=
10796,2012,01,01,00,00,AAXX 01001 10796 07/04 /3201 11001 21002 39431 40179 51004 60021 74175 333 55300 69977=
10796,2012,01,01,01,00,AAXX 01011 10796 47213 81101 10001 20001 39431 40178 51002 75165 333 55300 86/06 87/11 88/31=
10796,2012,01,01,02,00,AAXX 01021 10796 47210 81001 10001 20001 39435 40183 53004 75865 333 55300 87/04 88/08=
10796,2012,01,01,03,00,AAXX 01031 10796 27202 83201 10001 20001 39437 40185 53006 75165 333 55300 69997 87/04 87/08 88/13=
10796,2012,01,01,04,00,AAXX 01041 10796 47205 80000 10001 20001 39437 40185 51006 75865 333 55300 87/04 88/08=
10796,2012,01,01,05,00,AAXX 01051 10796 47103 83601 10001 20001 39440 40188 53005 75865 333 55300 86/03 88/07=
10796,2012,01,01,06,00,AAXX 01061 10796 07103 80101 10002 20002 39443 40191 53006 60052 75365 333 10002 21008 3/000 55014 55300 60027 70057 86/02 88/08=
10796,2012,01,01,07,00,AAXX 01071 10796 47209 80000 10002 20002 39447 40195 53010 75365 333 55300 87/03 87/09 88/12=
10796,2012,01,01,08,00,AAXX 01081 10796 47204 80000 10003 20003 39452 40200 53012 73065 333 55300 82/03 88/06=
10796,2012,01,01,09,00,AAXX 01091 10796 27218 80901 10004 20004 39453 40201 51010 75865 333 21008 3/000 55300 60027 88/04=
10796,2012,01,01,10,00,AAXX 01101 10796 47242 80000 10007 20006 39455 40202 51008 72365 333 55300 88/05=
10796,2012,01,01,11,00,AAXX 01111 10796 47115 80201 10009 20008 39453 40200 50001 75165 333 55300 84/02 88/06=
10796,2012,01,01,12,00,AAXX 01121 10796 07225 80201 10010 20009 39451 40197 58002 60031 75865 333 55300 60027 88/04=
10796,2012,01,01,13,00,AAXX 01131 10796 47007 73601 10009 20008 39451 40197 56004 75165 333 55300 82/00 87/04=
10796,2012,01,01,14,00,AAXX 01141 10796 47115 80201 10010 20009 39453 40199 55000 75165 333 55300 87/03 88/08=
10796,2012,01,01,15,00,AAXX 01151 10796 27212 71301 10014 20014 39453 40198 52002 75865 333 55300 60017 87/05=
10796,2012,01,01,16,00,AAXX 01161 10796 47215 80401 10023 20023 39451 40193 50000 72365 333 55300 88/04=
10796,2012,01,01,17,00,AAXX 01171 10796 47222 81101 10020 20020 39453 40196 55000 72253 333 55300 83/03 88/07=
10796,2012,01,01,18,00,AAXX 01181 10796 07226 83401 10010 20010 39457 40204 53004 60062 75165 333 10028 20002 3/000 55300 60017 87/05 88/09=
10796,2012,01,01,19,00,AAXX 01191 10796 47212 81002 10027 20027 39457 40199 51006 72365 333 55300 88/05 88/09=
10796,2012,01,01,20,00,AAXX 01201 10796 47013 80301 10014 20014 39453 40198 50000 72365 333 55300 81/00 87/08 88/12=
10796,2012,01,01,21,00,AAXX 01211 10796 27001 80201 10017 20017 39452 40196 58005 73065 333 55300 69917 87/00 87/06 88/42=
10796,2012,01,01,22,00,AAXX 01221 10796 47002 83501 10024 20024 39446 40188 58011 73033 333 55300 83/00 88/15 88/36=
10796,2012,01,01,23,00,AAXX 01231 10796 47404 80201 10021 20021 39440 40182 58013 73033 333 55300 88/12=
10803,2012,01,01,00,00,AAXX 01001 10803 07667 82007 10113 20096 39898 40182 51006 69981 72365 333 55/// 20046 30046 55300 20000 30000 69947 88/36=
10803,2012,01,01,01,00,AAXX 01011 10803 47688 82008 10115 20096 39899 40183 51005 72365 333 55300 20000 30000 88/38=
10803,2012,01,01,02,00,AAXX 01021 10803 45688 82008 10117 20096 39900 40184 52003 333 55300 20000 30000 88/41=
10803,2012,01,01,03,00,AAXX 01031 10803 27688 82008 10119 20097 39900 40184 51002 70065 333 55300 20000 30000 69907 88/41=
10803,2012,01,01,04,00,AAXX 01041 10803 47462 72008 10116 20097 39901 40185 52002 75765 333 55300 20000 30000 84/13 85/50 87/56 91113=
10803,2012,01,01,05,00,AAXX 01051 10803 47688 82007 10121 20095 39903 40187 53003 72365 333 55300 20000 30000 85/46 87/56 88/64=
10803,2012,01,01,06,00,AAXX 01061 10803 07688 81909 10122 20095 39904 40188 52004 69982 70065 333 10123 20107 3/009 55000 55300 20000 30000 69907 70044 88/45 91113=
10803,2012,01,01,07,00,AAXX 01071 10803 45688 82008 10122 20095 39905 40189 51004 333 55300 20000 30000 84/46 88/56=
10803,2012,01,01,08,00,AAXX 01081 10803 45688 82008 10126 20096 39909 40192 53006 333 55300 20001 30001 88/41 91113=
10803,2012,01,01,09,00,AAXX 01091 10803 35688 82009 10127 20097 39913 40196 53009 333 20107 3/009 55300 20083 30080 87/44 87/57 88/60 91114=
10803,2012,01,01,10,00,AAXX 01101 10803 45688 81909 10128 20097 39913 40196 51008 333 55300 20204 30202 87/48 88/50=
10803,2012,01,01,11,00,AAXX 01111 10803 45488 81908 10128 20097 39912 40195 50003 333 55300 20357 30355 83/18 84/22 88/44 91114=
10803,2012,01,01,12,00,AAXX 01121 10803 15688 81908 10129 20100 39906 40189 58007 60001 333 55300 20264 30264 85/42 88/48 91114=
10803,2012,01,01,13,00,AAXX 01131 10803 45688 81907 10128 20100 39898 40181 58015 333 55300 20291 30290 86/39 88/46=
10803,2012,01,01,14,00,AAXX 01141 10803 47588 71905 10131 20101 39895 40177 56017 72250 333 55300 20273 30271 82/24 85/41 87/48=
10803,2012,01,01,15,00,AAXX 01151 10803 27588 11908 10131 20100 39894 40176 56012 72250 333 55300 20178 30173 69907 81/23=
10803,2012,01,01,16,00,AAXX 01161 10803 45588 31907 10125 20100 39897 40180 55001 333 55300 20053 30053 82/22 83/27=
10803,2012,01,01,17,00,AAXX 01171 10803 45688 42008 10131 20094 39895 40177 50000 333 55300 20000 30000 81/36 84/45=
10803,2012,01,01,18,00,AAXX 01181 10803 17688 52008 10134 20090 39892 40174 58002 69902 70050 333 10136 20120 3/011 55300 20000 30000 81/37 85/49 85/58=
10803,2012,01,01,19,00,AAXX 01191 10803 45588 81908 10136 20090 39892 40174 56005 333 55300 20000 30000 86/27 87/50 88/56 91113=
10803,2012,01,01,20,00,AAXX 01201 10803 45588 72008 10135 20090 39888 40170 58007 333 55300 20000 30000 81/25 87/56 91113=
10803,2012,01,01,21,00,AAXX 01211 10803 35588 82006 10138 20089 39882 40163 58010 333 55300 20000 30000 85/29 88/57 91113=
10803,2012,01,01,22,00,AAXX 01221 10803 45588 81904 10133 20086 39874 40156 58018 333 55300 20000 30000 81/29 87/57 88/69=
10803,2012,01,01,23,00,AAXX 01231 10803 45988 02203 10119 20080 39866 40149 58022 333 55300 20000 30000=
10805,2012,01,01,00,00,AAXX 01001 10805 07540 82005 10109 20095 39985 40174 52005 69991 72365 333 55/// 20059 30059 55300 20000 30000 69987 88/27=
10805,2012,01,01,01,00,AAXX 01011 10805 45560 72005 10108 20094 39986 40175 52004 333 55300 20000 30000 87/31 87/38 87/50=
10805,2012,01,01,02,00,AAXX 01021 10805 47561 82104 10106 20094 39990 40180 53007 75150 333 55300 20000 30000 88/29=
10805,2012,01,01,03,00,AAXX 01031 10805 27578 82106 10111 20094 39988 40177 50003 75150 333 55300 20000 30000 69907 88/32=
10805,2012,01,01,04,00,AAXX 01041 10805 47688 82103 10110 20094 39991 40180 51005 72250 333 55300 20000 30000 88/34=
10805,2012,01,01,05,00,AAXX 01051 10805 41482 71903 10109 20095 39990 40179 55000 72122 878// 333 55300 20000 30000 82810 87631=
10805,2012,01,01,06,00,AAXX 01061 10805 01575 72005 10115 20096 39993 40182 52005 69992 76065 875// 333 10115 20093 31009 55000 55300 20000 30000 69907 70034 87626=
10805,2012,01,01,07,00,AAXX 01071 10805 41470 72105 10116 20096 39994 40183 53003 72166 878// 333 55300 20000 30000 82810 87633=
10805,2012,01,01,08,00,AAXX 01081 10805 41483 72106 10120 20095 39996 40185 51006 72122 878// 333 55300 20000 30000 82817 87635=
10805,2012,01,01,09,00,AAXX 01091 10805 21483 72106 10121 20097 39999 40188 53006 70262 878// 333 20093 3/009 55300 20032 30032 69907 82818 87636=
10805,2012,01,01,10,00,AAXX 01101 10805 41482 72006 10123 20100 39999 40188 51005 72162 878// 333 55300 20134 30134 82812 87638=
10805,2012,01,01,11,00,AAXX 01111 10805 41475 72105 10124 20102 39999 40187 51003 76162 878// 333 55300 20093 30093 83813 87634=
10805,2012,01,01,12,00,AAXX 01121 10805 01482 82006 10126 20102 39995 40183 58004 69901 75865 888// 333 31/// 55300 20197 30197 69907 81812 87633=
10805,2012,01,01,13,00,AAXX 01131 10805 41488 82006 10128 20102 39985 40173 58014 72152 888// 333 55300 20127 30127 81813 87637=
10805,2012,01,01,14,00,AAXX 01141 10805 41488 72007 10130 20103 39981 40169 57018 72122 87848 333 55300 20160 30158 81812 87635=
10805,2012,01,01,15,00,AAXX 01151 10805 21489 82007 10132 20102 39980 40168 56015 70365 87848 333 55300 20109 30103 69907 81810 87637=
10805,2012,01,01,16,00,AAXX 01161 10805 42489 82005 10131 20102 39984 40172 55001 87848 333 55300 20006 30006 81810 87639=
10805,2012,01,01,17,00,AAXX 01171 10805 42489 81906 10125 20098 39981 40169 50000 81848 333 55300 20000 30000 81816 85358=
10805,2012,01,01,18,00,AAXX 01181 10805 11689 81906 10126 20096 39980 40168 50000 69902 70165 83548 333 10133 20114 31010 55300 20000 30000 83641 83358=
10805,2012,01,01,19,00,AAXX 01191 10805 42689 81906 10130 20093 39976 40164 58008 82548 333 55300 20000 30000 82641 84357=
10805,2012,01,01,20,00,AAXX 01201 10805 42589 82005 10127 20095 39974 40162 58007 82848 333 55300 20000 30000 81825 83357 85270=
10805,2012,01,01,21,00,AAXX 01211 10805 35688 72005 10125 20093 39967 40155 58013 333 55300 20000 30000 83/45 87/67 87/69=
10805,2012,01,01,22,00,AAXX 01221 10805 45688 82005 10122 20090 39961 40149 58015 333 55300 20000 30000 81/45 88/70=
10805,2012,01,01,23,00,AAXX 01231 10805 45988 82006 10122 20088 39951 40139 58023 333 55300 20000 30000 88/70=
10815,2012,01,01,00,00,AAXX 01001 10815 07233 72506 10063 20063 39233 48475 53007 60071 75765 333 4/003 55/// 20226 30225 55300 20000 30000 60037 87/03 87/07 87/10=
10815,2012,01,01,01,00,AAXX 01011 10815 47224 72505 10067 20067 39232 48475 50007 75265 333 4/003 55300 20000 30000 87/03=
10815,2012,01,01,02,00,AAXX 01021 10815 47233 72506 10066 20066 39233 48475 51004 75265 333 4/003 55300 20000 30000 87/04 87/08=
10815,2012,01,01,03,00,AAXX 01031 10815 27229 72506 10067 20066 39233 48476 55000 75365 333 4/001 55300 20000 30000 60037 87/04 87/09=
10815,2012,01,01,04,00,AAXX 01041 10815 47225 72605 10068 20067 39236 48479 53004 75865 333 55300 20000 30000 87/04 87/07 91113=
10815,2012,01,01,05,00,AAXX 01051 10815 41259 82605 10069 20068 39237 48480 53004 75866 8672/ 333 55300 20000 30000 83704 84707 88521 96259=
10815,2012,01,01,06,00,AAXX 01061 10815 01162 82506 10070 20068 39237 48480 51004 60112 75866 877// 333 10072 20051 3/004 43010 55000 55300 20000 30000 60017 70182 81702 86704 91113 96258 96459 96458=
10815,2012,01,01,07,00,AAXX 01071 10815 41160 82506 10070 20068 39240 48483 53004 75866 877// 333 55300 20000 30000 81703 86706 96258=
10815,2012,01,01,08,00,AAXX 01081 10815 41166 82406 10074 20071 39241 48484 53004 72165 885// 333 55300 20007 30007 82703 87606 96258 96251=
10815,2012,01,01,09,00,AAXX 01091 10815 21157 82604 10072 20069 39246 48488 53009 75165 885// 333 20051 3/004 55300 20080 30080 69927 85703 87606 96458 96451=
10815,2012,01,01,10,00,AAXX 01101 10815 41157 82505 10077 20077 39244 48488 50004 75155 885// 333 55300 20234 30234 84703 87606 96251=
10815,2012,01,01,11,00,AAXX 01111 10815 41259 82607 10077 20077 39243 48487 50002 75155 885// 333 55300 20343 30343 85704 87606 91113 96251=
10815,2012,01,01,12,00,AAXX 01121 10815 01156 82506 10077 20076 39244 48488 55002 69961 75365 875// 333 42007 55300 20410 30409 69947 82702 84704 87608 91113 96458 96453 96451 444 17070=
10815,2012,01,01,13,00,AAXX 01131 10815 41132 82405 10077 20075 39240 48484 58004 75965 877// 333 55300 20284 30283 82703 86705 96259 96258 96253=
10815,2012,01,01,14,00,AAXX 01141 10815 41156 82406 10076 20076 39238 48482 58005 75966 877// 333 55300 20182 30182 84703 85706 96259=
10815,2012,01,01,15,00,AAXX 01151 10815 21181 82405 10078 20077 39238 48483 56006 72165 885// 333 55300 20038 30038 60027 85702 87605 96259 96258 96459 96458 96453=
10815,2012,01,01,16,00,AAXX 01161 10815 41147 82405 10079 20077 39238 48483 56002 75965 885// 333 55300 20003 30003 85703 87605 96258 96250=
10815,2012,01,01,17,00,AAXX 01171 10815 47285 82406 10079 20076 39236 48481 58002 72365 333 55300 20000 30000 87/05 88/09 91113=
10815,2012,01,01,18,00,AAXX 01181 10815 07288 82607 10077 20075 39235 48480 58003 60032 70065 333 10081 20068 3/004 55300 20000 30000 69947 87/05 88/09 91115=
10815,2012,01,01,19,00,AAXX 01191 10815 45288 82508 10079 20075 39233 48479 57005 333 55300 20000 30000 87/06 88/18 88/50 91114=
10815,2012,01,01,20,00,AAXX 01201 10815 47288 82406 10080 20076 39231 48477 58005 75165 333 55300 20000 30000 88/05 91115=
10815,2012,01,01,21,00,AAXX 01211 10815 27288 82306 10080 20077 39224 48471 58011 72365 333 55300 20000 30000 69907 88/04 91115=
10815,2012,01,01,22,00,AAXX 01221 10815 45288 82305 10080 20077 39219 48467 58014 333 55300 20000 30000 88/04=
10815,2012,01,01,23,00,AAXX 01231 10815 45388 72305 10078 20073 39213 48461 56018 333 55300 20000 30000 87/06 87/12 87/17=
10818,2012,01,01,00,00,AAXX 01001 10818 07/01 /2307 10051 20051 39044 48479 53005 69971 75765 333 55/// 20133 30133 55300 20000 30000 69917 91113=
10818,2012,01,01,01,00,AAXX 01011 10818 47/02 /2408 10051 20051 39047 48481 53007 73065 333 55300 20000 30000=
10818,2012,01,01,02,00,AAXX 01021 10818 47160 82307 10052 20052 39051 48485 53009 72030 333 55300 20000 30000 83/03 87/14 88/44=
10818,2012,01,01,03,00,AAXX 01031 10818 27380 82207 10054 20054 39049 48484 50005 70065 333 55300 20000 30000 69927 87/07 88/35 88/44=
10818,2012,01,01,04,00,AAXX 01041 10818 45281 82307 10056 20056 39051 48486 51004 333 55300 20000 30000 87/06 88/27 88/35=
10818,2012,01,01,05,00,AAXX 01051 10818 45285 72408 10057 20057 39052 48487 53001 333 55300 20000 30000 87/05=
10818,2012,01,01,06,00,AAXX 01061 10818 17388 72408 10059 20059 39054 48489 52005 69992 70065 333 10060 20039 3/003 55000 55300 20000 30000 70037 87/07 87/25=
10818,2012,01,01,07,00,AAXX 01071 10818 45388 82207 10060 20060 39057 48492 53006 333 55300 20000 30000 88/08=
10818,2012,01,01,08,00,AAXX 01081 10818 47388 72107 10061 20061 39060 48495 53008 72360 333 55300 20011 30011 87/07 87/13 87/60=
10818,2012,01,01,09,00,AAXX 01091 10818 27385 72106 10061 20061 39064 48499 53010 70060 333 20039 3/003 55300 20065 30065 69907 87/09=
10818,2012,01,01,10,00,AAXX 01101 10818 45388 72207 10065 20065 39066 48501 51009 333 55300 20224 30224 87/09 87/63=
10818,2012,01,01,11,00,AAXX 01111 10818 45388 82106 10069 20069 39062 48498 50002 333 55300 20205 30205 88/08=
10818,2012,01,01,12,00,AAXX 01121 10818 07388 72207 10068 20068 39061 48497 58003 69901 72365 333 55300 20186 30186 69907 87/09=
10818,2012,01,01,13,00,AAXX 01131 10818 47488 82207 10073 20072 39055 48493 58011 72250 333 55301 20392 30373 83/15 87/72 88/77=
10818,2012,01,01,14,00,AAXX 01141 10818 45488 72307 10072 20071 39053 48491 58009 333 55300 20321 30311 87/13 87/68 87/71=
10818,2012,01,01,15,00,AAXX 01151 10818 27488 72207 10071 20069 39053 48491 56008 70050 333 55301 20284 30261 69907 87/11 87/76=
10818,2012,01,01,16,00,AAXX 01161 10818 45488 82208 10069 20068 39052 48489 56003 333 55300 20055 30054 84/14 88/76 88/80=
10818,2012,01,01,17,00,AAXX 01171 10818 45488 82207 10069 20068 39054 48491 53001 333 55300 20000 30000 85/13 87/20 88/74=
10818,2012,01,01,18,00,AAXX 01181 10818 17588 82208 10068 20065 39052 48489 58001 69902 70050 333 10075 20058 3/006 55300 20000 30000 82/21 88/73=
10818,2012,01,01,19,00,AAXX 01191 10818 45488 82207 10068 20063 39050 48487 58002 333 55300 20000 30000 83/12 84/18 88/73=
10818,2012,01,01,20,00,AAXX 01201 10818 45488 82208 10069 20065 39049 48487 56005 333 55300 20000 30000 88/13 88/30 88/48=
10818,2012,01,01,21,00,AAXX 01211 10818 35488 82207 10064 20062 39044 48481 58008 333 55300 20000 30000 85/13 88/64 88/67=
10818,2012,01,01,22,00,AAXX 01221 10818 45688 82308 10066 20066 39035 48474 58015 333 55300 20000 30000 81/38 85/64 88/66=
10818,2012,01,01,23,00,AAXX 01231 10818 45988 82107 10066 20066 39032 48471 56017 333 55300 20000 30000 88/65=
10827,2012,01,01,00,00,AAXX 01001 10827 41/20 82604 10055 20055 39091 48479 53007 72065 877// 333 817// 87705=
10827,2012,01,01,01,00,AAXX 01011 10827 41020 82703 10054 20054 39094 48482 51009 71022 877// 333 81701 87705=
10827,2012,01,01,02,00,AAXX 01021 10827 41240 82505 10057 20056 39097 48485 53008 71022 878// 333 81805 85616 87641=
10827,2012,01,01,03,00,AAXX 01031 10827 41350 82403 10054 20052 39096 48484 50005 71022 878// 333 81808 85618 87645=
10827,2012,01,01,04,00,AAXX 01041 10827 41350 82403 10052 20051 39097 48484 52003 71022 878// 333 81808 85612 87635=
10827,2012,01,01,05,00,AAXX 01051 10827 41140 82603 10057 20056 39100 48488 53003 71022 878// 333 81803 85608 87614=
10827,2012,01,01,06,00,AAXX 01061 10827 12/60 62503 10061 20058 39101 48490 51005 60012 84831 333 10062 20041 3/003 42004 55000 70041 818// 83627=
10827,2012,01,01,07,00,AAXX 01071 10827 41/02 92103 10047 20046 39105 48490 52008 74722 333 89/01=
10827,2012,01,01,08,00,AAXX 01081 10827 41/01 92302 10049 20049 39108 48493 53008 74744 333 89/00=
10827,2012,01,01,09,00,AAXX 01091 10827 41/01 92103 10052 20052 39112 48497 52011 76042 333 89/00=
10827,2012,01,01,10,00,AAXX 01101 10827 41/01 92303 10055 20055 39113 48499 51008 74764 333 89/00=
10827,2012,01,01,11,00,AAXX 01111 10827 41/01 92004 10057 20057 39112 48499 50004 74344 333 89/01=
10827,2012,01,01,12,00,AAXX 01121 10827 41030 82303 10063 20063 39108 48496 58004 75364 875// 333 81700 85703 87608=
10827,2012,01,01,13,00,AAXX 01131 10827 41060 72303 10069 20069 39103 48493 58010 72055 878/2 333 81700 85804 85628=
10827,2012,01,01,14,00,AAXX 01141 10827 42/68 72203 10072 20069 39102 48493 56010 876// 333 817// 85704 85614=
10827,2012,01,01,15,00,AAXX 01151 10827 41/80 72203 10070 20067 39101 48492 56007 70252 876// 333 817// 86704 85612=
10827,2012,01,01,16,00,AAXX 01161 10827 42081 72203 10069 20066 39102 48492 55001 865/1 333 81700 83704 85609=
10827,2012,01,01,17,00,AAXX 01171 10827 42280 72503 10068 20068 39102 48492 55000 83501 333 81704 83618 87075=
10827,2012,01,01,18,00,AAXX 01181 10827 11080 72402 10065 20065 39100 48490 58001 69922 70252 83508 333 10072 20045 31004 4/998 81700 83611 87274=
10827,2012,01,01,19,00,AAXX 01191 10827 42080 72103 10060 20058 39098 48487 58004 82508 333 81700 87273=
10827,2012,01,01,20,00,AAXX 01201 10827 42182 72202 10063 20058 39096 48486 57006 83508 333 81703 83618 87273=
10827,2012,01,01,21,00,AAXX 01211 10827 42484 72404 10072 20061 39091 48483 58009 82508 333 82615 87275=
10827,2012,01,01,22,00,AAXX 01221 10827 42/84 72504 10070 20060 39084 48476 57014 81608 333 817// 87272=
10827,2012,01,01,23,00,AAXX 01231 10827 42584 72303 10065 20057 39078 48470 57018 81518 333 81620 87271=
10836,2012,01,01,00,00,AAXX 01001 10836 07000 82709 10067 20067 39293 40158 51005 60101 75865 333 55/// 20169 30169 55300 20000 30000 60057 88/00 91113=
10836,2012,01,01,01,00,AAXX 01011 10836 47000 82709 10070 20070 39294 40158 51004 76365 333 55300 20000 30000 88/00 91114=
10836,2012,01,01,02,00,AAXX 01021 10836 47006 72709 10071 20071 39299 40163 53007 75765 333 55300 20000 30000 87/00 91113=
10836,2012,01,01,03,00,AAXX 01031 10836 27037 82608 10072 20072 39300 40164 52007 72365 333 55300 20000 30000 60047 87/01 88/06 91114=
10836,2012,01,01,04,00,AAXX 01041 10836 47025 82610 10074 20074 39301 40165 51007 75865 333 55300 20000 30000 83/00 88/05 91114=
10836,2012,01,01,05,00,AAXX 01051 10836 41026 82609 10072 20072 39303 40168 53004 75064 887// 333 55300 20000 30000 88701 91113 96041=
10836,2012,01,01,06,00,AAXX 01061 10836 01/61 82707 10076 20076 39306 40169 53006 60152 72865 878// 333 10079 20042 31003 55000 55300 20000 30000 60017 70226 817// 85811 91114 96259 96250 98688=
10836,2012,01,01,07,00,AAXX 01071 10836 41/68 72706 10077 20077 39309 40172 53008 75022 878// 333 55300 20000 30000 817// 87623 96250 98688=
10836,2012,01,01,08,00,AAXX 01081 10836 41362 82707 10081 20075 39313 40176 53010 75052 878// 333 55300 20018 30018 81807 87618 98689=
10836,2012,01,01,09,00,AAXX 01091 10836 21375 82406 10073 20066 39317 40183 53011 72052 878// 333 20042 3/003 55300 20083 30083 69907 81807 87613 96450 98688=
10836,2012,01,01,10,00,AAXX 01101 10836 42484 82206 10075 20075 39317 40182 51008 875// 333 55300 20196 30196 87613=
10836,2012,01,01,11,00,AAXX 01111 10836 42489 82106 10080 20076 39316 40179 50003 878// 333 55300 20336 30335 81810 87613=
10836,2012,01,01,12,00,AAXX 01121 10836 11486 72307 10085 20077 39313 40174 58004 69901 70252 878// 333 31/// 55300 20447 30444 81811 87617 96450=
10836,2012,01,01,13,00,AAXX 01131 10836 41465 82307 10083 20076 39311 40173 58006 76022 888// 333 55300 20282 30282 84810 87617=
10836,2012,01,01,14,00,AAXX 01141 10836 41488 72207 10083 20075 39308 40169 57008 72166 86831 333 55300 20279 30271 84810 84620=
10836,2012,01,01,15,00,AAXX 01151 10836 21388 82208 10081 20074 39307 40169 56006 72162 878// 333 55300 20135 30135 69907 83809 86621=
10836,2012,01,01,16,00,AAXX 01161 10836 42388 72207 10076 20070 39309 40173 55002 8587/ 333 55300 20022 30022 83808 85621 91113=
10836,2012,01,01,17,00,AAXX 01171 10836 42388 72306 10077 20071 39310 40174 53002 8687/ 333 55300 20000 30000 82808 86650=
10836,2012,01,01,18,00,AAXX 01181 10836 11489 72205 10075 20068 39308 40172 50001 69902 70262 8687/ 333 10088 20068 31006 55300 20000 30000 82810 86650 91113=
10836,2012,01,01,19,00,AAXX 01191 10836 42489 72105 10076 20067 39307 40171 58002 8683/ 333 55300 20000 30000 82810 86650=
10836,2012,01,01,20,00,AAXX 01201 10836 42789 32106 10067 20067 39304 40170 58006 81531 333 55300 20000 30000 81650=
10836,2012,01,01,21,00,AAXX 01211 10836 35788 62207 10073 20065 39298 40162 58010 333 55300 20000 30000 85/56 86/75=
10836,2012,01,01,22,00,AAXX 01221 10836 45788 72207 10078 20064 39294 40156 58013 333 55300 20000 30000 86/50 87/56=
10836,2012,01,01,23,00,AAXX 01231 10836 45988 62107 10075 20065 39287 40149 58017 333 55300 20000 30000 84/69 86/71=
10837,2012,01,01,00,00,AAXX 01001 10837 NIL=
10837,2012,01,01,01,00,AAXX 01011 10837 NIL=
10837,2012,01,01,02,00,AAXX 01021 10837 NIL=
10837,2012,01,01,03,00,AAXX 01031 10837 NIL=
10837,2012,01,01,04,00,AAXX 01041 10837 NIL=
10837,2012,01,01,05,00,AAXX 01051 10837 NIL=
10837,2012,01,01,06,00,AAXX 01061 10837 NIL=
10837,2012,01,01,07,00,AAXX 01071 10837 NIL=
10837,2012,01,01,08,00,AAXX 01081 10837 NIL=
10837,2012,01,01,09,00,AAXX 01091 10837 NIL=
10837,2012,01,01,10,00,AAXX 01101 10837 NIL=
10837,2012,01,01,11,00,AAXX 01111 10837 NIL=
10837,2012,01,01,12,00,AAXX 01121 10837 NIL=
10837,2012,01,01,13,00,AAXX 01131 10837 NIL=
10837,2012,01,01,14,00,AAXX 01141 10837 NIL=
10837,2012,01,01,15,00,AAXX 01151 10837 NIL=
10837,2012,01,01,16,00,AAXX 01161 10837 NIL=
10837,2012,01,01,17,00,AAXX 01171 10837 NIL=
10837,2012,01,01,18,00,AAXX 01181 10837 NIL=
10837,2012,01,01,19,00,AAXX 01191 10837 42775 32205 10077 20061 39530 40183 57004 81531 333 81656 83075=
10837,2012,01,01,20,00,AAXX 01201 10837 42775 52205 10081 20060 39526 40177 57009 81501 333 81656 85074=
10837,2012,01,01,21,00,AAXX 01211 10837 42475 72306 10077 20057 39523 40175 57007 85501 333 84614 85074=
10837,2012,01,01,22,00,AAXX 01221 10837 42470 52305 10074 20057 39519 40172 57011 82501 333 82615 85075=
10837,2012,01,01,23,00,AAXX 01231 10837 42570 62204 10075 20057 39510 40162 57015 81501 333 81620 86069=
10838,2012,01,01,00,00,AAXX 01001 10838 06/07 /2204 10044 20043 39493 40177 53006 60041 333 55300 60027=
10838,2012,01,01,01,00,AAXX 01011 10838 46/05 /2204 10045 20045 39494 40177 51007 333 55300=
10838,2012,01,01,02,00,AAXX 01021 10838 46261 72304 10052 20051 39499 40181 53009 333 55300 86/04 87/17=
10838,2012,01,01,03,00,AAXX 01031 10838 26257 82304 10055 20055 39500 40181 52007 333 55300 69967 88/03 88/22=
10838,2012,01,01,04,00,AAXX 01041 10838 46150 82304 10058 20057 39499 40179 50005 333 55300 88/02=
10838,2012,01,01,05,00,AAXX 01051 10838 46148 82304 10062 20060 39502 40181 53003 333 55300 88/02=
10838,2012,01,01,06,00,AAXX 01061 10838 16156 82404 10064 20062 39505 40184 53005 60042 333 10064 20024 3/002 55000 55300 70095 88/02=
10838,2012,01,01,07,00,AAXX 01071 10838 46160 82303 10066 20066 39507 40186 51008 333 55300 88/03=
10838,2012,01,01,08,00,AAXX 01081 10838 46260 82203 10069 20067 39510 40188 52008 333 55300 88/03=
10838,2012,01,01,09,00,AAXX 01091 10838 36260 82403 10075 20075 39514 40191 53009 333 20024 3/002 55300 88/05=
10838,2012,01,01,10,00,AAXX 01101 10838 46360 82303 10080 20077 39516 40192 51009 333 55300 88/06=
10838,2012,01,01,11,00,AAXX 01111 10838 46361 82304 10085 20080 39513 40187 50003 333 55300 88/07=
10838,2012,01,01,12,00,AAXX 01121 10838 06460 82404 10092 20081 39510 40182 58004 69901 333 55300 69907 88/10 88/32=
10838,2012,01,01,13,00,AAXX 01131 10838 46461 82404 10097 20081 39509 40180 56007 333 55300 86/13 86/24 88/42=
10838,2012,01,01,14,00,AAXX 01141 10838 46461 82203 10096 20079 39505 40176 58008 333 55300 87/14 87/21 88/44=
10838,2012,01,01,15,00,AAXX 01151 10838 26460 72204 10096 20078 39505 40176 56005 333 55300 69907 81/17 86/39 87/47=
10838,2012,01,01,16,00,AAXX 01161 10838 46460 52203 10090 20075 39505 40177 56004 333 55300 81/16 83/33 85/46=
10838,2012,01,01,17,00,AAXX 01171 10838 46461 52302 10083 20071 39506 40180 53001 333 55300 81/14 85/56=
10838,2012,01,01,18,00,AAXX 01181 10838 06961 02203 10079 20069 39503 40178 58002 69902 333 10098 20063 3/006 55300 69907=
10838,2012,01,01,19,00,AAXX 01191 10838 46460 22102 10070 20064 39502 40179 58003 333 55300 82/10=
10838,2012,01,01,20,00,AAXX 01201 10838 46960 42303 10065 20060 39499 40177 57007 333 55300 84/76=
10838,2012,01,01,21,00,AAXX 01211 10838 36360 72103 10069 20064 39495 40172 58008 333 55300 87/09=
10838,2012,01,01,22,00,AAXX 01221 10838 46461 72103 10074 20067 39490 40165 58012 333 55300 87/10=
10838,2012,01,01,23,00,AAXX 01231 10838 46460 82103 10074 20067 39484 40159 58015 333 55300 88/12=
10850,2012,01,01,00,00,AAXX 01001 10850 07235 72004 10047 20047 39563 40167 53006 60031 76265 333 55300 60037 86/05 87/08 87/13=
10850,2012,01,01,01,00,AAXX 01011 10850 47350 72004 10049 20049 39564 40168 51007 75165 333 55300 87/07 87/13=
10850,2012,01,01,02,00,AAXX 01021 10850 47115 81802 10051 20051 39568 40172 52009 72365 333 55300 87/02 88/07=
10850,2012,01,01,03,00,AAXX 01031 10850 27114 72103 10055 20055 39569 40172 52006 75765 333 55300 60017 87/02=
10850,2012,01,01,04,00,AAXX 01041 10850 47138 82204 10058 20058 39569 40171 51005 76165 333 55300 87/03 88/19=
10850,2012,01,01,05,00,AAXX 01051 10850 47250 82203 10063 20063 39573 40174 53005 72365 333 55300 87/04 87/09 88/36=
10850,2012,01,01,06,00,AAXX 01061 10850 07248 72205 10063 20063 39573 40174 52004 60052 72365 333 10064 20024 3/002 55000 55300 69947 70070 82/04 87/17 87/28=
10850,2012,01,01,07,00,AAXX 01071 10850 45259 82104 10065 20065 39577 40178 52008 333 55300 87/05 88/11=
10850,2012,01,01,08,00,AAXX 01081 10850 47257 82208 10070 20068 39581 40181 53008 71000 333 55300 82/05 87/19 88/28=
10850,2012,01,01,09,00,AAXX 01091 10850 35260 82208 10077 20072 39586 40185 53013 333 20024 3/002 55300 81/06 88/20 88/30 91113=
10850,2012,01,01,10,00,AAXX 01101 10850 45567 72210 10082 20074 39587 40185 51010 333 55300 87/22 91113=
10850,2012,01,01,11,00,AAXX 01111 10850 45368 82208 10086 20077 39584 40180 50003 333 55300 82/08 88/22 91113=
10850,2012,01,01,12,00,AAXX 01121 10850 15379 82108 10090 20080 39581 40176 58005 60001 333 55300 81/09 87/24 88/32 91113=
10850,2012,01,01,13,00,AAXX 01131 10850 45476 82208 10093 20081 39580 40175 56007 333 55300 82/10 84/22 88/26=
10850,2012,01,01,14,00,AAXX 01141 10850 45688 62209 10098 20082 39577 40170 57007 333 55302 83/41 86/49 91113=
10850,2012,01,01,15,00,AAXX 01151 10850 35688 72209 10101 20081 39578 40171 55003 333 55300 87/43 91113=
10850,2012,01,01,16,00,AAXX 01161 10850 45688 82308 10101 20079 39578 40171 56002 333 55300 88/45 91113=
10850,2012,01,01,17,00,AAXX 01171 10850 45688 72207 10097 20077 39579 40173 52002 333 55300 87/49=
10850,2012,01,01,18,00,AAXX 01181 10850 15688 82105 10095 20076 39579 40173 52001 60002 333 10101 20062 3/006 55300 82/48 88/56 91113=
10850,2012,01,01,19,00,AAXX 01191 10850 45787 81902 10090 20074 39577 40172 58001 333 55300 88/56 88/57=
10850,2012,01,01,20,00,AAXX 01201 10850 45882 52006 10085 20073 39573 40169 58006 333 55300 83/57 85/73=
10850,2012,01,01,21,00,AAXX 01211 10850 35380 12106 10081 20071 39568 40165 58011 333 55300 81/08=
10850,2012,01,01,22,00,AAXX 01221 10850 45377 21904 10076 20065 39563 40160 58014 333 55300 82/09=
10850,2012,01,01,23,00,AAXX 01231 10850 45973 32206 10075 20066 39556 40153 58017 333 55300 83/74=
10852,2012,01,01,00,00,AAXX 01001 10852 07312 72404 10064 20062 39599 40169 53007 60021 76265 333 55/// 20101 30101 55300 20000 30000 60027 85/06 87/14 87/21=
10852,2012,01,01,01,00,AAXX 01011 10852 47337 82305 10068 20066 39600 40169 51006 76266 333 55300 20000 30000 87/06 87/14 88/20=
10852,2012,01,01,02,00,AAXX 01021 10852 47261 82406 10071 20069 39603 40172 52007 72365 333 55300 20000 30000 88/06=
10852,2012,01,01,03,00,AAXX 01031 10852 27250 82307 10074 20072 39604 40172 52005 72365 333 55300 20000 30000 60027 88/06 88/14=
10852,2012,01,01,04,00,AAXX 01041 10852 47357 82305 10077 20077 39605 40173 51005 75765 333 55300 20000 30000 87/07 88/16 88/50=
10852,2012,01,01,05,00,AAXX 01051 10852 41370 82405 10079 20074 39609 40176 53006 72166 876// 333 55300 20000 30000 87707=
10852,2012,01,01,06,00,AAXX 01061 10852 01366 82405 10080 20075 39612 40179 53008 60052 72165 876// 333 10081 20044 31004 55000 55300 20000 30000 69967 70087 87707=
10852,2012,01,01,07,00,AAXX 01071 10852 42370 72307 10083 20075 39614 40181 51009 876// 333 55300 20000 30000 87708=
10852,2012,01,01,08,00,AAXX 01081 10852 42481 72305 10083 20075 39619 40186 53010 878// 333 55300 20029 30029 81810 87650=
10852,2012,01,01,09,00,AAXX 01091 10852 21361 72306 10088 20077 39624 40190 53012 76022 875// 333 20044 3/004 55300 20154 30154 69907 81708 87631=
10852,2012,01,01,10,00,AAXX 01101 10852 41482 72306 10092 20079 39625 40191 51011 72122 878// 333 55300 20193 30193 81815 87629=
10852,2012,01,01,11,00,AAXX 01111 10852 41484 72208 10097 20080 39622 40186 50003 72122 878// 333 55300 20284 30284 81816 87640=
10852,2012,01,01,12,00,AAXX 01121 10852 01484 72407 10100 20084 39618 40182 58006 69901 72162 878// 333 31/// 55300 20322 30321 69907 82816 87633 91113=
10852,2012,01,01,13,00,AAXX 01131 10852 42484 72407 10108 20084 39616 40178 56009 878// 333 55300 20235 30234 81816 87637=
10852,2012,01,01,14,00,AAXX 01141 10852 42584 72308 10109 20083 39612 40173 57010 83822 333 55301 20348 30333 81821 83645 87076=
10852,2012,01,01,15,00,AAXX 01151 10852 32784 72104 10106 20081 39612 40174 56006 82532 333 55303 20256 30230 82650 83363 87075=
10852,2012,01,01,16,00,AAXX 01161 10852 42586 72204 10102 20080 39616 40179 55000 875// 333 55301 20043 30038 81628 87640=
10852,2012,01,01,17,00,AAXX 01171 10852 45688 72203 10095 20076 39616 40181 52004 333 55300 20000 30000 81/39 87/78 87/80=
10852,2012,01,01,18,00,AAXX 01181 10852 15888 81904 10087 20071 39615 40181 50003 69902 333 10111 20080 3/006 55300 20000 30000 82/56 88/78=
10852,2012,01,01,19,00,AAXX 01191 10852 45983 81804 10075 20065 39614 40183 58002 333 55300 20000 30000 83/65 88/76=
10852,2012,01,01,20,00,AAXX 01201 10852 45983 81704 10074 20060 39611 40180 58005 333 55300 20000 30000 88/75=
10852,2012,01,01,22,00,AAXX 01221 10852 45983 81603 10053 20044 39601 40174 58013 333 55300 20000 30000 88/72 88/76=
10852,2012,01,01,23,00,AAXX 01231 10852 45988 82103 10074 20060 39594 40162 58017 333 55300 20000 30000 88/74=
10853,2012,01,01,00,00,AAXX 01001 10853 41358 82505 10063 20055 39696 40162 52005 75865 885// 333 86707 88620=
10853,2012,01,01,01,00,AAXX 01011 10853 41356 82404 10067 20060 39698 40164 52004 76366 885// 333 86707 88620=
10853,2012,01,01,02,00,AAXX 01021 10853 41350 82504 10068 20068 39701 40167 52006 75966 885// 333 86707 88620=
10853,2012,01,01,03,00,AAXX 01031 10853 41345 82303 10068 20068 39702 40168 52006 75866 885// 333 86707 88620=
10853,2012,01,01,04,00,AAXX 01041 10853 41356 82504 10076 20069 39703 40167 52005 75165 885// 333 86707 88620=
10853,2012,01,01,05,00,AAXX 01051 10853 41350 82505 10079 20072 39706 40170 52005 75965 885// 333 86708 88620=
10853,2012,01,01,06,00,AAXX 01061 10853 11350 82404 10079 20072 39709 40173 52007 60042 75165 885// 333 10081 20033 32003 70090 86708 88617=
10853,2012,01,01,07,00,AAXX 01071 10853 41357 82303 10083 20073 39712 40175 52009 75155 885// 333 86708 88625=
10853,2012,01,01,08,00,AAXX 01081 10853 41462 82203 10083 20073 39717 40181 52011 72022 885// 333 86710 87625=
10853,2012,01,01,09,00,AAXX 01091 10853 41462 82304 10090 20076 39721 40184 52012 72022 885// 333 86710 87625=
10853,2012,01,01,10,00,AAXX 01101 10853 42465 72304 10095 20079 39721 40183 51009 875// 333 85712 87627=
10853,2012,01,01,11,00,AAXX 01111 10853 42470 72205 10103 20081 39719 40179 50002 875// 333 86713 87627=
10853,2012,01,01,12,00,AAXX 01121 10853 41456 82305 10104 20083 39718 40178 58003 75052 885// 333 87712 88627=
10853,2012,01,01,13,00,AAXX 01131 10853 41465 72405 10105 20084 39715 40175 57006 72022 878// 333 82813 87628=
10853,2012,01,01,14,00,AAXX 01141 10853 42480 72404 10111 20083 39713 40172 58006 878// 333 81815 85634 86650=
10853,2012,01,01,15,00,AAXX 01151 10853 41581 72404 10110 20081 39711 40170 57007 70152 84801 333 81820 84632 86072=
10853,2012,01,01,16,00,AAXX 01161 10853 42680 72305 10108 20078 39712 40171 57003 875// 333 87643=
10853,2012,01,01,17,00,AAXX 01171 10853 42581 72003 10095 20074 39713 40174 55000 878// 333 81820 87650=
10853,2012,01,01,18,00,AAXX 01181 10853 11780 51302 10083 20071 39714 40178 52003 69902 70152 83501 333 10113 20073 31006 83650 83072=
10853,2012,01,01,19,00,AAXX 01191 10853 42780 52003 10086 20067 39712 40175 50000 83531 333 83650 83072=
10853,2012,01,01,20,00,AAXX 01201 10853 42880 41903 10072 20062 39711 40176 58002 83501 333 83657=
10853,2012,01,01,21,00,AAXX 01211 10853 42980 41801 10055 20048 39706 40174 57008 80001 333 83075=
10853,2012,01,01,22,00,AAXX 01221 10853 42980 52301 10042 20038 39701 40171 57010 80001 333 85074=
10853,2012,01,01,23,00,AAXX 01231 10853 42780 52101 10064 20059 39696 40162 57015 81501 333 81650 85074=
10856,2012,01,01,00,00,AAXX 01001 10856 NIL=
10856,2012,01,01,01,00,AAXX 01011 10856 NIL=
10856,2012,01,01,02,00,AAXX 01021 10856 NIL=
10856,2012,01,01,03,00,AAXX 01031 10856 NIL=
10856,2012,01,01,04,00,AAXX 01041 10856 NIL=
10856,2012,01,01,05,00,AAXX 01051 10856 NIL=
10856,2012,01,01,06,00,AAXX 01061 10856 NIL=
10856,2012,01,01,07,00,AAXX 01071 10856 NIL=
10856,2012,01,01,08,00,AAXX 01081 10856 NIL=
10856,2012,01,01,09,00,AAXX 01091 10856 NIL=
10856,2012,01,01,10,00,AAXX 01101 10856 NIL=
10856,2012,01,01,11,00,AAXX 01111 10856 NIL=
10856,2012,01,01,12,00,AAXX 01121 10856 NIL=
10856,2012,01,01,13,00,AAXX 01131 10856 NIL=
10856,2012,01,01,14,00,AAXX 01141 10856 NIL=
10856,2012,01,01,15,00,AAXX 01151 10856 NIL=
10856,2012,01,01,16,00,AAXX 01161 10856 NIL=
10856,2012,01,01,17,00,AAXX 01171 10856 NIL=
10856,2012,01,01,18,00,AAXX 01181 10856 12960 31903 10075 20051 39518 40185 50001 60002 80001 333 10105 20074 30004 83080=
10856,2012,01,01,19,00,AAXX 01191 10856 42970 41803 10076 20048 39516 40183 58004 80001 333 84080=
10856,2012,01,01,20,00,AAXX 01201 10856 42970 41904 10075 20046 39513 40180 56006 80001 333 84077=
10856,2012,01,01,21,00,AAXX 01211 10856 42970 41904 10075 20048 39508 40175 58009 80001 333 84076=
10856,2012,01,01,22,00,AAXX 01221 10856 42970 61804 10078 20049 39504 40170 57012 80001 333 86076=
10856,2012,01,01,23,00,AAXX 01231 10856 42970 61605 10061 20037 39497 40166 58016 80001 333 86075=
10857,2012,01,01,00,00,AAXX 01001 10857 NIL=
10857,2012,01,01,01,00,AAXX 01011 10857 NIL=
10857,2012,01,01,02,00,AAXX 01021 10857 NIL=
10857,2012,01,01,03,00,AAXX 01031 10857 NIL=
10857,2012,01,01,04,00,AAXX 01041 10857 NIL=
10857,2012,01,01,05,00,AAXX 01051 10857 NIL=
10857,2012,01,01,06,00,AAXX 01061 10857 NIL=
10857,2012,01,01,07,00,AAXX 01071 10857 43465 82407 10084 20064 39449 40186 52010 8883/ 333 86812 86642 87361=
10857,2012,01,01,08,00,AAXX 01081 10857 42480 72308 10086 20064 39455 40192 52013 86831 333 83812 85628 85075=
10857,2012,01,01,09,00,AAXX 01091 10857 43484 72408 10092 20066 39458 40193 52012 878// 333 81812 84630 86648=
10857,2012,01,01,10,00,AAXX 01101 10857 42589 72407 10095 20065 39458 40192 51008 878// 333 81825 87650=
10857,2012,01,01,11,00,AAXX 01111 10857 42489 72408 10098 20068 39458 40191 51003 878// 333 84818 87656 91113=
10857,2012,01,01,12,00,AAXX 01121 10857 42589 72407 10103 20067 39454 40186 58004 878// 333 82820 87645 91113=
10857,2012,01,01,13,00,AAXX 01131 10857 42689 72410 10106 20064 39451 40182 58007 875// 333 87645 91114=
10857,2012,01,01,14,00,AAXX 01141 10857 42589 72407 10108 20063 39451 40181 56007 878/8 333 81820 84650 87270=
10857,2012,01,01,15,00,AAXX 01151 10857 42789 72405 10103 20061 39448 40179 58006 85531 333 82650 84367 87078 91114=
10857,2012,01,01,16,00,AAXX 01161 10857 42989 72404 10096 20056 39451 40184 55000 82031 333 82367 87078=
10857,2012,01,01,17,00,AAXX 01171 10857 42970 72503 10092 20054 39451 40186 55000 80001 333 87078=
10857,2012,01,01,18,00,AAXX 01181 10857 12970 71703 10065 20043 39450 40192 50001 60002 80001 333 10109 20063 32004 87078 91114=
10857,2012,01,01,19,00,AAXX 01191 10857 42970 71904 10071 20042 39447 40187 58004 80001 333 87078=
10857,2012,01,01,20,00,AAXX 01201 10857 42970 72105 10085 20046 39444 40180 57007 80001 333 87078=
10857,2012,01,01,21,00,AAXX 01211 10857 42970 61904 10078 20045 39441 40179 57008 80001 333 86075=
10857,2012,01,01,22,00,AAXX 01221 10857 42970 61804 10067 20037 39436 40177 57011 80001 333 86074=
10857,2012,01,01,23,00,AAXX 01231 10857 42970 82105 10082 20040 39429 40165 57015 80007 333 88275=
10860,2012,01,01,00,00,AAXX 01001 10860 NIL=
10860,2012,01,01,01,00,AAXX 01011 10860 NIL=
10860,2012,01,01,02,00,AAXX 01021 10860 NIL=
10860,2012,01,01,03,00,AAXX 01031 10860 NIL=
10860,2012,01,01,04,00,AAXX 01041 10860 NIL=
10860,2012,01,01,05,00,AAXX 01051 10860 NIL=
10860,2012,01,01,06,00,AAXX 01061 10860 NIL=
10860,2012,01,01,07,00,AAXX 01071 10860 NIL=
10860,2012,01,01,08,00,AAXX 01081 10860 NIL=
10860,2012,01,01,09,00,AAXX 01091 10860 NIL=
10860,2012,01,01,10,00,AAXX 01101 10860 NIL=
10860,2012,01,01,11,00,AAXX 01111 10860 NIL=
10860,2012,01,01,12,00,AAXX 01121 10860 NIL=
10860,2012,01,01,13,00,AAXX 01131 10860 NIL=
10860,2012,01,01,14,00,AAXX 01141 10860 NIL=
10860,2012,01,01,15,00,AAXX 01151 10860 NIL=
10860,2012,01,01,16,00,AAXX 01161 10860 NIL=
10860,2012,01,01,17,00,AAXX 01171 10860 NIL=
10860,2012,01,01,18,00,AAXX 01181 10860 NIL=
10860,2012,01,01,19,00,AAXX 01191 10860 NIL=
10860,2012,01,01,20,00,AAXX 01201 10860 NIL=
10860,2012,01,01,21,00,AAXX 01211 10860 NIL=
10860,2012,01,01,22,00,AAXX 01221 10860 NIL=
10860,2012,01,01,23,00,AAXX 01231 10860 NIL=
10863,2012,01,01,00,00,AAXX 01001 10863 07258 82507 10058 20053 39592 40166 53004 60021 76165 333 55/// 20151 30146 42637 55300 20000 30000 41231 60017 88/06 88/16 88/26=
10863,2012,01,01,01,00,AAXX 01011 10863 47350 72506 10061 20057 39594 40167 52006 76266 333 55300 20000 30000 41230 87/07 87/13 87/35=
10863,2012,01,01,02,00,AAXX 01021 10863 47350 82507 10065 20060 39597 40169 53007 76266 333 55300 20000 30000 41238 88/06 88/16 88/44=
10863,2012,01,01,03,00,AAXX 01031 10863 27229 72406 10066 20066 39599 40171 52007 75165 333 55300 20000 30000 41248 60047 87/05=
10863,2012,01,01,04,00,AAXX 01041 10863 47225 82507 10070 20066 39599 40170 51005 75265 333 55300 20000 30000 41255 88/05=
10863,2012,01,01,05,00,AAXX 01051 10863 47363 82405 10073 20067 39602 40173 53005 75165 333 55300 20000 30000 41251 88/06 88/15 88/50=
10863,2012,01,01,06,00,AAXX 01061 10863 07373 82507 10077 20069 39606 40176 53007 60072 72365 333 10077 20003 3/000 55000 55300 20000 30000 41261 69947 70130 88/07=
10863,2012,01,01,07,00,AAXX 01071 10863 47370 82506 10076 20069 39611 40182 53012 72365 333 55300 20000 30000 41261 88/07=
10863,2012,01,01,08,00,AAXX 01081 10863 45380 82506 10080 20070 39616 40186 53014 333 55300 20023 30023 41245 87/09 87/31 88/42=
10863,2012,01,01,09,00,AAXX 01091 10863 27683 72508 10088 20074 39616 40184 51010 70065 333 20003 3/000 55304 20336 30254 41177 69907 87/49 87/63 87/80=
10863,2012,01,01,10,00,AAXX 01101 10863 47465 62508 10089 20079 39619 40187 51008 75150 333 55300 20342 30321 41237 83/13 86/46 86/63=
10863,2012,01,01,11,00,AAXX 01111 10863 47588 82506 10098 20079 39616 40182 50000 72250 333 55300 20409 30394 41251 85/26 87/32 88/50=
10863,2012,01,01,12,00,AAXX 01121 10863 07588 82508 10103 20083 39612 40177 58004 69901 72365 333 55300 20412 30399 41257 69907 83/30 87/37 88/56=
10863,2012,01,01,13,00,AAXX 01131 10863 47488 82507 10101 20081 39614 40180 55005 72365 333 55300 20302 30292 41265 81/15 87/27 88/34=
10863,2012,01,01,14,00,AAXX 01141 10863 47588 82506 10105 20080 39612 40177 56004 72360 333 55300 20227 30221 41262 82/23 88/44 88/50=
10863,2012,01,01,15,00,AAXX 01151 10863 27688 82505 10105 20078 39611 40176 58001 70065 333 55300 20141 30134 41227 69907 84/42 86/50 88/67=
10863,2012,01,01,16,00,AAXX 01161 10863 45688 82406 10098 20072 39613 40179 55001 333 55300 20030 30025 41112 84/47 88/71 88/80=
10863,2012,01,01,17,00,AAXX 01171 10863 45688 82405 10099 20072 39614 40180 53002 333 55300 20000 30000 41207 88/40=
10863,2012,01,01,18,00,AAXX 01181 10863 17784 82404 10089 20065 39614 40182 51003 69902 70065 333 10107 20076 3/007 55300 20000 30000 41098 82/50 88/78 88/81=
10863,2012,01,01,19,00,AAXX 01191 10863 45986 82302 10079 20060 39614 40184 51001 333 55300 20000 30000 41032 88/77=
10863,2012,01,01,20,00,AAXX 01201 10863 45981 82401 10062 20053 39611 40185 58003 333 55300 20000 30000 41023 88/76 88/80 88/81=
10863,2012,01,01,21,00,AAXX 01211 10863 35982 80000 10052 20045 39605 40181 58009 333 55300 20000 30000 41013 88/75=
10863,2012,01,01,22,00,AAXX 01221 10863 45981 81602 10066 20052 39600 40172 58014 333 55300 20000 30000 41018 87/74 88/76 88/80=
10863,2012,01,01,23,00,AAXX 01231 10863 45980 81901 10049 20038 39595 40171 56016 333 55300 20000 30000 41019 88/73=
10865,2012,01,01,00,00,AAXX 01001 10865 07419 42605 10069 20060 39544 40169 53006 60031 76265 333 55300 60027 81/11 83/18=
10865,2012,01,01,01,00,AAXX 01011 10865 47356 82604 10071 20064 39547 40172 53008 76266 333 55300 87/09 87/15 88/19=
10865,2012,01,01,02,00,AAXX 01021 10865 47350 82403 10072 20065 39549 40174 51008 76266 333 55300 88/09=
10865,2012,01,01,03,00,AAXX 01031 10865 27379 82504 10073 20067 39549 40174 51005 72365 333 55300 60057 86/07 88/12 88/16=
10865,2012,01,01,04,00,AAXX 01041 10865 47485 72504 10080 20070 39551 40174 52004 72250 333 55300 87/11=
10865,2012,01,01,05,00,AAXX 01051 10865 47450 72504 10080 20072 39553 40176 53004 75860 333 55300 86/12 87/21 87/26=
10865,2012,01,01,06,00,AAXX 01061 10865 07481 72605 10082 20073 39557 40180 53008 60092 76165 333 10083 20047 3/004 55000 55300 60027 70158 87/13=
10865,2012,01,01,07,00,AAXX 01071 10865 47488 82504 10086 20074 39563 40186 53012 72365 333 55300 87/14 88/23=
10865,2012,01,01,08,00,AAXX 01081 10865 47488 72404 10086 20073 39566 40189 51013 72250 333 55300 84/14 86/61 87/62=
10865,2012,01,01,09,00,AAXX 01091 10865 27581 12606 10093 20073 39567 40188 51010 70065 333 20047 3/004 55306 69927 81/24=
10865,2012,01,01,10,00,AAXX 01101 10865 47488 72604 10105 20075 39571 40190 53008 72250 333 55304 83/18 87/33 87/43=
10865,2012,01,01,11,00,AAXX 01111 10865 47588 72404 10107 20075 39570 40188 50004 72250 333 55300 81/22 86/41 87/48=
10865,2012,01,01,12,00,AAXX 01121 10865 07588 72405 10111 20076 39563 40180 58004 69921 72365 333 55300 69907 81/21 87/56=
10865,2012,01,01,13,00,AAXX 01131 10865 47688 82605 10115 20075 39565 40181 55006 72365 333 55300 88/46=
10865,2012,01,01,14,00,AAXX 01141 10865 47688 72605 10119 20070 39562 40177 56008 72360 333 55300 87/48 87/50=
10865,2012,01,01,15,00,AAXX 01151 10865 27788 22504 10116 20068 39563 40179 50000 70065 333 55300 69907 81/50=
10865,2012,01,01,16,00,AAXX 01161 10865 45988 12403 10108 20065 39563 40181 56002 333 55300 81/67=
10865,2012,01,01,17,00,AAXX 01171 10865 45688 52403 10106 20063 39564 40182 52002 333 55300 85/46=
10865,2012,01,01,18,00,AAXX 01181 10865 17988 02203 10100 20060 39565 40185 53002 69922 70065 333 10120 20081 3/006 55300=
10865,2012,01,01,19,00,AAXX 01191 10865 45988 12003 10094 20058 39564 40185 50001 333 55300 81/68=
10865,2012,01,01,20,00,AAXX 01201 10865 45986 01903 10086 20053 39560 40183 58004 333 55300=
10865,2012,01,01,21,00,AAXX 01211 10865 35987 12003 10084 20052 39555 40178 58010 333 55300 81/66=
10865,2012,01,01,22,00,AAXX 01221 10865 45986 01903 10077 20046 39548 40172 58016 333 55300=
10865,2012,01,01,23,00,AAXX 01231 10865 45988 02003 10073 20040 39544 40169 56016 333 55300=
10870,2012,01,01,00,00,AAXX 01001 10870 01157 82606 10065 20059 39629 40164 52004 60021 75865 876// 333 32/// 41998 55300 60017 82703 87711=
10870,2012,01,01,01,00,AAXX 01011 10870 41257 82607 10068 20063 39632 40166 53006 76366 8562/ 333 55300 82704 85710 88544=
10870,2012,01,01,02,00,AAXX 01021 10870 41257 82505 10071 20066 39636 40170 53008 76366 8562/ 333 55300 82704 85711 88533=
10870,2012,01,01,03,00,AAXX 01031 10870 21256 82505 10071 20068 39637 40171 51008 75966 876// 333 55300 60037 82704 87708=
10870,2012,01,01,04,00,AAXX 01041 10870 41256 82605 10074 20071 39638 40171 51006 75165 876// 333 55300 83705 87709 96259 96253=
10870,2012,01,01,05,00,AAXX 01051 10870 41260 82506 10080 20074 39640 40172 53004 76355 8562/ 333 55300 83705 85711 88550=
10870,2012,01,01,06,00,AAXX 01061 10870 01265 82506 10082 20073 39646 40178 53009 60062 72165 885// 333 10083 20019 32001 55000 55300 69987 70115 81705 85612 86623=
10870,2012,01,01,07,00,AAXX 01071 10870 41262 82606 10082 20074 39650 40183 53012 72022 885// 333 55300 82705 88613=
10870,2012,01,01,08,00,AAXX 01081 10870 42482 82705 10082 20070 39653 40186 51013 885// 333 55300 85613 85650=
10870,2012,01,01,09,00,AAXX 01091 10870 21482 72607 10096 20078 39655 40185 51009 70252 875// 333 20019 3/001 55305 69907 82613 87650=
10870,2012,01,01,10,00,AAXX 01101 10870 41459 72608 10100 20083 39658 40187 52008 75122 875// 333 55303 82615 87650=
10870,2012,01,01,11,00,AAXX 01111 10870 41484 72507 10109 20083 39655 40183 50002 72022 875// 333 55300 82615 87630=
10870,2012,01,01,12,00,AAXX 01121 10870 01484 72608 10113 20085 39651 40178 58004 69901 70252 875// 333 31/// 55300 69907 82615 87635=
10870,2012,01,01,13,00,AAXX 01131 10870 42489 72607 10112 20083 39653 40180 55005 875// 333 55300 82615 87637=
10870,2012,01,01,14,00,AAXX 01141 10870 41689 72607 10114 20081 39651 40177 56004 72122 875// 333 55300 87642=
10870,2012,01,01,15,00,AAXX 01151 10870 21689 72505 10110 20077 39650 40177 58001 70262 875// 333 55300 69907 82640 87656=
10870,2012,01,01,16,00,AAXX 01161 10870 42789 72506 10106 20072 39650 40178 56003 83508 333 55300 83656 87270=
10870,2012,01,01,17,00,AAXX 01171 10870 42688 72605 10099 20073 39653 40182 53002 875// 333 55300 87645=
10870,2012,01,01,18,00,AAXX 01181 10870 11788 72503 10088 20063 39652 40184 50002 69902 70262 84508 333 10115 20081 31007 55300 84656 86270=
10870,2012,01,01,19,00,AAXX 01191 10870 42988 62304 10085 20062 39653 40185 51003 80008 333 55300 86273 99020=
10870,2012,01,01,20,00,AAXX 01201 10870 42986 62201 10069 20052 39650 40185 58003 80008 333 55300 86275 99021=
10870,2012,01,01,21,00,AAXX 01211 10870 32984 51502 10040 20033 39643 40184 58009 80008 333 55300 85275=
10870,2012,01,01,22,00,AAXX 01221 10870 42984 52501 10063 20044 39639 40175 58014 80008 333 55300 85275=
10870,2012,01,01,23,00,AAXX 01231 10870 42986 71903 10065 20041 39633 40168 56017 80006 333 55300 87275=
10872,2012,01,01,00,00,AAXX 01001 10872 07/04 /0403 10012 20012 39741 40174 53001 60021 75776 333 55300 60017=
10872,2012,01,01,01,00,AAXX 01011 10872 47/06 /0602 10013 20013 39743 40176 53004 75265 333 55300=
10872,2012,01,01,02,00,AAXX 01021 10872 47/07 /0502 10015 20015 39746 40178 53006 75265 333 55300=
10872,2012,01,01,03,00,AAXX 01031 10872 27/17 /0602 10016 20016 39747 40179 51006 72365 333 55300 69987=
10872,2012,01,01,04,00,AAXX 01041 10872 47/14 /0703 10018 20018 39747 40179 51004 76265 333 55300=
10872,2012,01,01,05,00,AAXX 01051 10872 47/12 /0602 10020 20020 39749 40181 53003 75265 333 55300=
10872,2012,01,01,06,00,AAXX 01061 10872 07/12 /0702 10022 20022 39752 40183 53005 60042 75265 333 10022 20002 3/100 55004 55300 60017 70072=
10872,2012,01,01,07,00,AAXX 01071 10872 47124 80801 10024 20024 39758 40189 53011 72365 333 55300 83/01 87/09 88/14=
10872,2012,01,01,08,00,AAXX 01081 10872 47325 80501 10027 20026 39761 40192 52012 72365 333 55300 88/08=
10872,2012,01,01,09,00,AAXX 01091 10872 27428 71001 10034 20033 39763 40193 51011 72365 333 20002 3/100 55300 69987 86/12 87/24 87/31=
10872,2012,01,01,10,00,AAXX 01101 10872 47424 70701 10048 20046 39764 40192 51006 72365 333 55300 82/11 87/26 87/34=
10872,2012,01,01,11,00,AAXX 01111 10872 47481 82405 10096 20086 39761 40181 50000 75165 333 55300 87/13 88/22=
10872,2012,01,01,12,00,AAXX 01121 10872 07585 82404 10103 20085 39758 40176 58005 69991 72265 333 55300 69917 86/26 87/46 88/50=
10872,2012,01,01,13,00,AAXX 01131 10872 45588 82505 10106 20084 39758 40176 56006 333 55300 83/30 85/50 88/56=
10872,2012,01,01,14,00,AAXX 01141 10872 45688 82505 10108 20086 39759 40177 55002 333 55300 87/34 88/45 88/50=
10872,2012,01,01,15,00,AAXX 01151 10872 27586 72404 10105 20083 39758 40176 50000 72250 333 55300 69907 84/20 87/60 87/65=
10872,2012,01,01,16,00,AAXX 01161 10872 45782 82201 10089 20072 39759 40180 52001 333 55300 82/50 88/65 88/70=
10872,2012,01,01,17,00,AAXX 01171 10872 47647 80602 10058 20058 39761 40187 53002 71000 333 55300 88/45 88/80=
10872,2012,01,01,18,00,AAXX 01181 10872 17650 70901 10056 20056 39762 40188 52004 69992 71050 333 10110 20022 3/002 55300 84/37 87/44=
10872,2012,01,01,19,00,AAXX 01191 10872 47742 81301 10047 20047 39763 40191 51004 71000 333 55300 87/50 88/80 88/80=
10872,2012,01,01,20,00,AAXX 01201 10872 47908 80502 10038 20036 39760 40189 58001 73030 333 55300 88/77 88/81=
10872,2012,01,01,21,00,AAXX 01211 10872 37720 82701 10033 20031 39755 40185 58007 72030 333 55300 81/50 88/76=
10872,2012,01,01,22,00,AAXX 01221 10872 47910 80301 10027 20026 39750 40180 58013 72030 333 55300 88/74=
10872,2012,01,01,23,00,AAXX 01231 10872 47906 80401 10024 20023 39746 40177 56014 73030 333 55300 87/73 88/76 88/80=
10875,2012,01,01,00,00,AAXX 01001 10875 07108 82801 10005 20005 39677 40177 53002 60031 76265 333 4/001 55/// 20118 30118 55300 20000 30000 60027 86/02 88/07=
10875,2012,01,01,01,00,AAXX 01011 10875 47008 80000 10007 20006 39680 40180 53005 76266 333 55300 20000 30000 85/01 86/08 88/11=
10875,2012,01,01,02,00,AAXX 01021 10875 47/13 /0000 10011 20010 39684 40183 53009 75866 333 55300 20000 30000=
10875,2012,01,01,03,00,AAXX 01031 10875 27416 73201 10013 20012 39685 40184 51008 75165 333 55300 20000 30000 60027 87/11 87/16=
10875,2012,01,01,04,00,AAXX 01041 10875 47201 83101 10021 20020 39686 40183 51006 75765 333 55300 20000 30000 81/05 88/10=
10875,2012,01,01,05,00,AAXX 01051 10875 47/01 /3301 10027 20026 39689 40185 53005 75865 333 55300 20000 30000=
10875,2012,01,01,06,00,AAXX 01061 10875 07402 82901 10041 20040 39691 40185 53006 60082 75265 333 10044 20002 3/000 55000 55300 20000 30000 60037 70149 88/12=
10875,2012,01,01,07,00,AAXX 01071 10875 47458 82902 10058 20058 39698 40189 53012 72365 333 55300 20000 30000 88/10 88/15=
10875,2012,01,01,08,00,AAXX 01081 10875 47303 82901 10051 20051 39702 40194 53013 73065 333 55300 20002 30002 85/08 88/13=
10875,2012,01,01,09,00,AAXX 01091 10875 27463 82602 10068 20068 39704 40193 51013 72065 333 20002 3/000 55300 20139 30138 69947 88/17 88/30 88/50=
10875,2012,01,01,10,00,AAXX 01101 10875 45482 82504 10092 20079 39705 40190 51007 333 55301 20526 30477 87/17 88/50=
10875,2012,01,01,11,00,AAXX 01111 10875 47438 82402 10087 20078 39703 40189 50001 75365 333 55300 20230 30230 85/13 88/18=
10875,2012,01,01,12,00,AAXX 01121 10875 07472 82302 10096 20087 39698 40182 58006 69951 72265 333 55300 20263 30263 69917 86/19 88/61 88/66=
10875,2012,01,01,13,00,AAXX 01131 10875 45588 82604 10111 20086 39698 40179 56007 333 55300 20260 30259 82/22 87/38 88/48=
10875,2012,01,01,14,00,AAXX 01141 10875 47688 72503 10111 20086 39698 40179 56005 72365 333 55300 20175 30174 87/41 87/50=
10875,2012,01,01,15,00,AAXX 01151 10875 27682 72503 10100 20080 39701 40184 53003 72365 333 55300 20094 30094 69907 86/43 87/50=
10875,2012,01,01,16,00,AAXX 01161 10875 45770 71301 10078 20069 39699 40186 50001 333 55300 20006 30006 84/56 86/68 87/74=
10875,2012,01,01,17,00,AAXX 01171 10875 45965 21601 10070 20062 39702 40191 52004 333 55300 20000 30000 82/70=
10875,2012,01,01,18,00,AAXX 01181 10875 17920 41201 10037 20032 39704 40199 53003 69952 72065 333 10113 20037 3/001 55300 20000 30000 84/80=
10875,2012,01,01,19,00,AAXX 01191 10875 47761 61601 10054 20046 39705 40197 51006 72030 333 55300 20000 30000 86/50=
10875,2012,01,01,20,00,AAXX 01201 10875 47743 50902 10042 20039 39700 40194 58002 71000 333 55300 20000 30000 81/56 85/80=
10875,2012,01,01,21,00,AAXX 01211 10875 37904 10901 10028 20026 39700 40197 58004 73030 333 55300 20000 30000 81/80=
10875,2012,01,01,22,00,AAXX 01221 10875 47902 11001 10029 20028 39692 40188 58013 73030 333 55300 20000 30000 81/77=
10875,2012,01,01,23,00,AAXX 01231 10875 47002 10000 10017 20016 39687 40185 58013 73033 333 55300 20000 30000 81/00=
10895,2012,01,01,00,00,AAXX 01001 10895 07005 80000 10002 20001 39595 40179 53004 60021 76276 333 4/002 55/// 20262 30223 55300 20000 30000 69967 88/00=
10895,2012,01,01,01,00,AAXX 01011 10895 47202 71301 10004 20002 39596 40180 53004 75265 333 4/002 55300 20000 30000 85/04 87/08=
10895,2012,01,01,02,00,AAXX 01021 10895 47/01 /0402 10001 21000 39598 40183 51006 75265 333 4/002 55300 20000 30000=
10895,2012,01,01,03,00,AAXX 01031 10895 27201 80501 10003 20001 39600 40185 53005 75165 333 4/001 55300 20000 30000 60027 86/03 87/07 88/11=
10895,2012,01,01,04,00,AAXX 01041 10895 47201 70401 10004 20003 39600 40184 51004 75265 333 4/001 55300 20000 30000 87/05=
10895,2012,01,01,05,00,AAXX 01051 10895 41/02 90402 10005 20005 39602 40186 52004 76164 333 55300 20000 30000 96043=
10895,2012,01,01,06,00,AAXX 01061 10895 01/01 90502 10006 20005 39605 40189 53005 60052 76364 333 10006 21002 3/000 42003 55011 55300 20000 30000 60017 70063 96047=
10895,2012,01,01,07,00,AAXX 01071 10895 41/01 90501 10008 20007 39609 40193 53009 76164 333 4/001 55300 20000 30000 96047=
10895,2012,01,01,08,00,AAXX 01081 10895 41/02 90701 10009 20008 39613 40197 53011 74364 333 55300 20014 30014 96263=
10895,2012,01,01,09,00,AAXX 01091 10895 21/02 90502 10012 20010 39615 40198 51010 76364 333 21002 3/000 4/001 55300 20051 30051 60017 96047=
10895,2012,01,01,10,00,AAXX 01101 10895 41/02 90501 10017 20015 39618 40200 51009 75165 333 55300 20116 30115 96045=
10895,2012,01,01,11,00,AAXX 01111 10895 41/09 91702 10048 20046 39615 40190 50002 74354 333 55300 20199 30197 96258 96251=
10895,2012,01,01,12,00,AAXX 01121 10895 01/02 92001 10040 20038 39613 40190 58002 60021 75865 333 42002 55300 20229 30228 69967 96047=
10895,2012,01,01,13,00,AAXX 01131 10895 41204 82302 10070 20068 39610 40180 57008 74264 875// 333 55300 20289 30287 81706 87617 96260 96258=
10895,2012,01,01,14,00,AAXX 01141 10895 41325 82204 10079 20077 39612 40180 55003 76164 885// 333 55300 20185 30185 81709 85615 88626 96040 98225 98489=
10895,2012,01,01,15,00,AAXX 01151 10895 21/01 90701 10046 20042 39615 40191 53002 74764 333 55300 20082 30082 69947 96260=
10895,2012,01,01,16,00,AAXX 01161 10895 41506 82302 10084 20082 39614 40181 50004 74662 885// 333 55300 20009 30009 88630 96261 96228=
10895,2012,01,01,17,00,AAXX 01171 10895 41670 81702 10076 20076 39616 40185 51004 72822 885// 333 55300 20000 30000 88634 95140=
10895,2012,01,01,18,00,AAXX 01181 10895 01675 71902 10075 20075 39618 40187 53003 60022 72164 875// 333 10084 20006 31001 55300 20000 30000 69907 87643 95147=
10895,2012,01,01,19,00,AAXX 01191 10895 42680 61903 10076 20076 39619 40188 51005 86500 333 55300 20000 30000 86643 95132=
10895,2012,01,01,20,00,AAXX 01201 10895 42680 61702 10071 20064 39618 40188 50002 86500 333 55300 20000 30000 86643 95135=
10895,2012,01,01,21,00,AAXX 01211 10895 35668 82003 10070 20060 39613 40183 58005 333 55300 20000 30000 88/45=
10895,2012,01,01,22,00,AAXX 01221 10895 45777 72103 10068 20056 39607 40177 58012 333 55300 20000 30000 83/50 87/50=
10895,2012,01,01,23,00,AAXX 01231 10895 45974 11502 10058 20046 39601 40173 58017 333 55300 20000 30000 81/81=
10908,2012,01,01,00,00,AAXX 01001 10908 06001 72211 10030 20030 38492 48488 51006 60041 333 55/// 20176 30176 55300 20000 30000 60017 87/00 91120 91214=
10908,2012,01,01,01,00,AAXX 01011 10908 46001 82312 10031 20031 38493 48489 51005 333 55300 20000 30000 88/00 91114 91212=
10908,2012,01,01,02,00,AAXX 01021 10908 46001 82412 10030 20030 38495 48491 53003 333 55300 20000 30000 88/00 91116 91213=
10908,2012,01,01,03,00,AAXX 01031 10908 26001 72313 10032 20032 38494 48490 50002 333 55300 20000 30000 60057 87/00 91117 91214=
10908,2012,01,01,04,00,AAXX 01041 10908 46002 82311 10033 20033 38496 48492 52003 333 55300 20000 30000 86/00 86/04 88/08 91117 91214=
10908,2012,01,01,05,00,AAXX 01051 10908 41/01 92411 10033 20033 38501 48497 53006 75164 333 55300 20000 30000 89/01 91120 91214 96045=
10908,2012,01,01,06,00,AAXX 01061 10908 01/01 92313 10034 20034 38501 48497 51007 60152 76365 333 10035 20025 3/001 49080 55000 55300 20000 30000 60067 70263 89/01 91120 91214 96045=
10908,2012,01,01,07,00,AAXX 01071 10908 41/01 92414 10036 20036 38501 48497 51005 76364 333 55300 20000 30000 89/01 91119 91214 96045=
10908,2012,01,01,08,00,AAXX 01081 10908 41/00 92414 10036 20036 38505 48501 53004 76164 333 55300 20044 30044 89/01 91118 91215 96045=
10908,2012,01,01,09,00,AAXX 01091 10908 21/00 92416 10035 20035 38503 48499 50002 75164 333 20025 3/001 55300 20167 30167 60027 89/01 91122 91216 96045=
10908,2012,01,01,10,00,AAXX 01101 10908 41/00 92315 10035 20035 38501 48497 50000 75165 333 55300 20239 30239 89/01 91121 91216 96045=
10908,2012,01,01,11,00,AAXX 01111 10908 41/01 92315 10034 20034 38500 48496 56005 78054 333 55300 20435 30435 89/01 91121 91216 96045 96251=
10908,2012,01,01,12,00,AAXX 01121 10908 01/01 92311 10035 20035 38500 48496 56003 60031 76186 333 42075 55300 20438 30438 60017 89/01 91122 91216 96045=
10908,2012,01,01,13,00,AAXX 01131 10908 41/01 92212 10036 20036 38496 48492 58005 76364 333 55300 20370 30370 89/01 91118 91213 96045=
10908,2012,01,01,14,00,AAXX 01141 10908 41/01 92312 10038 20038 38496 48492 57004 76364 333 55300 20205 30205 89/01 91118 91213 96045=
10908,2012,01,01,15,00,AAXX 01151 10908 21/01 92213 10038 20038 38494 48490 56006 76364 333 55300 20114 30114 60037 89/01 91119 91213 96045=
10908,2012,01,01,16,00,AAXX 01161 10908 41/01 92312 10039 20039 38496 48492 55000 76364 333 55300 20016 30016 89/01 91117 91213 96045=
10908,2012,01,01,17,00,AAXX 01171 10908 41/01 92216 10036 20036 38491 48487 58005 76164 333 55300 20000 30000 89/01 91123 91216 96045=
10908,2012,01,01,18,00,AAXX 01181 10908 01/01 92317 10036 20036 38491 48487 58003 60092 76164 333 10040 20032 3/002 42070 55300 20000 30000 60037 89/01 91123 90206 91218 91218 96045=
10908,2012,01,01,19,00,AAXX 01191 10908 41/01 92313 10036 20036 38491 48487 56005 76364 333 55300 20000 30000 89/01 91120 91217 96045=
10908,2012,01,01,20,00,AAXX 01201 10908 41/01 92313 10036 20036 38489 48485 58002 76364 333 55300 20000 30000 89/01 91118 91214 96045=
10908,2012,01,01,21,00,AAXX 01211 10908 26001 82215 10036 20036 38482 48479 58009 333 55300 20000 30000 60047 88/00 91120 91217=
10908,2012,01,01,22,00,AAXX 01221 10908 46001 72315 10036 20036 38474 48471 58017 333 55300 20000 30000 87/00 91122 91216=
10908,2012,01,01,23,00,AAXX 01231 10908 46001 72316 10036 20036 38468 48465 56021 333 55300 20000 30000 87/00 91122 91217=
10929,2012,01,01,00,00,AAXX 01001 10929 01470 72408 10080 20070 39654 40185 55000 60021 76086 875// 333 31/// 55/// 20056 30056 55300 20000 30000 69997 81710 83622 87636 91114=
10929,2012,01,01,01,00,AAXX 01011 10929 41462 82507 10082 20070 39660 40190 53007 76162 885// 333 55300 20000 30000 82711 88620 91113=
10929,2012,01,01,02,00,AAXX 01021 10929 41465 82505 10082 20072 39663 40194 53010 76162 885// 333 55300 20000 30000 81711 88621=
10929,2012,01,01,03,00,AAXX 01031 10929 21470 82504 10085 20073 39663 40193 51009 72162 885// 333 55300 20000 30000 69967 88619 91113=
10929,2012,01,01,04,00,AAXX 01041 10929 42380 72605 10085 20070 39663 40193 51003 875// 333 55300 20000 30000 81708 87623=
10929,2012,01,01,05,00,AAXX 01051 10929 42482 72403 10085 20069 39665 40195 53002 875// 333 55300 20000 30000 81714 84626 87633=
10929,2012,01,01,06,00,AAXX 01061 10929 11482 62403 10086 20069 39670 40200 53007 60032 70162 86500 222// 06052 333 10088 20064 31006 55000 55300 20000 30000 70110 81715 86625 91113=
10929,2012,01,01,07,00,AAXX 01071 10929 42480 62405 10090 20071 39671 40201 51008 85542 333 55300 20000 30000 85613 83357=
10929,2012,01,01,08,00,AAXX 01081 10929 41462 72604 10090 20070 39676 40206 52011 71522 87842 333 55300 20034 30033 84815 85630=
10929,2012,01,01,09,00,AAXX 01091 10929 21458 72404 10091 20079 39677 40207 52007 72582 87842 333 20064 3/006 55300 20179 30176 69907 84810 86626=
10929,2012,01,01,10,00,AAXX 01101 10929 42480 72404 10100 20078 39681 40209 51010 87842 333 55300 20246 30241 82815 86626=
10929,2012,01,01,11,00,AAXX 01111 10929 42482 72406 10105 20078 39677 40204 50001 878// 333 55300 20327 30316 82816 86633=
10929,2012,01,01,12,00,AAXX 01121 10929 11486 82702 10109 20079 39676 40202 58001 69901 70382 87845 333 31/// 55300 20372 30367 83816 86640=
10929,2012,01,01,13,00,AAXX 01131 10929 41584 82405 10111 20078 39669 40194 58012 72582 878// 333 55300 20457 30446 82820 87640=
10929,2012,01,01,14,00,AAXX 01141 10929 41484 72405 10115 20077 39662 40186 58015 72522 84842 333 55303 20546 30464 81810 84640 85361=
10929,2012,01,01,15,00,AAXX 01151 10929 21484 72504 10110 20078 39663 40188 55013 70182 85842 333 55300 20215 30197 69907 81810 85640 87080=
10929,2012,01,01,16,00,AAXX 01161 10929 42688 62402 10100 20074 39663 40190 56006 82542 333 55300 20058 30054 81646 86080=
10929,2012,01,01,17,00,AAXX 01171 10929 42684 72202 10094 20071 39665 40193 53003 83502 333 55300 20000 30000 83646 86080=
10929,2012,01,01,18,00,AAXX 01181 10929 11782 61602 10092 20070 39664 40193 50001 69902 70182 82501 333 10115 20078 31006 55300 20000 30000 82650 86080=
10929,2012,01,01,19,00,AAXX 01191 10929 42582 32202 10085 20065 39662 40192 58001 81501 333 55300 20000 30000 81623 83080=
10929,2012,01,01,20,00,AAXX 01201 10929 42581 32001 10076 20063 39660 40192 58005 81501 333 55300 20000 30000 81623 83080=
10929,2012,01,01,21,00,AAXX 01211 10929 32980 51101 10069 20059 39654 40187 58010 80001 333 55300 20000 30000 85080=
10929,2012,01,01,22,00,AAXX 01221 10929 42980 71002 10066 20056 39648 40181 58014 80001 333 55300 20000 30000 87080=
10929,2012,01,01,23,00,AAXX 01231 10929 42980 71001 10060 20050 39642 40176 57018 80002 333 55300 20000 30000 87080=
10945,2012,01,01,00,00,AAXX 01001 10945 07256 72104 10040 20039 39391 40195 53006 60081 75765 333 55300 60047 87/03 87/09=
10945,2012,01,01,01,00,AAXX 01011 10945 47156 72205 10045 20045 39396 40199 53009 75765 333 55300 87/02=
10945,2012,01,01,02,00,AAXX 01021 10945 47266 72105 10049 20048 39398 40200 51012 76165 333 55300 87/05=
10945,2012,01,01,03,00,AAXX 01031 10945 27258 82104 10053 20051 39398 40198 51007 76165 333 55300 60027 88/05=
10945,2012,01,01,04,00,AAXX 01041 10945 47270 82005 10052 20049 39396 40196 50000 75165 333 55300 88/06=
10945,2012,01,01,05,00,AAXX 01051 10945 47357 82105 10049 20045 39400 40202 53002 72365 333 55300 88/07=
10945,2012,01,01,06,00,AAXX 01061 10945 07358 82105 10051 20048 39404 40205 53006 60102 72365 333 10056 20026 3/100 55000 55300 69917 70203 88/07=
10945,2012,01,01,07,00,AAXX 01071 10945 47156 72005 10051 20050 39407 40209 51011 72365 333 55300 81/03 87/08=
10945,2012,01,01,08,00,AAXX 01081 10945 45481 82105 10058 20055 39411 40211 52011 333 55300 88/11 88/20=
10945,2012,01,01,09,00,AAXX 01091 10945 27461 81906 10057 20050 39413 40213 51009 70065 333 20026 3/100 55300 69927 86/13 88/21 88/34=
10945,2012,01,01,10,00,AAXX 01101 10945 45459 72006 10062 20058 39416 40215 51009 333 55300 85/10 87/13=
10945,2012,01,01,11,00,AAXX 01111 10945 45483 82105 10068 20063 39414 40211 50003 333 55300 81/18 83/47 88/56=
10945,2012,01,01,12,00,AAXX 01121 10945 17584 82105 10075 20063 39409 40203 58004 69921 70065 333 55301 81/21 88/46 88/58=
10945,2012,01,01,13,00,AAXX 01131 10945 45587 72104 10076 20062 39405 40199 58011 333 55301 82/27 87/47 87/62=
10945,2012,01,01,14,00,AAXX 01141 10945 45584 72002 10073 20061 39403 40198 56011 333 55300 81/22 84/31 87/42=
10945,2012,01,01,15,00,AAXX 01151 10945 27684 71903 10064 20054 39400 40197 56009 72250 333 55300 69907 83/36 87/65 87/70=
10945,2012,01,01,16,00,AAXX 01161 10945 47485 71901 10057 20047 39400 40199 56005 72250 333 55300 81/12 87/47 87/80=
10945,2012,01,01,17,00,AAXX 01171 10945 45781 82003 10040 20033 39402 40207 55001 333 55300 83/50 88/76 88/79=
10945,2012,01,01,18,00,AAXX 01181 10945 07684 82104 10060 20049 39402 40201 52002 69922 70050 333 10077 20038 3/001 55300 69907 87/34 88/45 88/76=
10945,2012,01,01,19,00,AAXX 01191 10945 45680 81803 10056 20047 39400 40200 50000 333 55300 88/39=
10945,2012,01,01,20,00,AAXX 01201 10945 45686 81804 10052 20040 39395 40196 58007 333 55300 84/47 85/73 88/76=
10945,2012,01,01,21,00,AAXX 01211 10945 35988 82104 10061 20041 39391 40189 58011 333 55300 88/74 88/80=
10945,2012,01,01,22,00,AAXX 01221 10945 45988 82102 10046 20030 39385 40187 58015 333 55300 88/73=
10945,2012,01,01,23,00,AAXX 01231 10945 45988 82303 10038 20030 39380 40184 58015 333 55300 81/67 88/71=
10946,2012,01,01,00,00,AAXX 01001 10946 07433 82003 10050 20047 39350 40185 52003 60061 76265 333 55/// 20096 30096 55300 20000 30000 60037 83/14 87/33 88/42=
10946,2012,01,01,01,00,AAXX 01011 10946 47460 82204 10059 20054 39356 40189 53008 75766 333 55300 20000 30000 84/18 87/23 88/44=
10946,2012,01,01,02,00,AAXX 01021 10946 47473 82203 10061 20054 39359 40192 53010 76166 333 55300 20000 30000 87/15 88/50=
10946,2012,01,01,03,00,AAXX 01031 10946 27468 82104 10066 20058 39358 40189 50008 75765 333 55300 20000 30000 60027 88/13=
10946,2012,01,01,04,00,AAXX 01041 10946 47450 82104 10068 20061 39361 40192 52005 75165 333 55300 20000 30000 88/10=
10946,2012,01,01,05,00,AAXX 01051 10946 47482 82004 10063 20058 39361 40193 53002 72365 333 55300 20000 30000 88/14=
10946,2012,01,01,06,00,AAXX 01061 10946 07446 81903 10061 20058 39366 40199 53008 60082 75265 333 10068 20034 3/002 55000 55300 20000 30000 69937 70127 82/13 83/26 88/35=
10946,2012,01,01,07,00,AAXX 01071 10946 47450 81903 10063 20060 39370 40203 53009 75765 333 55300 20000 30000 87/13 88/20=
10946,2012,01,01,08,00,AAXX 01081 10946 47482 71903 10069 20065 39374 40205 51013 72365 333 55300 20017 30017 87/13=
10946,2012,01,01,09,00,AAXX 01091 10946 27488 82104 10079 20062 39376 40205 51010 72265 333 20034 3/002 55300 20134 30134 69947 81/15 88/21=
10946,2012,01,01,10,00,AAXX 01101 10946 47472 82104 10083 20067 39380 40208 52010 75150 333 55300 20534 30520 81/11 87/43 88/56=
10946,2012,01,01,11,00,AAXX 01111 10946 47587 82005 10091 20069 39375 40200 50001 75150 333 55300 20668 30649 82/20 83/29 88/57=
10946,2012,01,01,12,00,AAXX 01121 10946 07588 81703 10092 20064 39373 40197 58003 69941 72265 333 55300 20393 30393 69907 81/22 84/27 88/40=
10946,2012,01,01,13,00,AAXX 01131 10946 45688 82203 10100 20062 39368 40189 57012 333 55301 20511 30490 83/43 87/50 88/58=
10946,2012,01,01,14,00,AAXX 01141 10946 45688 52103 10103 20058 39365 40185 58010 333 55302 20543 30489 85/47=
10946,2012,01,01,15,00,AAXX 01151 10946 35688 32103 10098 20054 39366 40188 55007 333 55305 20368 30290 83/48=
10946,2012,01,01,16,00,AAXX 01161 10946 45785 21902 10074 20050 39364 40193 56004 333 55300 20044 30043 82/50=
10946,2012,01,01,17,00,AAXX 01171 10946 45966 01703 10050 20038 39364 40201 58001 333 55300 20000 30000=
10946,2012,01,01,18,00,AAXX 01181 10946 15676 81502 10057 20046 39367 40202 53001 69942 333 10106 20048 3/002 55300 20000 30000 88/37=
10946,2012,01,01,19,00,AAXX 01191 10946 45672 71202 10050 20040 39364 40201 50000 333 55300 20000 30000 87/42=
10946,2012,01,01,20,00,AAXX 01201 10946 45674 11502 10039 20031 39361 40201 58003 333 55300 20000 30000 81/47=
10946,2012,01,01,22,00,AAXX 01221 10946 45979 01503 10031 20023 39351 40193 58013 333 55300 20000 30000=
10946,2012,01,01,23,00,AAXX 01231 10946 45983 71503 10037 20023 39344 40183 58017 333 55300 20000 30000 87/74=
10948,2012,01,01,00,00,AAXX 01001 10948 07518 71903 10019 20019 39249 48484 53004 60111 75866 333 4/031 55/// 20047 30047 55300 20000 30000 60067 83/24 87/31 87/58=
10948,2012,01,01,01,00,AAXX 01011 10948 47661 71504 10030 20030 39250 48487 52004 76266 333 4/031 55300 20000 30000 87/33=
10948,2012,01,01,02,00,AAXX 01021 10948 47550 71504 10028 20028 39256 48492 53009 76266 333 4/031 55300 20000 30000 87/29=
10948,2012,01,01,03,00,AAXX 01031 10948 27662 81505 10026 20025 39255 48490 50006 76276 333 4/030 55300 20000 30000 60047 88/34=
10948,2012,01,01,04,00,AAXX 01041 10948 47662 71804 10033 20033 39256 48493 51006 76166 333 4/029 55300 20000 30000 87/33=
10948,2012,01,01,05,00,AAXX 01051 10948 41464 81604 10033 20033 39256 48493 55000 76366 8172/ 333 4/030 55300 20000 30000 81710 88540=
10948,2012,01,01,06,00,AAXX 01061 10948 01662 81703 10028 20028 39261 48496 53006 60172 76366 8802/ 333 10036 20014 3/001 43030 55000 55300 20000 30000 60027 70426 88540=
10948,2012,01,01,07,00,AAXX 01071 10948 41162 81704 10027 20027 39265 48499 53009 76366 8352/ 333 4/029 55300 20000 30000 81703 83635 88545=
10948,2012,01,01,08,00,AAXX 01081 10948 41264 81604 10031 20031 39269 48504 51013 76366 8652/ 333 4/029 55300 20014 30014 81704 86635 88545=
10948,2012,01,01,09,00,AAXX 01091 10948 21280 71903 10025 20025 39270 48503 51009 72166 875// 333 20014 3/001 4/029 55300 20090 30090 60027 81704 83635 87650=
10948,2012,01,01,10,00,AAXX 01101 10948 41575 71603 10030 20029 39273 48507 51008 76022 875// 333 4/028 55300 20187 30187 81630 87650=
10948,2012,01,01,11,00,AAXX 01111 10948 41159 81503 10035 20035 39272 48508 50003 76166 885// 333 4/027 55300 20258 30258 81703 88650=
10948,2012,01,01,12,00,AAXX 01121 10948 01165 81704 10042 20042 39265 48503 58005 60021 76162 885// 333 43028 55300 20307 30307 69947 81703 88650=
10948,2012,01,01,13,00,AAXX 01131 10948 41186 71603 10046 20046 39260 48500 58013 72122 85532 333 4/026 55300 20418 30415 81703 85656 85358=
10948,2012,01,01,14,00,AAXX 01141 10948 42188 71602 10036 20036 39258 48496 56014 84532 333 4/025 55301 20482 30430 81702 84656 85075=
10948,2012,01,01,15,00,AAXX 01151 10948 21788 71703 10042 20042 39256 48496 56009 74062 83572 333 4/026 55301 20367 30334 69917 83656 86075=
10948,2012,01,01,16,00,AAXX 01161 10948 41786 61603 10035 20035 39258 48495 55002 74022 81502 333 4/026 55300 20049 30049 81656 86074=
10948,2012,01,01,17,00,AAXX 01171 10948 47188 21702 10026 20026 39259 48494 53001 72030 333 4/026 55300 20000 30000 81/01=
10948,2012,01,01,18,00,AAXX 01181 10948 17088 41802 10014 20014 39258 48490 50002 60022 72065 333 10054 20009 3/101 4/026 55300 20000 30000 81/00 84/78=
10948,2012,01,01,19,00,AAXX 01191 10948 47988 31701 10008 20008 39255 48486 58003 72030 333 4/026 55300 20000 30000 83/78=
10948,2012,01,01,20,00,AAXX 01201 10948 47964 71602 10010 20010 39254 48485 57005 72030 333 4/026 55300 20000 30000 87/76 87/78=
10948,2012,01,01,21,00,AAXX 01211 10948 37081 21603 10006 20006 39251 48482 57007 72030 333 4/026 55300 20000 30000 81/00=
10948,2012,01,01,22,00,AAXX 01221 10948 47088 51703 10020 20020 39245 48480 58010 72030 333 4/026 55300 20000 30000 81/00 85/75=
10948,2012,01,01,23,00,AAXX 01231 10948 47988 81502 10019 20019 39237 48473 58017 72030 333 4/026 55300 20000 30000 88/74=
10954,2012,01,01,00,00,AAXX 01001 10954 NIL=
10954,2012,01,01,01,00,AAXX 01011 10954 NIL=
10954,2012,01,01,02,00,AAXX 01021 10954 NIL=
10954,2012,01,01,03,00,AAXX 01031 10954 NIL=
10954,2012,01,01,04,00,AAXX 01041 10954 NIL=
10954,2012,01,01,05,00,AAXX 01051 10954 NIL=
10954,2012,01,01,06,00,AAXX 01061 10954 NIL=
10954,2012,01,01,07,00,AAXX 01071 10954 NIL=
10954,2012,01,01,08,00,AAXX 01081 10954 NIL=
10954,2012,01,01,09,00,AAXX 01091 10954 NIL=
10954,2012,01,01,10,00,AAXX 01101 10954 NIL=
10954,2012,01,01,11,00,AAXX 01111 10954 NIL=
10954,2012,01,01,12,00,AAXX 01121 10954 NIL=
10954,2012,01,01,13,00,AAXX 01131 10954 NIL=
10954,2012,01,01,14,00,AAXX 01141 10954 NIL=
10954,2012,01,01,15,00,AAXX 01151 10954 NIL=
10954,2012,01,01,16,00,AAXX 01161 10954 NIL=
10954,2012,01,01,17,00,AAXX 01171 10954 NIL=
10954,2012,01,01,18,00,AAXX 01181 10954 NIL=
10954,2012,01,01,19,00,AAXX 01191 10954 NIL=
10954,2012,01,01,20,00,AAXX 01201 10954 NIL=
10954,2012,01,01,21,00,AAXX 01211 10954 NIL=
10954,2012,01,01,22,00,AAXX 01221 10954 NIL=
10954,2012,01,01,23,00,AAXX 01231 10954 NIL=
10961,2012,01,01,00,00,AAXX 01001 10961 46/// /3113 11054 21054 37053 47019 53007 333 55/// 20170 42505 55300 20000 41123 91124 91216=
10961,2012,01,01,01,00,AAXX 01011 10961 46/// /3417 11051 21051 37050 47016 54000 333 55300 20000 41134 91125 91217=
10961,2012,01,01,02,00,AAXX 01021 10961 46/// /3414 11054 21054 37060 47027 53013 333 55300 20000 41123 91124 91217=
10961,2012,01,01,03,00,AAXX 01031 10961 46/// /3411 11051 21051 37066 47034 53013 333 55300 20000 41128 91125 91217=
10961,2012,01,01,04,00,AAXX 01041 10961 46/// /3409 11051 21051 37071 47039 51021 333 55300 20000 41132 91119 91212=
10961,2012,01,01,05,00,AAXX 01051 10961 41/00 93211 11048 21052 37071 47040 51011 77174 333 55300 20000 41134 91121 91213 96049=
10961,2012,01,01,06,00,AAXX 01061 10961 11/00 92911 11048 21052 37072 47041 51006 60252 77174 333 11046 21063 49275 55000 55300 20000 41140 70502 91125 91217 96049=
10961,2012,01,01,07,00,AAXX 01071 10961 41/01 93110 11046 21050 37078 47047 53007 77174 333 55300 20000 41137 91122 91212 96049=
10961,2012,01,01,08,00,AAXX 01081 10961 41/01 92812 11045 21049 37082 47052 53011 74974 333 55300 20049 41155 91120 91212=
10961,2012,01,01,09,00,AAXX 01091 10961 41/01 93010 11046 21050 37087 47057 51015 74974 333 21063 55300 20230 41153 91122 91213=
10961,2012,01,01,10,00,AAXX 01101 10961 41/01 92910 11052 21052 37091 47062 52013 74944 333 55300 20657 41110 91123 91212=
10961,2012,01,01,11,00,AAXX 01111 10961 41/01 72811 11042 21042 37088 47059 50006 74144 875// 333 55302 20955 41089 876// 91120 91212=
10961,2012,01,01,12,00,AAXX 01121 10961 11/01 72612 11042 21042 37091 47062 51004 60011 74174 875// 333 49270 55301 20970 41132 876// 91123 91213 96471=
10961,2012,01,01,13,00,AAXX 01131 10961 41/01 92612 11039 21043 37091 47062 55000 74944 333 55300 20490 41151 91120 91213 96047=
10961,2012,01,01,14,00,AAXX 01141 10961 41/05 72615 11044 21044 37089 47060 50001 74144 83532 333 55300 20382 41140 836// 85330 91122 91216 98789 444 16209 16250=
10961,2012,01,01,15,00,AAXX 01151 10961 41/89 72615 11043 21057 37090 47061 55001 70142 81542 333 55303 20310 40966 816// 83333 86070 91122 91216 444 16250=
10961,2012,01,01,16,00,AAXX 01161 10961 42/89 62515 11057 21082 37091 47061 55000 81542 333 55301 20058 40895 816// 86070 91119 91216 444 16250=
10961,2012,01,01,17,00,AAXX 01171 10961 42589 62517 11061 21093 37091 47061 51002 82042 333 55300 20000 40859 82333 86070 91121 91217=
10961,2012,01,01,18,00,AAXX 01181 10961 11589 42515 11057 21095 37094 47065 53004 60012 70141 81042 333 11036 21062 49265 55300 20000 40869 81333 84070 91122 91217=
10961,2012,01,01,19,00,AAXX 01191 10961 42589 52515 11052 21100 37094 47065 52003 81042 333 55300 20000 40886 81333 85070 91121 91217=
10961,2012,01,01,20,00,AAXX 01201 10961 42989 52010 11042 21091 37095 47066 51004 80002 333 55300 20000 40877 85070 91120 91216=
10961,2012,01,01,21,00,AAXX 01211 10961 46/// /2312 11036 21099 37092 47063 58002 333 55300 20000 40875 91121 91217=
10961,2012,01,01,22,00,AAXX 01221 10961 46/// /1513 11037 21081 37087 47058 58007 333 55300 20000 40863 91121 91213=
10961,2012,01,01,23,00,AAXX 01231 10961 46/// /1813 11036 21075 37084 47054 57011 333 55300 20000 40865 91126 91214=
10962,2012,01,01,00,00,AAXX 01001 10962 01/00 92407 10036 20035 39025 48470 52006 60081 76364 333 43007 55/// 20118 30116 55300 20000 30000 60067 91114 96047 96461=
10962,2012,01,01,01,00,AAXX 01011 10962 41/00 92408 10039 20038 39026 48471 53004 76164 333 55300 20000 30000 91115 96045 96263=
10962,2012,01,01,02,00,AAXX 01021 10962 41/00 92409 10041 20040 39029 48474 52007 76164 333 55300 20000 30000 91115 96045 96263=
10962,2012,01,01,03,00,AAXX 01031 10962 21/01 92508 10048 20047 39032 48478 53007 76364 333 55300 20000 30000 60057 91116 96043 96261=
10962,2012,01,01,04,00,AAXX 01041 10962 41/01 92508 10050 20049 39032 48479 51006 76164 333 55300 20000 30000 91116 96045 96263=
10962,2012,01,01,05,00,AAXX 01051 10962 41/01 92408 10052 20051 39035 48482 52006 76164 333 55300 20000 30000 91115 96045=
10962,2012,01,01,06,00,AAXX 01061 10962 01172 82409 10053 20052 39037 48484 53005 60142 72865 875// 333 10054 20026 3/002 42003 55000 55300 20000 30000 69967 70212 82703 87610 91117 96251 96463 96461=
10962,2012,01,01,07,00,AAXX 01071 10962 41/67 82410 10054 20053 39041 48488 53009 76162 885// 333 55300 20000 30000 817// 88616 91115=
10962,2012,01,01,08,00,AAXX 01081 10962 41/82 72408 10056 20055 39046 48492 53011 72122 875// 333 55300 20042 30041 817// 87623 91116=
10962,2012,01,01,09,00,AAXX 01091 10962 21/87 72408 10060 20059 39049 48496 51012 70262 878// 333 20026 3/002 55305 20469 30369 69967 817// 87626 91116=
10962,2012,01,01,10,00,AAXX 01101 10962 42489 72408 10066 20065 39052 48500 51011 8683/ 333 55300 20406 30394 81815 86640 91116=
10962,2012,01,01,11,00,AAXX 01111 10962 42589 72410 10070 20068 39047 48496 50001 8683/ 333 55301 20669 30646 81820 86641 91117 91211=
10962,2012,01,01,12,00,AAXX 01121 10962 11589 72408 10079 20070 39047 48498 58002 69961 70262 8653/ 333 31/// 41998 55303 20712 30633 81621 86638 91117 91211=
10962,2012,01,01,13,00,AAXX 01131 10962 42589 72409 10082 20062 39046 48497 56006 86832 333 55302 20639 30582 81825 86643 91115=
10962,2012,01,01,14,00,AAXX 01141 10962 42789 72408 10081 20053 39045 48496 58002 83518 333 55303 20532 30471 83650 85271 91113=
10962,2012,01,01,15,00,AAXX 01151 10962 32789 72408 10083 20048 39046 48497 55001 82572 333 55305 20330 30281 82656 84361 91115=
10962,2012,01,01,16,00,AAXX 01161 10962 42789 52408 10076 20044 39045 48495 57001 81542 333 55300 20050 30048 81656 84073 91114=
10962,2012,01,01,17,00,AAXX 01171 10962 42989 42406 10075 20042 39048 48497 53003 82032 333 55300 20000 30000 82360 83075=
10962,2012,01,01,18,00,AAXX 01181 10962 12989 52408 10081 20039 39047 48498 52001 69962 81032 333 10087 20053 31005 4/998 55300 20000 30000 81361 85075 91115=
10962,2012,01,01,19,00,AAXX 01191 10962 42989 62407 10075 20038 39046 48496 50001 80001 333 55300 20000 30000 86074 91113=
10962,2012,01,01,20,00,AAXX 01201 10962 42989 62406 10072 20037 39044 48493 58004 80001 333 55300 20000 30000 86073=
10962,2012,01,01,21,00,AAXX 01211 10962 32989 62205 10054 20027 39038 48485 58009 80001 333 55300 20000 30000 86073 91113=
10962,2012,01,01,22,00,AAXX 01221 10962 42989 72207 10061 20029 39034 48482 58012 80001 333 55300 20000 30000 87072=
10962,2012,01,01,23,00,AAXX 01231 10962 42989 72105 10051 20022 39029 48476 56015 80001 333 55300 20000 30000 87072=
10963,2012,01,01,00,00,AAXX 01001 10963 07/06 /1701 10009 20006 39335 40202 50004 60101 76265 333 4/025 55/// 20064 30064 55300 20000 30000 60077=
10963,2012,01,01,01,00,AAXX 01011 10963 47406 83401 10011 20009 39340 40206 53007 76266 333 4/024 55300 20000 30000 82/10 83/26 88/37=
10963,2012,01,01,02,00,AAXX 01021 10963 47308 83101 10011 20009 39340 40206 53004 76266 333 4/023 55300 20000 30000 82/08 85/42 88/50=
10963,2012,01,01,03,00,AAXX 01031 10963 27509 80101 10013 20011 39342 40208 51007 76266 333 4/024 55300 20000 30000 60067 81/31 83/45 88/50=
10963,2012,01,01,04,00,AAXX 01041 10963 47518 81701 10016 20016 39343 40208 53003 76265 333 4/023 55300 20000 30000 81/29 87/50 88/61=
10963,2012,01,01,05,00,AAXX 01051 10963 47505 73401 10017 20017 39344 40209 51004 73065 333 4/023 55300 20000 30000 81/30 87/48 87/58=
10963,2012,01,01,06,00,AAXX 01061 10963 07620 72801 10013 20011 39349 40216 53007 60182 72065 333 10023 20003 3/100 4/022 55000 55300 20000 30000 60027 70361 87/49=
10963,2012,01,01,07,00,AAXX 01071 10963 45663 82101 10016 20016 39350 40216 52007 333 4/023 55300 20000 30000 88/44=
10963,2012,01,01,08,00,AAXX 01081 10963 47658 73301 10014 20012 39351 40217 51007 72360 333 4/023 55300 20020 30020 82/35 87/60 87/67=
10963,2012,01,01,09,00,AAXX 01091 10963 27557 60401 10022 20020 39356 40220 53007 71060 333 20003 3/100 4/023 55300 20130 30130 69907 81/30 84/39 86/49=
10963,2012,01,01,10,00,AAXX 01101 10963 45968 21901 10051 20038 39359 40214 53009 333 4/022 55307 20604 30277 81/63=
10963,2012,01,01,11,00,AAXX 01111 10963 45783 72601 10052 20035 39355 40209 50004 333 4/021 55307 20803 30425 86/50 87/63=
10963,2012,01,01,12,00,AAXX 01121 10963 17767 82601 10052 20037 39352 40206 58004 69901 70060 333 4/020 55300 20459 30455 82/50 83/57 88/61=
10963,2012,01,01,13,00,AAXX 01131 10963 45880 82201 10051 20037 39348 40202 57011 333 4/021 55300 20489 30479 83/57 87/59 88/64=
10963,2012,01,01,14,00,AAXX 01141 10963 45976 83301 10043 20031 39346 40202 56009 333 4/020 55301 20336 30312 88/59 88/61=
10963,2012,01,01,15,00,AAXX 01151 10963 35973 32401 10035 20026 39347 40206 55005 333 4/019 55300 20209 30208 82/72 83/80=
10963,2012,01,01,16,00,AAXX 01161 10963 47944 72601 10018 20013 39350 40215 53002 71000 333 4/019 55300 20038 30037 82/70 87/81=
10963,2012,01,01,17,00,AAXX 01171 10963 47932 02502 10008 20005 39353 40222 53007 71000 333 4/018 55300 20000 30000=
10963,2012,01,01,18,00,AAXX 01181 10963 17908 22201 10004 20001 39355 40225 51008 69902 73030 333 10064 20003 3/102 4/019 55300 20000 30000 82/81=
10963,2012,01,01,19,00,AAXX 01191 10963 47925 12801 11003 21005 39355 40228 51005 72030 333 4/019 55300 20000 30000 81/80=
10963,2012,01,01,20,00,AAXX 01201 10963 47020 41901 11003 21005 39353 40225 50000 72030 333 4/019 55300 20000 30000 81/00 84/77=
10963,2012,01,01,21,00,AAXX 01211 10963 37932 02601 11010 21012 39347 40221 58008 72030 333 4/019 55300 20000 30000=
10963,2012,01,01,22,00,AAXX 01221 10963 47040 22401 11012 21014 39345 40220 57010 72030 333 4/019 55300 20000 30000 81/01=
10963,2012,01,01,23,00,AAXX 01231 10963 47956 02302 11012 21013 39341 40215 56012 71000 333 4/019 55300 20000 30000=
10980,2012,01,01,00,00,AAXX 01001 10980 46/// /2716 11010 21012 38125 48473 53006 333 55/// 20134 30134 55300 20000 30000 91124 91219=
10980,2012,01,01,01,00,AAXX 01011 10980 46/// /2718 11011 21013 38126 48474 51007 333 55300 20000 30000 91124 91218=
10980,2012,01,01,02,00,AAXX 01021 10980 46/// /2818 11005 21006 38130 48477 52009 333 55300 20000 30000 91124 91219=
10980,2012,01,01,03,00,AAXX 01031 10980 46/// /2716 10000 21001 38132 48479 53007 333 55300 20000 30000 91124 91219=
10980,2012,01,01,04,00,AAXX 01041 10980 46/// /2716 10000 21001 38136 48483 52010 333 55300 20000 30000 91124 91218=
10980,2012,01,01,05,00,AAXX 01051 10980 41/01 92617 10000 21001 38139 48486 53009 76974 333 55300 20000 30000 91122 91217 96045 96268=
10980,2012,01,01,06,00,AAXX 01061 10980 11/01 92618 10001 21000 38141 48487 51009 60112 76874 333 10001 21018 3/102 49105 55000 55300 20000 30000 70263 91124 91219 96045 96471 96469 96468 96449 96445=
10980,2012,01,01,07,00,AAXX 01071 10980 41/01 92617 10003 20002 38147 48493 53011 76874 333 55300 20000 30000 91124 91219 96045=
10980,2012,01,01,08,00,AAXX 01081 10980 41/01 92617 10007 20006 38147 48493 51008 74574 333 55300 20004 30004 91124 91219 96268=
10980,2012,01,01,09,00,AAXX 01091 10980 41/01 92617 10013 20012 38155 48500 53014 74574 333 21018 3/102 55300 20122 30122 91124 91219 96468 96445=
10980,2012,01,01,10,00,AAXX 01101 10980 41/01 92616 10012 20011 38161 48506 53014 74544 333 55300 20209 30209 91123 91218=
10980,2012,01,01,11,00,AAXX 01111 10980 41/01 92515 10014 20013 38158 48503 50011 74544 333 55300 20449 30449 91121 91216=
10980,2012,01,01,12,00,AAXX 01121 10980 11581 72417 10016 20015 38156 48500 50001 60021 72874 875// 333 44085 55300 20415 30415 87620 91124 91218 90326 91219 96245 96468 96445=
10980,2012,01,01,13,00,AAXX 01131 10980 42584 72413 10017 20016 38156 48500 56005 875// 333 55300 20324 30323 87620 91126 91217=
10980,2012,01,01,14,00,AAXX 01141 10980 42586 72508 10020 20019 38160 48504 53002 875// 333 55300 20305 30301 87620 91116 91213=
10980,2012,01,01,15,00,AAXX 01151 10980 42588 72509 10019 20018 38160 48504 52004 875// 333 55300 20123 30123 87620 91126 91217=
10980,2012,01,01,16,00,AAXX 01161 10980 42589 72409 10025 20025 38159 48502 50003 82531 333 55300 20017 30016 82620 84350 86070=
10980,2012,01,01,17,00,AAXX 01171 10980 42789 72508 10018 20016 38161 48505 53001 82031 333 55300 20000 30000 82350 86070=
10980,2012,01,01,18,00,AAXX 01181 10980 12989 52612 10023 20020 38163 48506 53003 60022 80001 333 10025 20001 3/000 44077 55300 20000 30000 85070 91126 91217=
10980,2012,01,01,19,00,AAXX 01191 10980 42989 62611 10022 20019 38163 48507 51004 80001 333 55300 20000 30000 86070 91114 91212=
10980,2012,01,01,20,00,AAXX 01201 10980 42989 62309 10024 20021 38160 48503 58001 80001 333 55300 20000 30000 86070 91114 91212=
10980,2012,01,01,21,00,AAXX 01211 10980 46/// /2607 10028 20020 38158 48501 58005 333 55300 20000 30000 91114 91212=
10980,2012,01,01,22,00,AAXX 01221 10980 46/// /1603 10027 20017 38152 48495 58011 333 55300 20000 30000=
10980,2012,01,01,23,00,AAXX 01231 10980 46/// /1805 10035 20008 38147 48489 58013 333 55300 20000 30000=
10982,2012,01,01,00,00,AAXX 01001 10982 07429 82103 10046 20045 39513 40175 53006 60061 76265 333 55/// 20128 30128 55300 20000 30000 60037 86/14 88/19=
10982,2012,01,01,01,00,AAXX 01011 10982 47563 82304 10059 20052 39516 40175 53007 76266 333 55300 20000 30000 86/20 87/27 88/36=
10982,2012,01,01,02,00,AAXX 01021 10982 47458 82105 10050 20044 39520 40182 53010 76266 333 55300 20000 30000 81/11 87/23 88/31=
10982,2012,01,01,03,00,AAXX 01031 10982 27460 82005 10050 20043 39521 40183 51008 76266 333 55300 20000 30000 60067 82/15 87/26 88/40=
10982,2012,01,01,04,00,AAXX 01041 10982 47450 82005 10052 20046 39523 40184 51007 75866 333 55300 20000 30000 87/11 88/17=
10982,2012,01,01,05,00,AAXX 01051 10982 47350 82104 10056 20056 39527 40187 53007 75865 333 55300 20000 30000 87/08 88/12=
10982,2012,01,01,06,00,AAXX 01061 10982 07456 72004 10053 20051 39530 40191 53009 60152 76265 333 10065 20016 3/000 55000 55300 20000 30000 60047 70242 81/11 87/22=
10982,2012,01,01,07,00,AAXX 01071 10982 47460 82004 10055 20055 39534 40195 52011 76266 333 55300 20000 30000 87/18 88/26=
10982,2012,01,01,08,00,AAXX 01081 10982 47465 82104 10062 20057 39540 40200 53013 75165 333 55300 20002 30002 88/17=
10982,2012,01,01,09,00,AAXX 01091 10982 27485 82005 10068 20068 39541 40199 51011 72365 333 20016 3/000 55300 20095 30094 60037 81/11 85/23 88/29=
10982,2012,01,01,10,00,AAXX 01101 10982 45588 82205 10080 20065 39545 40201 51011 333 55300 20214 30214 82/24 87/41 88/48=
10982,2012,01,01,11,00,AAXX 01111 10982 47688 72104 10084 20068 39542 40196 50002 72365 333 55300 20251 30251 87/37 87/46=
10982,2012,01,01,12,00,AAXX 01121 10982 07488 72203 10082 20065 39539 40194 58002 60031 75165 333 55300 20260 30260 69907 81/14 87/39=
10982,2012,01,01,13,00,AAXX 01131 10982 47688 72004 10081 20062 39536 40191 57009 72365 333 55300 20205 30205 87/44 87/50=
10982,2012,01,01,14,00,AAXX 01141 10982 47788 71803 10076 20062 39538 40194 55004 72365 333 55300 20116 30116 87/50=
10982,2012,01,01,15,00,AAXX 01151 10982 27788 81903 10077 20055 39538 40194 56001 72365 333 55300 20079 30078 69917 88/50=
10982,2012,01,01,16,00,AAXX 01161 10982 47886 71705 10069 20048 39535 40193 58001 72365 333 55300 20003 30003 81/57 83/68 87/74=
10982,2012,01,01,17,00,AAXX 01171 10982 45987 11805 10067 20046 39537 40196 55001 333 55300 20000 30000 81/67=
10982,2012,01,01,18,00,AAXX 01181 10982 07986 01805 10062 20042 39540 40200 53002 60032 70065 333 10090 20052 3/005 55300 20000 30000 69907=
10982,2012,01,01,19,00,AAXX 01191 10982 45986 01806 10060 20039 39538 40198 50003 333 55300 20000 30000=
10982,2012,01,01,20,00,AAXX 01201 10982 45986 01805 10059 20038 39538 40199 51001 333 55300 20000 30000=
10982,2012,01,01,21,00,AAXX 01211 10982 35988 01504 10054 20035 39533 40195 58007 333 55300 20000 30000=
10982,2012,01,01,22,00,AAXX 01221 10982 45979 00702 10030 20024 39527 40194 58011 333 55300 20000 30000=
10982,2012,01,01,23,00,AAXX 01231 10982 45988 01502 10040 20034 39519 40183 58019 333 55300 20000 30000=
